{"type":"FeatureCollection","features":[{"type":"Feature","id":"amb_ari_diques.5","geometry":{"type":"MultiLineString","coordinates":[[[-76.50435778,3.380095],[-76.5056072,3.38142432],[-76.50879138,3.38464468],[-76.50902732,3.38506091],[-76.50996692,3.38798351],[-76.51067051,3.38969766],[-76.51096443,3.3902258],[-76.51226473,3.39190866],[-76.51526632,3.39586067],[-76.51548898,3.3961024],[-76.51634398,3.39689905],[-76.5170121,3.39743614],[-76.51854406,3.39873632],[-76.51898931,3.39913012],[-76.51921642,3.39935402],[-76.52219579,3.40324224],[-76.52224479,3.4033451],[-76.52239618,3.40348613],[-76.52249418,3.40395375],[-76.5224852,3.40411044],[-76.52250309,3.40446398],[-76.52280587,3.40474152]]]},"geometry_name":"the_geom","properties":{"id_dique":1,"nombre":"Canal Interceptor Sur"}},{"type":"Feature","id":"amb_ari_diques.9","geometry":{"type":"MultiLineString","coordinates":[[[-76.51281703,3.38903695],[-76.51295756,3.38916179],[-76.51316982,3.38928644],[-76.51335574,3.38937345],[-76.51351122,3.38943983],[-76.51364524,3.3896055],[-76.51387319,3.3897463],[-76.51411053,3.38979849],[-76.51436026,3.38979469],[-76.51459204,3.38992673],[-76.51484245,3.3899685],[-76.51501976,3.38991011],[-76.5151414,3.38978428],[-76.51522255,3.38957181],[-76.51524166,3.38943259],[-76.51526657,3.38939598],[-76.51548432,3.38940463],[-76.51573348,3.38946799],[-76.51591854,3.38946066],[-76.5160798,3.38952386],[-76.51630758,3.38969377],[-76.51649163,3.38986247],[-76.51672424,3.38992791],[-76.5170233,3.38990283],[-76.51717132,3.38984929],[-76.51738185,3.38993],[-76.517607,3.39001602],[-76.51781008,3.39007753],[-76.51802488,3.39011661],[-76.51822014,3.39038719],[-76.51839741,3.39052059],[-76.51864643,3.39056571],[-76.51877391,3.39053213],[-76.51899948,3.39057679],[-76.51923947,3.39049643],[-76.51934706,3.39039536],[-76.51940114,3.39029451],[-76.51963602,3.39031339],[-76.51990025,3.39039856],[-76.52011378,3.39063475],[-76.52038413,3.39088296],[-76.52064721,3.39099194],[-76.52093697,3.39093904],[-76.521401,3.39079755],[-76.52166198,3.39068215],[-76.521866,3.39055061],[-76.52214851,3.39052869],[-76.52234167,3.39038744],[-76.52242995,3.39024067],[-76.52274523,3.39008413],[-76.52299355,3.38990272],[-76.5232105,3.38976994],[-76.52343816,3.38958202],[-76.52355091,3.38928486],[-76.52352039,3.38904331],[-76.52380575,3.38888415],[-76.52404829,3.38874957],[-76.52418662,3.38853028],[-76.52419029,3.3882752],[-76.52405409,3.3880437],[-76.52385091,3.38784695],[-76.52402301,3.3877506],[-76.5243183,3.38762383],[-76.52465545,3.38753544],[-76.52493285,3.38768386],[-76.52527428,3.38764836],[-76.52564557,3.38752739],[-76.52588914,3.38736227],[-76.52602709,3.3872093],[-76.52637866,3.3870811],[-76.52674281,3.38693816],[-76.52705028,3.38693612],[-76.52729291,3.3871679],[-76.52753429,3.38726201],[-76.52801797,3.38751156],[-76.52838697,3.38767017],[-76.52874334,3.38777424],[-76.52911778,3.3877556],[-76.52933261,3.3876886],[-76.5294912,3.3875556],[-76.52991012,3.38754504],[-76.53057786,3.38749355],[-76.53142195,3.38752464],[-76.53175745,3.38749908],[-76.53196568,3.38742164],[-76.5324009,3.38738997],[-76.53269044,3.38739926],[-76.53306615,3.38748507],[-76.53337254,3.38746495],[-76.53370272,3.38726066],[-76.53380053,3.38696456],[-76.53371862,3.38666299],[-76.53358398,3.38645305],[-76.53349937,3.38631601],[-76.53356706,3.38619144],[-76.53383489,3.38606324],[-76.53402821,3.3858756],[-76.5341107,3.38571033],[-76.53431183,3.38555649],[-76.5345893,3.3854719],[-76.53471135,3.38537547],[-76.53478562,3.38524483],[-76.53496372,3.3852607],[-76.53519856,3.38520436],[-76.53537426,3.38505542],[-76.53557891,3.38488966],[-76.53569759,3.38477433],[-76.53579763,3.3846329],[-76.53601423,3.38454255],[-76.53618978,3.38447682],[-76.53641536,3.38446059],[-76.53659706,3.38440544],[-76.53671618,3.38428918],[-76.53678878,3.38409023],[-76.53692167,3.38390773],[-76.53707668,3.38390643],[-76.53740502,3.38415494],[-76.5376205,3.38419381],[-76.53785403,3.38412783],[-76.53812414,3.38392456],[-76.53842463,3.38374866],[-76.53861049,3.38358847],[-76.5387791,3.38340954],[-76.53907662,3.38336092],[-76.53924983,3.38323847],[-76.53934426,3.38304119],[-76.53934813,3.38282354],[-76.53932424,3.38264029],[-76.53948864,3.38260183],[-76.5396189,3.38246364],[-76.53975219,3.382226],[-76.53988715,3.3819268],[-76.53999593,3.38164662],[-76.54011971,3.38135614],[-76.54022088,3.38109796],[-76.54025193,3.38095823],[-76.5401987,3.3806846],[-76.54021393,3.38058607],[-76.54039397,3.38050205],[-76.5406425,3.38043323],[-76.54084338,3.38027017],[-76.54093199,3.38008653],[-76.54094098,3.37983941],[-76.54090887,3.37964515],[-76.54091608,3.37944972],[-76.54094328,3.37928348],[-76.54103361,3.37915868],[-76.54118219,3.37900491],[-76.5412537,3.37869764],[-76.54123386,3.37841455],[-76.54126688,3.37821275],[-76.54124165,3.37797077],[-76.54123955,3.3777587],[-76.54124449,3.37765989],[-76.54139882,3.37760128],[-76.54165656,3.37754481],[-76.54181178,3.37741039],[-76.54191541,3.37719533],[-76.54194562,3.37697939],[-76.54188456,3.37671261],[-76.54175516,3.3765109],[-76.54149505,3.3762777],[-76.54136209,3.37617796],[-76.54146811,3.37614955],[-76.54168418,3.3761283],[-76.54188961,3.37606329],[-76.5420995,3.3759458],[-76.5422721,3.37581117],[-76.54249973,3.37570893],[-76.54271863,3.37561472],[-76.54284528,3.37549464],[-76.54294214,3.37533243],[-76.54298061,3.37512104],[-76.54302877,3.37504493],[-76.54342306,3.37516181],[-76.54376621,3.37518417],[-76.54411592,3.37509892],[-76.54442255,3.37484808],[-76.54455819,3.37465939],[-76.54460685,3.37457068],[-76.54471378,3.37446174],[-76.5447691,3.37429876],[-76.54475925,3.37411616],[-76.54497309,3.37411165],[-76.54522887,3.37406169],[-76.54538797,3.37384297],[-76.5454071,3.37357761],[-76.54541607,3.37325323],[-76.545477,3.37294067],[-76.54551781,3.37264961],[-76.54548226,3.37240477],[-76.54542682,3.3721106],[-76.54527602,3.37187451],[-76.54506244,3.37169484],[-76.54490488,3.37159412],[-76.54472242,3.37154644],[-76.54469177,3.37152494],[-76.54482507,3.37146677],[-76.54509353,3.37133673],[-76.54533532,3.37130395],[-76.54560799,3.37120726],[-76.54578761,3.37108198],[-76.5460265,3.37099257],[-76.54627514,3.37089348],[-76.54643521,3.37084697],[-76.5465645,3.37090174],[-76.5467933,3.3709591],[-76.54692134,3.37103764],[-76.54701186,3.37108786],[-76.54716012,3.3713603],[-76.54736137,3.37150076],[-76.54764121,3.37154328],[-76.54788719,3.37147535],[-76.54809332,3.37140249],[-76.54825112,3.37130114],[-76.54833644,3.37108931],[-76.5483156,3.37095391],[-76.54838613,3.37099483],[-76.54852766,3.37111848],[-76.54878018,3.37115044],[-76.54893817,3.37112006],[-76.54909954,3.37105005],[-76.5492549,3.37087351],[-76.5493105,3.37067053],[-76.54935941,3.37047611]]]},"geometry_name":"the_geom","properties":{"id_dique":5,"nombre":"Río Meléndez"}},{"type":"Feature","id":"amb_ari_diques.11","geometry":{"type":"MultiLineString","coordinates":[[[-76.54461807,3.36418792],[-76.54426273,3.36410898],[-76.54386331,3.36395683],[-76.54339344,3.36380613],[-76.54287387,3.36389642],[-76.5422827,3.36412007],[-76.54172683,3.36453866],[-76.54130454,3.36486175],[-76.5410898,3.36516049],[-76.5411994,3.36556165],[-76.54127409,3.36581301],[-76.54106412,3.36621258],[-76.5410002,3.36650457],[-76.54110237,3.36690774],[-76.54094493,3.36713069],[-76.54059476,3.36727965],[-76.54026545,3.36728118],[-76.539944,3.36735268],[-76.53967818,3.36708696],[-76.53936809,3.36704269],[-76.53894322,3.36721828],[-76.53801883,3.36735087],[-76.53743033,3.36758652],[-76.53698543,3.36767807],[-76.53662058,3.36793894],[-76.53606701,3.36773947],[-76.53557476,3.36772387],[-76.53519479,3.36721308],[-76.53471315,3.3670802],[-76.53412757,3.36679131],[-76.53363852,3.3665417],[-76.53305394,3.36643696],[-76.53263219,3.36605403],[-76.53179195,3.36534769],[-76.5311213,3.36489562],[-76.53090453,3.36477018],[-76.53047162,3.36391034],[-76.53020374,3.36353521],[-76.5297844,3.3633906],[-76.52942409,3.36318156],[-76.52897933,3.36309393],[-76.52873037,3.36309077],[-76.52836491,3.36283565],[-76.52744484,3.36274965],[-76.52684114,3.36275777],[-76.52640847,3.36262715],[-76.52601291,3.36208673],[-76.52560116,3.36181746],[-76.52503598,3.3616012],[-76.52458711,3.36171716],[-76.52413388,3.36177859]]]},"geometry_name":"the_geom","properties":{"id_dique":4,"nombre":"Río Lili"}},{"type":"Feature","id":"amb_ari_diques.2","geometry":{"type":"MultiLineString","coordinates":[[[-76.50402206,3.38031034],[-76.50527148,3.38163966],[-76.50845567,3.38486002],[-76.50869161,3.38527625],[-76.5096312,3.38819885],[-76.51033479,3.389913],[-76.51062872,3.39044115],[-76.51192901,3.392124],[-76.51493061,3.39607602],[-76.51515327,3.39631774],[-76.51600826,3.39711439],[-76.51667639,3.39765149],[-76.51820835,3.39895167],[-76.51865359,3.39934546],[-76.5188807,3.39956937],[-76.52186007,3.40345758],[-76.52190908,3.40356044],[-76.52206046,3.40370148],[-76.52215847,3.4041691],[-76.52214948,3.40432578],[-76.52216738,3.40467932],[-76.52247015,3.40495687]]]},"geometry_name":"the_geom","properties":{"id_dique":1,"nombre":"Canal Interceptor Sur"}},{"type":"Feature","id":"amb_ari_diques.3","geometry":{"type":"MultiLineString","coordinates":[[[-76.50402206,3.38031034],[-76.5034602,3.37972628],[-76.5032106,3.37944366],[-76.50309196,3.37927404],[-76.5029296,3.37917977],[-76.50257999,3.37878407],[-76.50199318,3.37820001],[-76.5005137,3.37668613],[-76.49992682,3.37609573],[-76.49943356,3.37566854],[-76.49897787,3.3752665],[-76.49844459,3.37468869],[-76.49796455,3.37417199],[-76.4976848,3.37380709],[-76.49724345,3.37322827],[-76.49671181,3.37280433],[-76.49639955,3.37265976],[-76.49603116,3.37251519],[-76.49551273,3.37240191],[-76.49471329,3.37225072],[-76.49387012,3.37208696],[-76.49314552,3.37192338],[-76.49248981,3.37178485],[-76.49174026,3.37168387],[-76.49136548,3.37163347],[-76.4910282,3.37160189],[-76.49081005,3.37160172],[-76.49057155,3.37161903],[-76.49032603,3.37166641],[-76.49005985,3.37178958],[-76.48963743,3.37207573],[-76.48916719,3.37233891],[-76.48836363,3.37270378],[-76.48785173,3.37297534],[-76.4873934,3.37326843],[-76.48703625,3.37351965],[-76.48672245,3.37376685],[-76.48627869,3.37421862],[-76.48593558,3.37451164],[-76.48572301,3.37476259],[-76.48534792,3.3752206],[-76.48496036,3.3756598],[-76.48467904,3.3759861],[-76.48429162,3.37635618],[-76.48402286,3.37660088],[-76.48374778,3.3768643],[-76.48337915,3.37706503],[-76.48237314,3.37748494],[-76.48178587,3.37771687],[-76.48124857,3.37795513],[-76.48059871,3.37821203],[-76.48033633,3.37825589],[-76.47994907,3.37833096],[-76.4792307,3.378318],[-76.47887463,3.37827998],[-76.47866853,3.37820462],[-76.47825634,3.3782169],[-76.47786901,3.37822919],[-76.47754412,3.3781976],[-76.47725688,3.37818492],[-76.47607627,3.37814027],[-76.4754579,3.37810849],[-76.47477078,3.37808286],[-76.47412115,3.3780574],[-76.47370888,3.3780572],[-76.47269071,3.37803761],[-76.4723659,3.37803742]]]},"geometry_name":"the_geom","properties":{"id_dique":1,"nombre":"Canal Interceptor Sur"}},{"type":"Feature","id":"amb_ari_diques.4","geometry":{"type":"MultiLineString","coordinates":[[[-76.50430764,3.48736252],[-76.50424097,3.48764965],[-76.50408856,3.48795591],[-76.50399446,3.48822713],[-76.50388574,3.4883746],[-76.50356373,3.48862673],[-76.50334562,3.48897999],[-76.50309797,3.48936282],[-76.50291266,3.48983984],[-76.50274388,3.49010345],[-76.5025598,3.49045293],[-76.5023574,3.49069316],[-76.50217488,3.49098186],[-76.5020185,3.49128311],[-76.50185595,3.49149643],[-76.50171836,3.49168468],[-76.50126192,3.49224945],[-76.50110569,3.49248149],[-76.50095555,3.49272629],[-76.50083043,3.49295218],[-76.50070546,3.49315301],[-76.50058658,3.49337899],[-76.50046777,3.49354843],[-76.50028021,3.49373026],[-76.5001239,3.49397505],[-76.49999262,3.49411934],[-76.49989253,3.4942573],[-76.4997361,3.49444729],[-76.4995456,3.49473442],[-76.4993932,3.49497368],[-76.49910745,3.4953948],[-76.49886932,3.4957068],[-76.49846925,3.49675002],[-76.49801347,3.49763293],[-76.49776581,3.49837945],[-76.49762293,3.49881014],[-76.49761339,3.49932697],[-76.49769289,3.49969665],[-76.49767775,3.50001729],[-76.49777479,3.50034015],[-76.49769957,3.50071675],[-76.49750576,3.50091758],[-76.49723712,3.500999],[-76.49711805,3.50138183],[-76.49718947,3.50205179],[-76.49678161,3.5022215],[-76.49659613,3.50235389],[-76.49595885,3.50220394],[-76.49604457,3.50251978],[-76.49610436,3.50286209],[-76.49603598,3.50307968],[-76.49573594,3.50328066],[-76.49556448,3.5035965],[-76.49537874,3.50401283],[-76.49519214,3.50425079],[-76.49503583,3.50445786],[-76.4946072,3.50468755],[-76.49497866,3.50524746],[-76.49447858,3.50616625],[-76.4924212,3.50620926],[-76.49180683,3.50659112]]]},"geometry_name":"the_geom","properties":{"id_dique":2,"nombre":"Río Cali"}},{"type":"Feature","id":"amb_ari_diques.7","geometry":{"type":"MultiLineString","coordinates":[[[-76.47236599,3.37803732],[-76.47218512,3.37827397],[-76.47204604,3.37861004],[-76.4719677,3.37904735],[-76.47188601,3.37951922],[-76.47156377,3.37999098],[-76.47129418,3.38020691],[-76.47082095,3.38031807],[-76.47008133,3.3804853],[-76.46967774,3.38055476],[-76.46879936,3.38069783],[-76.46865993,3.38071655],[-76.4681371,3.3808201],[-76.46769631,3.38106298],[-76.46740986,3.38133654],[-76.46735685,3.3814298],[-76.46728713,3.38153809],[-76.46711235,3.38170336],[-76.46705429,3.38179771],[-76.46692354,3.381923],[-76.46676931,3.38226947],[-76.46650476,3.38266851],[-76.46606505,3.38340153],[-76.46564762,3.38404607],[-76.46531713,3.38459699],[-76.46487445,3.38529853],[-76.46463715,3.38570217],[-76.46445991,3.38596144],[-76.46439665,3.38608483],[-76.46419186,3.38655018],[-76.4642294,3.38698921],[-76.46428654,3.38754603],[-76.46445097,3.38775167],[-76.46508066,3.38865039],[-76.46557419,3.38931516],[-76.46575041,3.38996689],[-76.46567011,3.39067152],[-76.46535604,3.39243097],[-76.46516762,3.39356694],[-76.46486623,3.39534295],[-76.46486348,3.39546119],[-76.46492641,3.39591832],[-76.46512254,3.39635437],[-76.46592809,3.39775356],[-76.46645205,3.39863627],[-76.46686088,3.39937621],[-76.46701054,3.39965919],[-76.46733784,3.40045124],[-76.46745134,3.40076733],[-76.46776684,3.40163808],[-76.46802754,3.40240217],[-76.46816391,3.40282484],[-76.46816871,3.40331326],[-76.46803422,3.40381633],[-76.46783248,3.40413947],[-76.46657121,3.40545513],[-76.46600349,3.4061867],[-76.46591234,3.40701382],[-76.46591389,3.40722126],[-76.46617779,3.40793143],[-76.46644867,3.40862713],[-76.46671927,3.4092462],[-76.4669203,3.4097046],[-76.4670655,3.41004675],[-76.46714514,3.41048714],[-76.46715663,3.41084276],[-76.46710049,3.4111289],[-76.4670087,3.41143739],[-76.46681311,3.41191277],[-76.46651259,3.4127331],[-76.46629153,3.41329162],[-76.466013,3.41397752],[-76.46575681,3.41463456],[-76.46567127,3.41476021],[-76.46542245,3.41517335],[-76.46521893,3.41538847],[-76.46498074,3.41561037],[-76.46457846,3.41587116],[-76.46392032,3.41627098],[-76.4635389,3.41654117],[-76.46327302,3.41678732],[-76.46317671,3.41689415],[-76.46310491,3.41700804],[-76.46304588,3.41711217],[-76.46299427,3.41721439],[-76.46295855,3.4173385],[-76.46292781,3.41744263],[-76.46290537,3.41762492],[-76.46289482,3.41777952],[-76.4628931,3.41796353],[-76.46288552,3.41818164],[-76.46285275,3.41852993],[-76.46282326,3.41891179],[-76.46280222,3.41929427],[-76.46279463,3.41966645],[-76.46278732,3.42010385],[-76.46278724,3.42021539],[-76.46276822,3.42051547],[-76.46271622,3.42094346],[-76.46264091,3.42135272],[-76.46256605,3.42164429],[-76.46247924,3.42190844],[-76.46238537,3.42222633],[-76.46214269,3.42301934],[-76.46198363,3.4234789],[-76.46179701,3.42400711],[-76.46166409,3.42437829],[-76.46160349,3.42458491],[-76.46154044,3.42480085],[-76.46143974,3.42515755],[-76.46135434,3.4254568],[-76.46114782,3.42613211],[-76.46110081,3.42630382],[-76.46106472,3.42643906],[-76.46103352,3.42666206],[-76.46104723,3.42711827],[-76.46110096,3.42747815],[-76.46121757,3.42802765],[-76.4613413,3.42867412],[-76.46142881,3.42909443],[-76.46157562,3.42982585],[-76.46173684,3.43056687],[-76.46189895,3.43144485],[-76.46204457,3.43219138],[-76.46227288,3.43341313],[-76.46254752,3.43466049],[-76.46278419,3.43525387],[-76.46326772,3.43585242],[-76.46379879,3.4362552],[-76.46450753,3.43668586],[-76.46507046,3.43704622],[-76.46543202,3.43740557],[-76.46588178,3.43789827],[-76.46633897,3.43842038],[-76.46674931,3.43886386],[-76.46722076,3.43938253],[-76.4677582,3.43997891],[-76.46811888,3.44037824],[-76.46848587,3.44063093],[-76.46894174,3.44079904],[-76.46936904,3.44084113],[-76.4698152,3.4407838],[-76.4707217,3.44061721],[-76.47149581,3.4404621],[-76.47253372,3.44043565],[-76.47323291,3.440538],[-76.47380215,3.44092667],[-76.4743866,3.44152513],[-76.47522332,3.44258172],[-76.47552475,3.4431049],[-76.47567838,3.44426965],[-76.47570182,3.44476929],[-76.47561129,3.44531489],[-76.47556256,3.44588102],[-76.47555149,3.44596841],[-76.47533034,3.44670424],[-76.47518954,3.44736473],[-76.47517869,3.447532],[-76.47521194,3.44783461],[-76.47530623,3.44799645],[-76.47555308,3.44837407],[-76.47573194,3.4485788],[-76.47631752,3.44895508],[-76.47648101,3.44909096],[-76.47663774,3.44923997],[-76.47670998,3.44931216],[-76.47691044,3.44948008],[-76.47703376,3.44965169],[-76.4770936,3.44979662],[-76.47711987,3.4500103],[-76.47713278,3.45029247],[-76.47714933,3.45041622],[-76.47715088,3.45065967],[-76.47721376,3.45095178],[-76.47725176,3.45115823],[-76.47729311,3.45141733],[-76.47732755,3.45163779],[-76.47734209,3.45187762],[-76.47733451,3.45204416],[-76.47732507,3.45222518],[-76.47727026,3.45266503],[-76.4772121,3.45307103],[-76.47711985,3.45376807],[-76.4770686,3.45422998],[-76.47708722,3.45456489],[-76.47713561,3.45509086],[-76.47719581,3.45542513],[-76.47728474,3.45588669],[-76.47733373,3.45610317],[-76.47736372,3.45638244],[-76.47743126,3.456881],[-76.47747914,3.45722649],[-76.4775354,3.45750187],[-76.47765388,3.45807941],[-76.47771452,3.45852848],[-76.47772209,3.45864256],[-76.47778014,3.45897448],[-76.47783789,3.45933798],[-76.47790254,3.45969758],[-76.47801211,3.46014512],[-76.47805531,3.4604024],[-76.47806377,3.46061066],[-76.47803599,3.46085283],[-76.47803524,3.46101911],[-76.47804072,3.46129458],[-76.47802995,3.46152029],[-76.47799036,3.461671],[-76.47788648,3.46196528],[-76.47775207,3.46222093],[-76.47763066,3.46250643],[-76.47740597,3.46278316],[-76.47713079,3.46307906],[-76.47675076,3.4634343],[-76.47637081,3.46381749],[-76.47604528,3.4641513],[-76.47567944,3.46455267],[-76.47554608,3.46472229],[-76.47541501,3.46496926],[-76.47533764,3.46518031],[-76.47530154,3.46535816],[-76.47521176,3.46573386],[-76.47518242,3.46592673],[-76.47511007,3.46643098],[-76.47507553,3.46673287],[-76.47507293,3.46683726],[-76.47512304,3.46702589],[-76.47523566,3.46728164],[-76.47539076,3.46760198],[-76.4756515,3.4680716],[-76.47571193,3.46821689],[-76.47580504,3.46832184],[-76.47604796,3.46873564],[-76.47624553,3.4690976],[-76.47636877,3.46942148],[-76.47646164,3.46977511],[-76.47649385,3.47001557],[-76.47642671,3.47044564],[-76.47636097,3.47112883],[-76.47635309,3.47121921],[-76.476263,3.47177765],[-76.47624198,3.47200444],[-76.47622748,3.47233093],[-76.47620772,3.47265733],[-76.47621246,3.47286052],[-76.47623072,3.47301919],[-76.47628016,3.4732108],[-76.47634215,3.47339345],[-76.47642871,3.47364739],[-76.47653681,3.47387872],[-76.47664283,3.47407639],[-76.47692734,3.47446948],[-76.4773533,3.47493114],[-76.47757589,3.47519685],[-76.47791126,3.47556723],[-76.4781911,3.47590016],[-76.47832957,3.47605767],[-76.47843485,3.47617962],[-76.47864786,3.4764237],[-76.47883481,3.47665322],[-76.47901916,3.47710592],[-76.47908107,3.47740374],[-76.47913539,3.47813751],[-76.47912794,3.47866474],[-76.47918079,3.47910956],[-76.47920335,3.47937282],[-76.47923394,3.47949748],[-76.4792807,3.47971758],[-76.47929652,3.47976852],[-76.47935554,3.47991299],[-76.47955408,3.48020837],[-76.47969069,3.48037565],[-76.47987393,3.48053876],[-76.48079283,3.48145115],[-76.48135644,3.48205856],[-76.4815497,3.48233575],[-76.4817541,3.48272377],[-76.48185804,3.48300937],[-76.48190384,3.48332266],[-76.48197303,3.48360853],[-76.48215404,3.48406846],[-76.48221551,3.48422732],[-76.48234342,3.48485688],[-76.48249999,3.48545351],[-76.48265026,3.48595225],[-76.48277506,3.4863522],[-76.48282532,3.48657502],[-76.48306757,3.48739383],[-76.48327648,3.48811983],[-76.48351762,3.48903815],[-76.48358629,3.48933543],[-76.48370018,3.48964175],[-76.48381206,3.49004478],[-76.48385452,3.49035516],[-76.48384122,3.49062412],[-76.48384796,3.49104053],[-76.48389019,3.49154415],[-76.48391734,3.49217597],[-76.48393686,3.49233564],[-76.48396298,3.49293733],[-76.48415541,3.49348175],[-76.48440184,3.49406273],[-76.48453711,3.49434427],[-76.48477894,3.49466045],[-76.4849503,3.49489757],[-76.48508105,3.4950805],[-76.48523274,3.4952912],[-76.48558928,3.49572789],[-76.48568336,3.49583419],[-76.48573875,3.49591],[-76.4858574,3.49601069],[-76.48594063,3.49610568],[-76.48610688,3.49625758],[-76.48625783,3.4963647],[-76.48640603,3.49648077],[-76.48679421,3.49673246],[-76.48707043,3.4968717],[-76.48740055,3.49702921],[-76.48758595,3.49712411],[-76.4878116,3.49723657],[-76.48814254,3.49742484],[-76.48839952,3.49755711],[-76.48870699,3.49773163],[-76.48903087,3.49790895],[-76.48932773,3.49804358],[-76.48969505,3.49824352],[-76.49017679,3.49847992],[-76.49043764,3.49861183],[-76.49096504,3.49886705],[-76.49133466,3.49907965],[-76.49162892,3.49933043],[-76.49182642,3.49956881],[-76.49194292,3.49972967],[-76.49200083,3.50002486],[-76.49204775,3.50030259],[-76.49206371,3.50047058],[-76.49210966,3.500811],[-76.49212665,3.50110656],[-76.49215768,3.501405],[-76.49215611,3.50174524],[-76.49220496,3.50221259],[-76.49225915,3.50262629],[-76.49230681,3.50291868],[-76.49234683,3.50304949],[-76.49247937,3.50317741],[-76.49261547,3.50319705]]]},"geometry_name":"the_geom","properties":{"id_dique":3,"nombre":"Río Cauca"}},{"type":"Feature","id":"amb_ari_diques.6","geometry":{"type":"MultiLineString","coordinates":[[[-76.50438635,3.38012611],[-76.50382449,3.37954205],[-76.50357488,3.37925943],[-76.50345625,3.3790898],[-76.50329388,3.37899554],[-76.50294427,3.37859983],[-76.50235747,3.37801578],[-76.50087798,3.37650189],[-76.50041967,3.37604084],[-76.50004645,3.37559288],[-76.49961314,3.37515261],[-76.49905602,3.37457834],[-76.4985065,3.37382912],[-76.49818734,3.37336484],[-76.49778704,3.3730015],[-76.4973823,3.3725708],[-76.49694184,3.37234348],[-76.4965728,3.37216402],[-76.49582283,3.37193669],[-76.49510856,3.37181703],[-76.49420383,3.37167344],[-76.49333481,3.37150593],[-76.49253721,3.37136234],[-76.49184676,3.37125465],[-76.49132297,3.37120678],[-76.4908825,3.37117087],[-76.49045394,3.37120675],[-76.49012061,3.37129049],[-76.4898349,3.37136226],[-76.48946434,3.37169516],[-76.48915814,3.37184454],[-76.48873948,3.37205784],[-76.48788969,3.37244646],[-76.48743361,3.37272236],[-76.48700863,3.37296697],[-76.48662746,3.3732303],[-76.48625869,3.37351263],[-76.48597297,3.3737806],[-76.48576156,3.3740613],[-76.48563108,3.37421534],[-76.48525598,3.37467336],[-76.48486842,3.37511255],[-76.4845871,3.37543885],[-76.48419969,3.37580893],[-76.48393092,3.37605363],[-76.48365584,3.37631706],[-76.48328722,3.37651779],[-76.48233603,3.37703482],[-76.48180032,3.37727407],[-76.48143136,3.37744009],[-76.4807815,3.37769699],[-76.48051912,3.37774085],[-76.48013187,3.37781592],[-76.47941349,3.37780296],[-76.47905742,3.37776495],[-76.47885133,3.37768958],[-76.47843913,3.37770187],[-76.4780518,3.37771415],[-76.47772692,3.37768256],[-76.47743967,3.37766989],[-76.47625906,3.37762523],[-76.47564069,3.37759345],[-76.47495358,3.37756782],[-76.47430395,3.37754237],[-76.47389168,3.37754217],[-76.47287351,3.37752258],[-76.47191613,3.37754085]]]},"geometry_name":"the_geom","properties":{"id_dique":1,"nombre":"Canal Interceptor Sur"}},{"type":"Feature","id":"amb_ari_diques.10","geometry":{"type":"MultiLineString","coordinates":[[[-76.52420624,3.36235629],[-76.52465037,3.36231365],[-76.52503545,3.36222051],[-76.52539277,3.36238899],[-76.52564539,3.36262408],[-76.52589731,3.36295959],[-76.52633678,3.36322945],[-76.52669029,3.36333939],[-76.52746528,3.3633466],[-76.52800143,3.36337322],[-76.52843334,3.36365163],[-76.52885495,3.36368648],[-76.52911196,3.36372381],[-76.52951229,3.36396003],[-76.52982598,3.36399651],[-76.53009634,3.36435667],[-76.53029738,3.36476768],[-76.53038594,3.36510832],[-76.53114571,3.36561432],[-76.53188313,3.36618152],[-76.53232687,3.3665952],[-76.53291417,3.36703795],[-76.53319562,3.36704574],[-76.5336613,3.36727477],[-76.53402366,3.36750537],[-76.53476251,3.36772922],[-76.53496156,3.36786521],[-76.53509785,3.36828272],[-76.535285,3.36846057],[-76.53578943,3.3683755],[-76.53645038,3.36853621],[-76.53688805,3.36850023],[-76.5372818,3.36826061],[-76.53800451,3.36801032],[-76.53893555,3.3678326],[-76.539389,3.36772046],[-76.53984306,3.3679486],[-76.54048605,3.36789883],[-76.54113008,3.36771363],[-76.54159727,3.36742152],[-76.54177754,3.36710869],[-76.54163402,3.36665196],[-76.54180358,3.36607946],[-76.5417743,3.36545291],[-76.54196628,3.36515059],[-76.54236032,3.36475648],[-76.5428061,3.36451399],[-76.54344493,3.36438863],[-76.54378039,3.36467024],[-76.54420682,3.36498611],[-76.54466996,3.36476211]]]},"geometry_name":"the_geom","properties":{"id_dique":4,"nombre":"Río Lili"}},{"type":"Feature","id":"amb_ari_diques.8","geometry":{"type":"MultiLineString","coordinates":[[[-76.51310985,3.388542],[-76.51315198,3.38855406],[-76.51324153,3.38858879],[-76.51337379,3.38865156],[-76.51344915,3.38868566],[-76.51359048,3.3887527],[-76.5137096,3.38880377],[-76.51390329,3.38893801],[-76.51400096,3.38902953],[-76.51408333,3.38909965],[-76.51416904,3.38917143],[-76.51418962,3.38918459],[-76.51425197,3.38919357],[-76.514318,3.38919357],[-76.51439647,3.389187],[-76.51445413,3.38918839],[-76.51456189,3.38921211],[-76.51466417,3.38924426],[-76.5146772,3.38920518],[-76.51470637,3.38911457],[-76.51473614,3.38905509],[-76.51478052,3.38899175],[-76.51482409,3.38892096],[-76.51486311,3.38887131],[-76.51490402,3.38883757],[-76.51499015,3.38878845],[-76.51505138,3.38876355],[-76.51508602,3.38875663],[-76.51512125,3.38875431],[-76.51514905,3.38875431],[-76.51517301,3.3887362],[-76.51520359,3.38871846],[-76.5152322,3.38870628],[-76.51530543,3.38868095],[-76.51534006,3.38867403],[-76.51539296,3.38867229],[-76.51544077,3.38867981],[-76.51549196,3.38869361],[-76.51554017,3.38871557],[-76.51559736,3.38875454],[-76.51563542,3.38878611],[-76.51567098,3.38880754],[-76.51572174,3.38884438],[-76.51573197,3.38885191],[-76.51575351,3.38885568],[-76.51576606,3.38885568],[-76.51579857,3.38884615],[-76.5158155,3.38884218],[-76.51594626,3.38881589],[-76.5159992,3.38881063],[-76.51607055,3.38881584],[-76.51616229,3.3888463],[-76.51623239,3.38888076],[-76.51630116,3.38891179],[-76.51637546,3.38895286],[-76.51641878,3.38897662],[-76.51651218,3.38902919],[-76.51660439,3.38909571],[-76.51667577,3.38916041],[-76.51675041,3.38923542],[-76.51679501,3.3892768],[-76.51681452,3.38927636],[-76.51688924,3.38925384],[-76.51698887,3.38922883],[-76.51706782,3.38921821],[-76.51717229,3.38921611],[-76.51730093,3.38922594],[-76.51740485,3.3892531],[-76.51746488,3.38927479],[-76.51757313,3.38932573],[-76.5176485,3.38935819],[-76.5177065,3.38939232],[-76.51773305,3.38941572],[-76.51774954,3.38943388],[-76.5178003,3.38943909],[-76.51786233,3.38945438],[-76.51790663,3.38947059],[-76.51793308,3.38948131],[-76.51803904,3.38949019],[-76.51811612,3.38949892],[-76.51818635,3.38950378],[-76.51823789,3.38951586],[-76.5183011,3.38954718],[-76.51835335,3.38958349],[-76.51839057,3.38961471],[-76.51842793,3.38965226],[-76.51845076,3.38967063],[-76.51851591,3.38971521],[-76.51856624,3.38975916],[-76.51860391,3.38980866],[-76.51864269,3.38986613],[-76.51866322,3.38986251],[-76.51873495,3.38985121],[-76.5187852,3.38985121],[-76.51885432,3.38986502],[-76.51888695,3.3898786],[-76.51891753,3.38989635],[-76.51893189,3.38990669],[-76.51894622,3.38988932],[-76.5189588,3.38985926],[-76.51897459,3.38982859],[-76.51899421,3.38979908],[-76.5190175,3.3897724],[-76.51907341,3.38972928],[-76.51912161,3.38970734],[-76.51915572,3.38969815],[-76.51917227,3.38969537],[-76.51923192,3.3896759],[-76.51933647,3.38965986],[-76.51937651,3.38965915],[-76.51945123,3.38965915],[-76.51957075,3.38967063],[-76.51972459,3.38970196],[-76.51985161,3.38973316],[-76.51995221,3.38974696],[-76.52000285,3.3897624],[-76.52010247,3.38981169],[-76.52019978,3.38987398],[-76.52026616,3.3899095],[-76.52029552,3.38992921],[-76.52036521,3.38998553],[-76.52052007,3.39014034],[-76.52064049,3.39026968],[-76.52066788,3.39030709],[-76.52070228,3.39036368],[-76.52071123,3.39037566],[-76.52073308,3.39037397],[-76.52079421,3.3903652],[-76.52083291,3.39035706],[-76.52087211,3.39034252],[-76.52091574,3.39032863],[-76.52100431,3.39030321],[-76.52108073,3.39028095],[-76.5211767,3.39025687],[-76.52123994,3.39022921],[-76.52128301,3.39021031],[-76.52132485,3.39019403],[-76.5213584,3.39017986],[-76.52137299,3.39016936],[-76.52141212,3.39013291],[-76.52147415,3.39008937],[-76.52153504,3.39005546],[-76.52158085,3.39003306],[-76.521634,3.39000439],[-76.52167634,3.38998117],[-76.5217457,3.38995489],[-76.52181716,3.38994143],[-76.52188911,3.38994143],[-76.52190747,3.3899432],[-76.52193862,3.38989138],[-76.52201626,3.38981255],[-76.52208041,3.38976195],[-76.52214054,3.38972317],[-76.52222088,3.38968234],[-76.52228151,3.38966261]],[[-76.52223742,3.38967608],[-76.52227278,3.38966513],[-76.52229872,3.38965858],[-76.52233025,3.38965148],[-76.52235427,3.38964551],[-76.52236724,3.38963398],[-76.52242865,3.38958447],[-76.52246063,3.38955557],[-76.52248865,3.38953397],[-76.52255002,3.38949334],[-76.52259213,3.38946662],[-76.52265319,3.38942571],[-76.52270862,3.38939288],[-76.52274073,3.38936933],[-76.52278047,3.38934516],[-76.52285469,3.38931527],[-76.52286674,3.3893091],[-76.5228811,3.38929876],[-76.52289617,3.38928934],[-76.52294213,3.38926269],[-76.52292884,3.38924456],[-76.52290556,3.38921788],[-76.52288108,3.38918444],[-76.52285614,3.38913754],[-76.52284077,3.38908664],[-76.52283322,3.38902103],[-76.52283256,3.3889574],[-76.52283345,3.38894322],[-76.52282154,3.38891303],[-76.5228124,3.38887876],[-76.52280779,3.38884357],[-76.52281016,3.38877007],[-76.52281878,3.38871759],[-76.52283742,3.38866782],[-76.52287211,3.38861204],[-76.52291691,3.38856127],[-76.52296548,3.38852633],[-76.52301215,3.38849935],[-76.52304478,3.38848577],[-76.52307227,3.38847799],[-76.52311392,3.38844458],[-76.52316855,3.38841081],[-76.5232091,3.38839223],[-76.52324138,3.38838114],[-76.52328155,3.38837013],[-76.52331618,3.38836321],[-76.52334019,3.38836113],[-76.52339057,3.38835992],[-76.523427,3.38836147],[-76.52345459,3.38836434],[-76.52346662,3.38835042],[-76.5234122,3.38830278],[-76.52337682,3.3882678],[-76.52332992,3.38822001],[-76.52329134,3.3881594],[-76.52327073,3.38810761],[-76.5232571,3.38804794],[-76.5232578,3.38799286],[-76.52321868,3.387966],[-76.52317826,3.3879307],[-76.5231503,3.38789771],[-76.52310597,3.38783141],[-76.5230935,3.38781136],[-76.52306556,3.3877662],[-76.52303628,3.38767841],[-76.52302766,3.38757381],[-76.523036,3.38750901],[-76.52305728,3.38745018],[-76.52308913,3.38739331],[-76.52313559,3.38734006],[-76.52317644,3.38730504],[-76.52324612,3.38726319],[-76.52332844,3.38723246],[-76.52346394,3.38720141],[-76.52357905,3.38720031],[-76.52361627,3.3872023],[-76.52365627,3.3871917],[-76.52372139,3.38717997],[-76.52375134,3.38716774],[-76.52386464,3.38712774],[-76.52392802,3.38710458],[-76.52396248,3.38708813],[-76.52406847,3.38703798],[-76.52413382,3.38701351],[-76.52416846,3.38700658],[-76.5242336,3.38700126],[-76.52425813,3.38699967],[-76.52430016,3.38697977],[-76.52434553,3.3869574],[-76.52441227,3.38693463],[-76.52446929,3.38692504],[-76.52454421,3.38691218],[-76.52459586,3.38691297],[-76.52478186,3.3869149],[-76.52497724,3.38695839],[-76.52513114,3.38703752],[-76.52530325,3.38694285],[-76.52552615,3.38684194],[-76.52564361,3.38673874],[-76.52583088,3.38663633],[-76.52598546,3.38657594],[-76.5261279,3.38649158],[-76.52629858,3.38643399],[-76.52644963,3.38638243],[-76.52660947,3.38634132],[-76.52674669,3.38632779],[-76.52691065,3.38630218],[-76.52701467,3.38630108],[-76.52713112,3.38622245],[-76.52721924,3.38614941],[-76.52734854,3.38608762],[-76.5274917,3.38608643],[-76.52764315,3.38615611],[-76.52772804,3.38622839],[-76.52781907,3.38635669],[-76.52790359,3.38648272],[-76.52792532,3.38661742],[-76.52790627,3.38673552],[-76.52802041,3.38683096],[-76.52821007,3.38695071],[-76.52849462,3.38705321],[-76.52870291,3.387157],[-76.52891243,3.38718407],[-76.52911108,3.38708041],[-76.52924016,3.38698415],[-76.52945102,3.38692165],[-76.52971966,3.38692554],[-76.52996071,3.38697089],[-76.53012135,3.38698165],[-76.53038221,3.3869377],[-76.53062009,3.38689907],[-76.53093581,3.38691037],[-76.53114188,3.38691471],[-76.53148108,3.38694243],[-76.53164841,3.38689082],[-76.53187263,3.38682454],[-76.53224074,3.38679987],[-76.53240732,3.38678443],[-76.53268511,3.3867773],[-76.5328829,3.38680385],[-76.53300296,3.38685188],[-76.5331187,3.3868269],[-76.53297155,3.38658127],[-76.53286787,3.38626731],[-76.53289334,3.38599251],[-76.53300333,3.38579866],[-76.53318839,3.38564604],[-76.53337779,3.38559245],[-76.53351351,3.38548523],[-76.53360653,3.38533737],[-76.53376999,3.38515923],[-76.53390923,3.38508105],[-76.53406559,3.38500025],[-76.53420806,3.38496107],[-76.53427274,3.38481183],[-76.53439615,3.38466024],[-76.53457946,3.38452627],[-76.53481803,3.38452745],[-76.53500137,3.38459489],[-76.53514594,3.3844707],[-76.53531709,3.38428451],[-76.5354665,3.38412056],[-76.53562614,3.38402798],[-76.53594882,3.38391725],[-76.53618433,3.38385745],[-76.53629553,3.38362877],[-76.53645664,3.38347788],[-76.53678688,3.38327427],[-76.5370225,3.38324663],[-76.53725269,3.38334107],[-76.53747624,3.38341844],[-76.53768878,3.38348308],[-76.53793852,3.38332232],[-76.53821197,3.38311633],[-76.53833289,3.38288008],[-76.53844319,3.38267786],[-76.53857652,3.38251955],[-76.538631,3.38222918],[-76.53886291,3.38206203],[-76.53916431,3.38192287],[-76.53931875,3.38175396],[-76.5394615,3.3813892],[-76.5395654,3.38109875],[-76.53964283,3.38091768],[-76.53960943,3.38057347],[-76.53966394,3.38025029],[-76.53979758,3.3801073],[-76.54004082,3.37998406],[-76.54028217,3.37991454],[-76.54030952,3.37967279],[-76.54033624,3.37929668],[-76.5403751,3.37894316],[-76.54052098,3.37866818],[-76.5406316,3.37850684],[-76.54061499,3.37815058],[-76.54062507,3.37770288],[-76.54061785,3.37738392],[-76.54074256,3.37717849],[-76.54096063,3.37708358],[-76.54118406,3.37705829],[-76.54133202,3.3770115],[-76.54123891,3.37682826],[-76.54101902,3.37667534],[-76.54075635,3.37661055],[-76.54051594,3.37650768],[-76.54038897,3.37632032],[-76.54038886,3.37605285],[-76.54047862,3.37588586],[-76.54066277,3.37574109],[-76.54086132,3.37567346],[-76.54106629,3.37560718],[-76.54132228,3.37557229],[-76.54158299,3.37554266],[-76.54180745,3.37540699],[-76.54204247,3.37524651],[-76.54236262,3.37509344],[-76.54248759,3.37478411],[-76.54264617,3.37454039],[-76.54283637,3.37443148],[-76.54305394,3.37442432],[-76.54329091,3.37449059],[-76.54347059,3.37453197],[-76.54368524,3.37457815],[-76.54384649,3.3745445],[-76.54398251,3.37440816],[-76.54409246,3.37424064],[-76.54407263,3.37405282],[-76.54404643,3.37383398],[-76.54409683,3.37366484],[-76.54423501,3.37352145],[-76.54440507,3.37342887],[-76.54459804,3.37338003],[-76.54475711,3.37339251],[-76.54480829,3.37308422],[-76.54483539,3.37283181],[-76.54489247,3.37263214],[-76.54488954,3.37245915],[-76.5448298,3.37231099],[-76.54465695,3.37221277],[-76.5444328,3.37209191],[-76.54421158,3.37198118],[-76.5439697,3.37179572],[-76.54385522,3.37156064],[-76.54390857,3.37128964],[-76.54412099,3.37108603],[-76.54450656,3.37094602],[-76.54498125,3.37076798],[-76.54531624,3.37068976],[-76.54552018,3.37055477],[-76.54587938,3.3704212],[-76.54628358,3.37029246],[-76.54659736,3.37030277],[-76.54690353,3.37037967],[-76.5471891,3.37051537],[-76.54721274,3.3701823],[-76.54739782,3.3699481],[-76.5476314,3.36985082],[-76.5478917,3.3698727],[-76.54815174,3.37004034],[-76.54837559,3.37015388],[-76.5485532,3.37031361],[-76.54875107,3.37040025],[-76.54873051,3.37017256],[-76.5488291,3.36997221],[-76.54895442,3.36991009],[-76.54914207,3.36994122],[-76.54921662,3.3700051]]]},"geometry_name":"the_geom","properties":{"id_dique":5,"nombre":"Río Meléndez"}},{"type":"Feature","id":"amb_ari_diques.1","geometry":{"type":"MultiLineString","coordinates":[[[-76.5034444,3.48723466],[-76.50335678,3.48757987],[-76.50322535,3.48791251],[-76.5030441,3.48813831],[-76.50284406,3.48829518],[-76.50261276,3.4886089],[-76.50239394,3.48889758],[-76.50225627,3.48927409],[-76.50202482,3.48964436],[-76.50176226,3.48990788],[-76.50159348,3.4901715],[-76.50131844,3.49042868],[-76.50115583,3.49073608],[-76.50102447,3.4910499],[-76.50086809,3.49135115],[-76.50070555,3.49156447],[-76.50056795,3.49175272],[-76.50011152,3.49231749],[-76.49995528,3.49254953],[-76.49980514,3.49279433],[-76.49968002,3.49302022],[-76.49955505,3.49322105],[-76.49943617,3.49344703],[-76.49931736,3.49361647],[-76.4991298,3.4937983],[-76.49897349,3.49404309],[-76.49884221,3.49418738],[-76.49874212,3.49432534],[-76.49872956,3.49452626],[-76.49860444,3.49477097],[-76.49843559,3.49501577],[-76.49821676,3.4952981],[-76.49799785,3.49576255],[-76.49756628,3.49660966],[-76.49713471,3.49736277],[-76.497047,3.49778325],[-76.49689686,3.49814728],[-76.4967655,3.49848625],[-76.49672145,3.49896337],[-76.4966463,3.49925828],[-76.49655244,3.49952814],[-76.49655844,3.49989226],[-76.49648322,3.50026887],[-76.49628941,3.5004697],[-76.49602076,3.50055111],[-76.49570207,3.50065134],[-76.49557702,3.50085841],[-76.49542049,3.501348],[-76.49534549,3.50148605],[-76.49506421,3.50164906],[-76.49483922,3.5017682],[-76.49450182,3.50188724],[-76.49412684,3.50202519],[-76.49407679,3.50216315],[-76.4940205,3.5023515],[-76.49398285,3.50257739],[-76.49394527,3.50277831],[-76.49378896,3.50298538],[-76.4936576,3.50321127],[-76.49365745,3.50346874],[-76.49301081,3.50338869],[-76.49261539,3.50319704]]]},"geometry_name":"the_geom","properties":{"id_dique":2,"nombre":"Río Cali"}}],"totalFeatures":11,"numberMatched":11,"numberReturned":11,"timeStamp":"2026-09-25T18:59:57.915Z","crs":{"type":"name","properties":{"name":"urn:ogc:def:crs:EPSG::4326"}}}