{"type":"FeatureCollection","features":[{"type":"Feature","id":"amb_ari_amenaza_desborde_creciente.20","geometry":{"type":"MultiLineString","coordinates":[[[-76.55796038,3.44833901],[-76.5579051,3.44872363],[-76.55788316,3.44881753],[-76.55785314,3.44890909],[-76.55781531,3.44899769],[-76.55780167,3.4490251],[-76.55779506,3.44904184],[-76.55778697,3.44905795],[-76.55777755,3.44907321],[-76.55776686,3.44908763],[-76.55775491,3.44910112],[-76.55774191,3.44911341],[-76.55772784,3.44912457],[-76.55771287,3.44913446],[-76.55769712,3.44914294],[-76.55768067,3.44915008],[-76.55766365,3.44915573],[-76.55764621,3.44915983],[-76.5576285,3.44916244],[-76.55761057,3.4491635],[-76.55759271,3.44916293],[-76.55757492,3.44916081],[-76.55755735,3.44915714],[-76.55754019,3.44915198],[-76.5575236,3.44914534],[-76.55751024,3.4491387]]]},"geometry_name":"the_geom","properties":{"tipo_amena":"Amenaza por Desborde de Corrientes (Tr 50 años)"}},{"type":"Feature","id":"amb_ari_amenaza_desborde_creciente.21","geometry":{"type":"MultiLineString","coordinates":[[[-76.55778981,3.44831512],[-76.55776414,3.4484702],[-76.55772519,3.44862238],[-76.55767315,3.44877061],[-76.55760847,3.44891368],[-76.55757212,3.44898192],[-76.55753338,3.44898948],[-76.5574926,3.44895401],[-76.55744887,3.44892222],[-76.55740254,3.44889431],[-76.55735403,3.44887064],[-76.55730355,3.44885128],[-76.55730277,3.44885107],[-76.55722523,3.44878748]]]},"geometry_name":"the_geom","properties":{"tipo_amena":"Amenaza por Desborde de Corrientes (Tr 50 años)"}},{"type":"Feature","id":"amb_ari_amenaza_desborde_creciente.11","geometry":{"type":"MultiLineString","coordinates":[[[-76.55097412,3.45214094],[-76.55085453,3.45215294],[-76.55065963,3.45225043],[-76.54997089,3.45246314],[-76.54952267,3.45265353]]]},"geometry_name":"the_geom","properties":{"tipo_amena":"Amenaza por Desborde de Corrientes (Tr 50 años)"}},{"type":"Feature","id":"amb_ari_amenaza_desborde_creciente.12","geometry":{"type":"MultiLineString","coordinates":[[[-76.53787802,3.45120391],[-76.53759038,3.45133643],[-76.53670081,3.4519389],[-76.53640719,3.4521998],[-76.53626636,3.45236943],[-76.53595467,3.45268911]]]},"geometry_name":"the_geom","properties":{"tipo_amena":"Amenaza por Desborde de Corrientes (Tr 50 años)"}},{"type":"Feature","id":"amb_ari_amenaza_desborde_creciente.13","geometry":{"type":"MultiLineString","coordinates":[[[-76.53780772,3.4509538],[-76.53746123,3.45117711],[-76.5369415,3.45153846],[-76.53636284,3.45199173],[-76.53582349,3.45244168]]]},"geometry_name":"the_geom","properties":{"tipo_amena":"Amenaza por Desborde de Corrientes (Tr 50 años)"}},{"type":"Feature","id":"amb_ari_amenaza_desborde_creciente.15","geometry":{"type":"MultiLineString","coordinates":[[[-76.54068534,3.45093395],[-76.54042107,3.45078487]]]},"geometry_name":"the_geom","properties":{"tipo_amena":"Amenaza por Desborde de Corrientes (Tr 50 años)"}},{"type":"Feature","id":"amb_ari_amenaza_desborde_creciente.16","geometry":{"type":"MultiLineString","coordinates":[[[-76.54015431,3.45086843],[-76.53994719,3.4508119],[-76.53973592,3.45077374],[-76.53952211,3.4507543],[-76.53930746,3.45075358],[-76.53916734,3.45076325],[-76.53896612,3.45080295],[-76.53872883,3.45088786],[-76.53848507,3.45095171],[-76.53834016,3.45097905],[-76.53814941,3.45105287]]]},"geometry_name":"the_geom","properties":{"tipo_amena":"Amenaza por Desborde de Corrientes (Tr 50 años)"}},{"type":"Feature","id":"amb_ari_amenaza_desborde_creciente.17","geometry":{"type":"MultiLineString","coordinates":[[[-76.54026506,3.45068128],[-76.53995444,3.45062093],[-76.53963968,3.45058806],[-76.53932336,3.45058282],[-76.53921924,3.45058719],[-76.53881518,3.45064214],[-76.53844219,3.45072556],[-76.53811103,3.45084614]]]},"geometry_name":"the_geom","properties":{"tipo_amena":"Amenaza por Desborde de Corrientes (Tr 50 años)"}},{"type":"Feature","id":"amb_ari_amenaza_desborde_creciente.18","geometry":{"type":"MultiLineString","coordinates":[[[-76.554691,3.45041803],[-76.55463363,3.45041464],[-76.55457619,3.45041626],[-76.5545191,3.45042283],[-76.55446285,3.45043448],[-76.5544078,3.45045094],[-76.55435437,3.45047221],[-76.55430297,3.45049806],[-76.55425404,3.4505283],[-76.55420791,3.45056271],[-76.55420123,3.45056822]]]},"geometry_name":"the_geom","properties":{"tipo_amena":"Amenaza por Desborde de Corrientes (Tr 50 años)"}},{"type":"Feature","id":"amb_ari_amenaza_desborde_creciente.19","geometry":{"type":"MultiLineString","coordinates":[[[-76.55468018,3.45028245],[-76.55441821,3.45029021],[-76.55440928,3.45029134],[-76.55440036,3.45029261],[-76.5543915,3.45029402],[-76.55438264,3.45029558],[-76.55437378,3.4502972],[-76.55436492,3.45029897],[-76.55435613,3.45030088],[-76.55434734,3.45030292],[-76.55433863,3.45030504],[-76.55432991,3.4503073],[-76.55432126,3.45030971],[-76.55431261,3.45031225],[-76.55430396,3.45031486],[-76.55429039,3.45031931],[-76.55399228,3.4504888]]]},"geometry_name":"the_geom","properties":{"tipo_amena":"Amenaza por Desborde de Corrientes (Tr 50 años)"}},{"type":"Feature","id":"amb_ari_amenaza_desborde_creciente.1","geometry":{"type":"MultiLineString","coordinates":[[[-76.53194873,3.45524766],[-76.53190196,3.45549749],[-76.53182348,3.45578955],[-76.53179027,3.45608247],[-76.53181248,3.45631308],[-76.53179349,3.45639871],[-76.53175784,3.45647035],[-76.53171614,3.45653859],[-76.53166868,3.45660296],[-76.5316158,3.45666293],[-76.53159035,3.45668837],[-76.53146274,3.45678423],[-76.53132718,3.45686865],[-76.53120856,3.4569299]]]},"geometry_name":"the_geom","properties":{"tipo_amena":"Amenaza por Desborde de Corrientes (Tr 50 años)"}},{"type":"Feature","id":"amb_ari_amenaza_desborde_creciente.3","geometry":{"type":"MultiLineString","coordinates":[[[-76.54791838,3.45432995],[-76.54791198,3.45433638],[-76.5477367,3.4545496],[-76.5475489,3.45465076],[-76.54749427,3.45466347],[-76.54743866,3.45467139],[-76.5474182,3.45467308]]]},"geometry_name":"the_geom","properties":{"tipo_amena":"Amenaza por Desborde de Corrientes (Tr 50 años)"}},{"type":"Feature","id":"amb_ari_amenaza_desborde_creciente.4","geometry":{"type":"MultiLineString","coordinates":[[[-76.53239981,3.45431276],[-76.53223555,3.45470225],[-76.53214623,3.45508899],[-76.53211781,3.45535464]]]},"geometry_name":"the_geom","properties":{"tipo_amena":"Amenaza por Desborde de Corrientes (Tr 50 años)"}},{"type":"Feature","id":"amb_ari_amenaza_desborde_creciente.5","geometry":{"type":"MultiLineString","coordinates":[[[-76.54802976,3.45421889],[-76.54791838,3.45432995]]]},"geometry_name":"the_geom","properties":{"tipo_amena":"Amenaza por Desborde de Corrientes (Tr 50 años)"}},{"type":"Feature","id":"amb_ari_amenaza_desborde_creciente.6","geometry":{"type":"MultiLineString","coordinates":[[[-76.54779584,3.45420355],[-76.5476344,3.45442454],[-76.54757457,3.45446869],[-76.54751959,3.45447307],[-76.54741111,3.45444057],[-76.54730016,3.45441767],[-76.54718774,3.45440459],[-76.54716566,3.45440325]]]},"geometry_name":"the_geom","properties":{"tipo_amena":"Amenaza por Desborde de Corrientes (Tr 50 años)"}},{"type":"Feature","id":"amb_ari_amenaza_desborde_creciente.7","geometry":{"type":"MultiLineString","coordinates":[[[-76.53339259,3.45372316],[-76.53325021,3.45377692],[-76.53303767,3.4538289],[-76.53300723,3.45384226],[-76.53297805,3.45385822],[-76.53295034,3.45387666],[-76.53292433,3.4538975],[-76.53290028,3.45392046],[-76.53288341,3.45393932]]]},"geometry_name":"the_geom","properties":{"tipo_amena":"Amenaza por Desborde de Corrientes (Tr 50 años)"}},{"type":"Feature","id":"amb_ari_amenaza_desborde_creciente.8","geometry":{"type":"MultiLineString","coordinates":[[[-76.53501485,3.45288554],[-76.53479077,3.4529997],[-76.5345153,3.45306765],[-76.53372074,3.45335939],[-76.53346249,3.45343907]]]},"geometry_name":"the_geom","properties":{"tipo_amena":"Amenaza por Desborde de Corrientes (Tr 50 años)"}},{"type":"Feature","id":"amb_ari_amenaza_desborde_creciente.9","geometry":{"type":"MultiLineString","coordinates":[[[-76.53584407,3.45273178],[-76.53551298,3.45292979],[-76.53516593,3.453098],[-76.53516319,3.4530992],[-76.5341049,3.45342866],[-76.53376776,3.45356118],[-76.53355339,3.45366954],[-76.5334577,3.453693]]]},"geometry_name":"the_geom","properties":{"tipo_amena":"Amenaza por Desborde de Corrientes (Tr 50 años)"}},{"type":"Feature","id":"amb_ari_amenaza_desborde_creciente.10","geometry":{"type":"MultiLineString","coordinates":[[[-76.55066257,3.45251283],[-76.55050846,3.4525579],[-76.55031096,3.45255323],[-76.55021886,3.45257442],[-76.54980298,3.45275895],[-76.54960963,3.45282295],[-76.54942261,3.4529037],[-76.54937845,3.45292567],[-76.54917906,3.45298889]]]},"geometry_name":"the_geom","properties":{"tipo_amena":"Amenaza por Desborde de Corrientes (Tr 50 años)"}},{"type":"Feature","id":"amb_ari_amenaza_desborde_creciente.14","geometry":{"type":"MultiLineString","coordinates":[[[-76.54042155,3.45097195],[-76.54030133,3.45091655]]]},"geometry_name":"the_geom","properties":{"tipo_amena":"Amenaza por Desborde de Corrientes (Tr 50 años)"}},{"type":"Feature","id":"amb_ari_amenaza_desborde_creciente.2","geometry":{"type":"MultiLineString","coordinates":[[[-76.5474182,3.45467308],[-76.54736209,3.45467428],[-76.54730613,3.45467053],[-76.54728503,3.45466785],[-76.54694419,3.45454108]]]},"geometry_name":"the_geom","properties":{"tipo_amena":"Amenaza por Desborde de Corrientes (Tr 50 años)"}}],"totalFeatures":21,"numberMatched":21,"numberReturned":21,"timeStamp":"2026-09-25T18:59:57.626Z","crs":{"type":"name","properties":{"name":"urn:ogc:def:crs:EPSG::4326"}}}