{"type":"FeatureCollection","features":[{"type":"Feature","id":"cat_bas_construcciones.2980261","geometry":{"type":"MultiPolygon","coordinates":[[[[-76.53860362,3.42178579],[-76.53857417,3.42187236],[-76.53857387,3.4218723],[-76.53857064,3.42187167],[-76.53860009,3.42178511],[-76.53860362,3.42178579]]]]},"geometry_name":"the_geom","properties":{}},{"type":"Feature","id":"cat_bas_construcciones.2983008","geometry":{"type":"MultiPolygon","coordinates":[[[[-76.53646471,3.42287766],[-76.53655655,3.42279275],[-76.53656821,3.42280081],[-76.53659575,3.4227741],[-76.53666592,3.42284681],[-76.53660929,3.42289793],[-76.53649804,3.42299836],[-76.53643363,3.42292997],[-76.53647491,3.42288901],[-76.53646471,3.42287766]]]]},"geometry_name":"the_geom","properties":{}},{"type":"Feature","id":"cat_bas_construcciones.2983032","geometry":{"type":"MultiPolygon","coordinates":[[[[-76.53769074,3.42402158],[-76.53771267,3.42322443],[-76.53771268,3.42318357],[-76.53765989,3.42318357],[-76.53765989,3.42311179],[-76.53735197,3.42311177],[-76.53735196,3.42318466],[-76.53730578,3.42318466],[-76.53730484,3.42321872],[-76.53728245,3.42402932],[-76.53720668,3.42402932],[-76.53720668,3.42396087],[-76.53715412,3.42396086],[-76.53715413,3.42376952],[-76.53712633,3.42379815],[-76.53712984,3.42325948],[-76.53722031,3.42325949],[-76.53722031,3.42318085],[-76.53722032,3.42312943],[-76.53732967,3.42301856],[-76.53732967,3.42299128],[-76.53758568,3.42299339],[-76.53761878,3.42296426],[-76.53762335,3.42271687],[-76.53765393,3.42271687],[-76.53768909,3.42276131],[-76.53783658,3.42276479],[-76.53783399,3.42311394],[-76.53780035,3.4231814],[-76.53780524,3.42322931],[-76.53780436,3.42326163],[-76.53785701,3.423264],[-76.537857,3.42346662],[-76.5378293,3.42346661],[-76.53782982,3.42377901],[-76.53785067,3.42377902],[-76.53785835,3.42378563],[-76.5378542,3.42396928],[-76.53779508,3.42396928],[-76.53779508,3.42403607],[-76.53771016,3.42404235],[-76.53769074,3.42402158]],[[-76.53780632,3.422815],[-76.53764655,3.42281499],[-76.53764653,3.42305729],[-76.53780196,3.4230573],[-76.53780632,3.422815]]]]},"geometry_name":"the_geom","properties":{}},{"type":"Feature","id":"cat_bas_construcciones.2983227","geometry":{"type":"MultiPolygon","coordinates":[[[[-76.53663578,3.42255723],[-76.53662192,3.42254415],[-76.53660885,3.4225303],[-76.53659659,3.4225157],[-76.5365852,3.42250041],[-76.53656598,3.42251574],[-76.53645806,3.42238865],[-76.53651087,3.42233769],[-76.53656339,3.42229843],[-76.53674908,3.42250334],[-76.53675522,3.42250799],[-76.53676156,3.42251234],[-76.5367681,3.4225164],[-76.53677482,3.42252015],[-76.53678171,3.42252358],[-76.53678875,3.42252667],[-76.53679592,3.42252945],[-76.53680321,3.42253188],[-76.53681061,3.42253396],[-76.5368181,3.4225357],[-76.53682566,3.42253709],[-76.53683328,3.42253812],[-76.53684093,3.4225388],[-76.53684861,3.42253912],[-76.53685629,3.42253907],[-76.53686397,3.42253867],[-76.53687162,3.42253791],[-76.53687922,3.42253679],[-76.53688676,3.42253532],[-76.53689423,3.4225335],[-76.53690161,3.42253133],[-76.53690887,3.42252882],[-76.53691602,3.42252597],[-76.53692302,3.42252279],[-76.53692987,3.42251929],[-76.53693655,3.42251547],[-76.53694304,3.42251134],[-76.53694934,3.42250692],[-76.53695542,3.4225022],[-76.53713769,3.42235256],[-76.53722973,3.42246692],[-76.53709298,3.4225815],[-76.53707034,3.42255694],[-76.53705577,3.4225692],[-76.53704051,3.4225806],[-76.53702463,3.42259108],[-76.53700817,3.42260062],[-76.53699118,3.42260918],[-76.53697373,3.42261674],[-76.53695587,3.42262327],[-76.53693766,3.42262875],[-76.53691917,3.42263316],[-76.53690046,3.42263647],[-76.53688158,3.4226387],[-76.53686261,3.42263982],[-76.53684361,3.42263983],[-76.53682464,3.42263874],[-76.53680576,3.42263654],[-76.53678704,3.42263324],[-76.53676854,3.42262886],[-76.53675033,3.42262341],[-76.53673246,3.4226169],[-76.536715,3.42260936],[-76.536698,3.42260082],[-76.53668153,3.4225913],[-76.53666563,3.42258084],[-76.53665036,3.42256947],[-76.53663578,3.42255723]]]]},"geometry_name":"the_geom","properties":{}},{"type":"Feature","id":"cat_bas_construcciones.2987598","geometry":{"type":"MultiPolygon","coordinates":[[[[-76.53730484,3.42321872],[-76.53730578,3.42318466],[-76.53735196,3.42318466],[-76.53735197,3.42311177],[-76.53765989,3.42311179],[-76.53765989,3.42318357],[-76.53771268,3.42318357],[-76.53771267,3.42322443],[-76.53730484,3.42321872]]]]},"geometry_name":"the_geom","properties":{}},{"type":"Feature","id":"cat_bas_construcciones.2987969","geometry":{"type":"MultiPolygon","coordinates":[[[[-76.53750646,3.42408484],[-76.53733852,3.42399509],[-76.53728245,3.42402932],[-76.53730484,3.42321872],[-76.53771267,3.42322443],[-76.53769074,3.42402158],[-76.53768778,3.42401841],[-76.53766065,3.42399807],[-76.53750646,3.42408484]],[[-76.53762629,3.42326268],[-76.53739773,3.42325513],[-76.53737987,3.42371978],[-76.53760825,3.42372476],[-76.53762629,3.42326268]],[[-76.53759925,3.42382739],[-76.53740146,3.42382087],[-76.53739986,3.42397744],[-76.53759012,3.42398208],[-76.53759925,3.42382739]]]]},"geometry_name":"the_geom","properties":{}},{"type":"Feature","id":"cat_bas_construcciones.2992614","geometry":{"type":"MultiPolygon","coordinates":[[[[-76.53632229,3.42321197],[-76.5366928,3.422865],[-76.53669438,3.42284737],[-76.53676545,3.42278968],[-76.53704815,3.4230937],[-76.53702725,3.42311589],[-76.53699621,3.42308713],[-76.53695564,3.42312289],[-76.53697986,3.42315397],[-76.5365939,3.42351272],[-76.53632229,3.42321197]]]]},"geometry_name":"the_geom","properties":{}},{"type":"Feature","id":"cat_bas_construcciones.2992616","geometry":{"type":"MultiPolygon","coordinates":[[[[-76.53739931,3.42289343],[-76.53740163,3.42284717],[-76.53732027,3.42285317],[-76.53731742,3.4227521],[-76.53737776,3.42269045],[-76.53747191,3.42269298],[-76.53747246,3.42277981],[-76.53751704,3.42277912],[-76.53753572,3.42271686],[-76.53762335,3.42271687],[-76.53761878,3.42296426],[-76.53758568,3.42299339],[-76.53732967,3.42299128],[-76.53732956,3.42299128],[-76.53732559,3.42290681],[-76.53739931,3.42289343]]]]},"geometry_name":"the_geom","properties":{}},{"type":"Feature","id":"cat_bas_construcciones.2992780","geometry":{"type":"MultiPolygon","coordinates":[[[[-76.5371371,3.42230713],[-76.53742989,3.42206872],[-76.53749237,3.4221476],[-76.53721386,3.4223896],[-76.5371371,3.42230713]]]]},"geometry_name":"the_geom","properties":{}},{"type":"Feature","id":"cat_bas_construcciones.2997344","geometry":{"type":"MultiPolygon","coordinates":[[[[-76.53668262,3.42372696],[-76.5367208,3.42369098],[-76.53697598,3.42397739],[-76.53693738,3.42401101],[-76.53668262,3.42372696]]]]},"geometry_name":"the_geom","properties":{}},{"type":"Feature","id":"cat_bas_construcciones.3000288","geometry":{"type":"MultiPolygon","coordinates":[[[[-76.53835069,3.42262356],[-76.53834235,3.42262],[-76.53837212,3.42255336],[-76.5383779,3.42255586],[-76.53848789,3.42260331],[-76.53845833,3.42266947],[-76.53835069,3.42262356]]]]},"geometry_name":"the_geom","properties":{}},{"type":"Feature","id":"cat_bas_construcciones.3000326","geometry":{"type":"MultiPolygon","coordinates":[[[[-76.53851207,3.42265956],[-76.53852923,3.42262114],[-76.53853006,3.42261929],[-76.53855909,3.42255432],[-76.53856141,3.42254913],[-76.53862638,3.42257857],[-76.53857826,3.4226876],[-76.53851207,3.42265956]]]]},"geometry_name":"the_geom","properties":{}},{"type":"Feature","id":"cat_bas_construcciones.3000655","geometry":{"type":"MultiPolygon","coordinates":[[[[-76.53845014,3.4229019],[-76.5383672,3.42286683],[-76.53832989,3.42285106],[-76.53830084,3.42283877],[-76.53830897,3.42276374],[-76.53830914,3.42276381],[-76.53832739,3.42277152],[-76.53834004,3.42277687],[-76.53834376,3.42277844],[-76.53838418,3.42279554],[-76.53838661,3.42279656],[-76.53848482,3.42283809],[-76.53847155,3.42287171],[-76.5384966,3.4228823],[-76.53848385,3.4229146],[-76.53848344,3.42291564],[-76.53848332,3.42291593],[-76.53845014,3.4229019]]]]},"geometry_name":"the_geom","properties":{}},{"type":"Feature","id":"cat_bas_construcciones.3000692","geometry":{"type":"MultiPolygon","coordinates":[[[[-76.53879006,3.42327157],[-76.53876575,3.42325977],[-76.53876251,3.42325819],[-76.53863844,3.42319794],[-76.53870581,3.42301086],[-76.53866854,3.42299275],[-76.53866472,3.42300336],[-76.53860271,3.42317556],[-76.53847385,3.42311297],[-76.53844134,3.42309719],[-76.53841658,3.42308516],[-76.53843029,3.42305045],[-76.53843694,3.42303364],[-76.53843869,3.42302923],[-76.5384436,3.42301683],[-76.53844793,3.42300588],[-76.5384569,3.42298322],[-76.53845722,3.42298242],[-76.53845835,3.42297953],[-76.53846104,3.42297269],[-76.53846636,3.42295913],[-76.53847042,3.42294879],[-76.53847507,3.42293696],[-76.5384755,3.42293585],[-76.53848332,3.42291593],[-76.53848344,3.42291564],[-76.53848385,3.4229146],[-76.5384966,3.4228823],[-76.53849671,3.42288201],[-76.53850987,3.42284868],[-76.53851012,3.42284805],[-76.53852337,3.42281548],[-76.53852349,3.42281519],[-76.53853091,3.42279693],[-76.53853631,3.42278367],[-76.53855697,3.4227937],[-76.53856558,3.42279788],[-76.53857763,3.42280374],[-76.53871294,3.42286945],[-76.53867895,3.42296384],[-76.53871104,3.42297942],[-76.53871622,3.42298194],[-76.53875297,3.42288888],[-76.53884501,3.42293359],[-76.53884534,3.42293374],[-76.53883853,3.42296044],[-76.5388758,3.42297854],[-76.53923555,3.42315325],[-76.53918122,3.42331044],[-76.53917696,3.42330837],[-76.53882066,3.42313533],[-76.53880167,3.42318805],[-76.53880734,3.42319081],[-76.53905771,3.4233124],[-76.53902817,3.42338721],[-76.5390226,3.42338451],[-76.53879006,3.42327157]]]]},"geometry_name":"the_geom","properties":{}},{"type":"Feature","id":"cat_bas_construcciones.3000794","geometry":{"type":"MultiPolygon","coordinates":[[[[-76.53829224,3.42299077],[-76.53829175,3.42299056],[-76.5382881,3.42298899],[-76.53830376,3.42291758],[-76.53831714,3.42292332],[-76.53836576,3.42294416],[-76.5384569,3.42298322],[-76.53844793,3.42300588],[-76.5384436,3.42301683],[-76.53843869,3.42302923],[-76.53843694,3.42303364],[-76.53843029,3.42305045],[-76.53830874,3.42299791],[-76.53830118,3.42299464],[-76.53829224,3.42299077]]]]},"geometry_name":"the_geom","properties":{}},{"type":"Feature","id":"cat_bas_construcciones.3001036","geometry":{"type":"MultiPolygon","coordinates":[[[[-76.53867141,3.42368364],[-76.53865681,3.42367908],[-76.53866301,3.4236621],[-76.53863122,3.42365218],[-76.53862501,3.42366915],[-76.53858032,3.4236552],[-76.53858963,3.42362973],[-76.53857244,3.42362437],[-76.53856314,3.42364983],[-76.53852532,3.42363803],[-76.53855014,3.42357012],[-76.5386079,3.42358815],[-76.53863361,3.42359618],[-76.53865627,3.42360326],[-76.53864852,3.42362448],[-76.53867989,3.42363427],[-76.53868764,3.42361305],[-76.53869183,3.42361436],[-76.53870979,3.42361996],[-76.5387246,3.42362458],[-76.53871994,3.42363732],[-76.53869978,3.4236925],[-76.53867141,3.42368364]]]]},"geometry_name":"the_geom","properties":{}},{"type":"Feature","id":"cat_bas_construcciones.3001180","geometry":{"type":"MultiPolygon","coordinates":[[[[-76.53852336,3.42371459],[-76.53853569,3.42368061],[-76.53848414,3.42366447],[-76.53848896,3.4236512],[-76.53849109,3.42364532],[-76.53849284,3.4236405],[-76.53849672,3.42362981],[-76.53849695,3.42362917],[-76.53852532,3.42363803],[-76.53856314,3.42364983],[-76.53858032,3.4236552],[-76.53862501,3.42366915],[-76.53863876,3.42367345],[-76.53863621,3.42368047],[-76.53863396,3.42368666],[-76.53863171,3.42369286],[-76.53866436,3.42370308],[-76.53866775,3.42369373],[-76.53867115,3.42368438],[-76.53867141,3.42368364],[-76.53869978,3.4236925],[-76.53870923,3.42369545],[-76.53870693,3.42370179],[-76.53870365,3.42371082],[-76.5386939,3.42373768],[-76.53862344,3.42371564],[-76.53861357,3.42374282],[-76.53861177,3.42374226],[-76.5386104,3.42374183],[-76.53852336,3.42371459]]]]},"geometry_name":"the_geom","properties":{}},{"type":"Feature","id":"cat_bas_construcciones.3001394","geometry":{"type":"MultiPolygon","coordinates":[[[[-76.53831714,3.42292332],[-76.53830376,3.42291758],[-76.53830374,3.42291757],[-76.53830609,3.42291159],[-76.53831262,3.42289501],[-76.53832128,3.42287301],[-76.53835828,3.42288954],[-76.5383672,3.42286683],[-76.53845014,3.4229019],[-76.53844189,3.42292293],[-76.53847507,3.42293696],[-76.53847042,3.42294879],[-76.53846636,3.42295913],[-76.53846104,3.42297269],[-76.53845835,3.42297953],[-76.53845722,3.42298242],[-76.5384569,3.42298322],[-76.53836576,3.42294416],[-76.53831714,3.42292332]]]]},"geometry_name":"the_geom","properties":{}},{"type":"Feature","id":"cat_bas_construcciones.3001481","geometry":{"type":"MultiPolygon","coordinates":[[[[-76.53856347,3.42388042],[-76.53855521,3.42387784],[-76.5384789,3.42385405],[-76.53850057,3.42378465],[-76.53858416,3.42381098],[-76.53858675,3.4238118],[-76.53858083,3.42382963],[-76.53861361,3.42384036],[-76.53861908,3.42382198],[-76.53866145,3.42383533],[-76.53870438,3.42384885],[-76.53868918,3.42389017],[-76.53857219,3.42385251],[-76.53856347,3.42388042]]]]},"geometry_name":"the_geom","properties":{}},{"type":"Feature","id":"cat_bas_construcciones.3001527","geometry":{"type":"MultiPolygon","coordinates":[[[[-76.53850057,3.42378465],[-76.53849167,3.42378185],[-76.53848107,3.42377851],[-76.53847339,3.42377609],[-76.53849027,3.42372934],[-76.53849457,3.42373069],[-76.53850272,3.42370813],[-76.53850473,3.42370876],[-76.53852336,3.42371459],[-76.5386104,3.42374183],[-76.53861177,3.42374226],[-76.53861357,3.42374282],[-76.53863505,3.42374954],[-76.53862251,3.42378425],[-76.53861668,3.4238004],[-76.53859092,3.42379228],[-76.53858416,3.42381098],[-76.53850057,3.42378465]]]]},"geometry_name":"the_geom","properties":{}},{"type":"Feature","id":"cat_bas_construcciones.3001760","geometry":{"type":"MultiPolygon","coordinates":[[[[-76.53850272,3.42370813],[-76.53847609,3.4236998],[-76.53847265,3.42369872],[-76.5384718,3.42369846],[-76.53848414,3.42366447],[-76.53853569,3.42368061],[-76.53852336,3.42371459],[-76.53850473,3.42370876],[-76.53850272,3.42370813]]]]},"geometry_name":"the_geom","properties":{}},{"type":"Feature","id":"cat_bas_construcciones.3001807","geometry":{"type":"MultiPolygon","coordinates":[[[[-76.53835468,3.42270441],[-76.53834375,3.42269978],[-76.53833338,3.42269539],[-76.53833366,3.42269476],[-76.53833728,3.42268666],[-76.5383409,3.42267857],[-76.53835135,3.42265516],[-76.53833887,3.42265001],[-76.53835069,3.42262356],[-76.53845833,3.42266947],[-76.5384749,3.42267655],[-76.53846556,3.42269746],[-76.53845157,3.42272878],[-76.53845044,3.42273131],[-76.53844823,3.42273624],[-76.53844603,3.42274118],[-76.5384453,3.42274281],[-76.53844186,3.42274135],[-76.5384185,3.42273145],[-76.5383981,3.42272281],[-76.53837172,3.42271163],[-76.53835468,3.42270441]]]]},"geometry_name":"the_geom","properties":{}},{"type":"Feature","id":"cat_bas_construcciones.3001998","geometry":{"type":"MultiPolygon","coordinates":[[[[-76.53827513,3.42303391],[-76.53829224,3.42299077],[-76.53830118,3.42299464],[-76.53830874,3.42299791],[-76.53843029,3.42305045],[-76.53841658,3.42308516],[-76.53841266,3.42309509],[-76.53840539,3.42311349],[-76.53829131,3.42306418],[-76.53827513,3.42303391]]]]},"geometry_name":"the_geom","properties":{}},{"type":"Feature","id":"cat_bas_construcciones.3002094","geometry":{"type":"MultiPolygon","coordinates":[[[[-76.53856558,3.42279788],[-76.53855697,3.4227937],[-76.53853631,3.42278367],[-76.53853711,3.42278171],[-76.53853812,3.42277922],[-76.53854012,3.42277465],[-76.53854083,3.42277302],[-76.53855034,3.42275134],[-76.53855999,3.42275602],[-76.53857588,3.42276374],[-76.53859177,3.42277146],[-76.53857763,3.42280374],[-76.53856558,3.42279788]]]]},"geometry_name":"the_geom","properties":{}},{"type":"Feature","id":"cat_bas_construcciones.3002107","geometry":{"type":"MultiPolygon","coordinates":[[[[-76.5384453,3.42274281],[-76.53844603,3.42274118],[-76.53844823,3.42273624],[-76.53845044,3.42273131],[-76.53845157,3.42272878],[-76.53846556,3.42269746],[-76.53849053,3.42270777],[-76.53848117,3.42272871],[-76.53848008,3.42273115],[-76.53847799,3.42273585],[-76.53847595,3.42274041],[-76.53847589,3.42274054],[-76.53847559,3.42274122],[-76.53847514,3.42274222],[-76.53847457,3.42274349],[-76.53847425,3.42274421],[-76.53847296,3.42274711],[-76.53847182,3.42274966],[-76.53847125,3.42275092],[-76.538471,3.42275149],[-76.53847017,3.42275335],[-76.53845635,3.42274749],[-76.5384453,3.42274281]]]]},"geometry_name":"the_geom","properties":{}},{"type":"Feature","id":"cat_bas_construcciones.3002555","geometry":{"type":"MultiPolygon","coordinates":[[[[-76.53856521,3.4227174],[-76.53856529,3.42271722],[-76.53862613,3.42257934],[-76.53871685,3.4226275],[-76.53867014,3.42273824],[-76.53862315,3.42271542],[-76.5386122,3.42274022],[-76.53860896,3.42273865],[-76.53856521,3.4227174]]]]},"geometry_name":"the_geom","properties":{}},{"type":"Feature","id":"cat_bas_construcciones.3002556","geometry":{"type":"MultiPolygon","coordinates":[[[[-76.53848482,3.42283809],[-76.53838661,3.42279656],[-76.53838418,3.42279554],[-76.53834376,3.42277844],[-76.53834004,3.42277687],[-76.53832739,3.42277152],[-76.53835468,3.42270441],[-76.53837172,3.42271163],[-76.5383981,3.42272281],[-76.5384185,3.42273145],[-76.53844186,3.42274135],[-76.5384453,3.42274281],[-76.53845635,3.42274749],[-76.53847017,3.42275335],[-76.53847302,3.42275455],[-76.53853711,3.42278171],[-76.53853631,3.42278367],[-76.53853091,3.42279693],[-76.53852349,3.42281519],[-76.53852337,3.42281548],[-76.53851012,3.42284805],[-76.53850987,3.42284868],[-76.53848482,3.42283809]]]]},"geometry_name":"the_geom","properties":{}},{"type":"Feature","id":"cat_bas_construcciones.3004239","geometry":{"type":"MultiPolygon","coordinates":[[[[-76.53861897,3.42171466],[-76.5386118,3.42173745],[-76.538597,3.4217845],[-76.53859081,3.42178329],[-76.53861279,3.42171345],[-76.53861572,3.42171402],[-76.53861897,3.42171466]]]]},"geometry_name":"the_geom","properties":{}},{"type":"Feature","id":"cat_bas_construcciones.3004240","geometry":{"type":"MultiPolygon","coordinates":[[[[-76.538597,3.4217845],[-76.5386118,3.42173745],[-76.53861897,3.42171466],[-76.53862546,3.42171593],[-76.53862916,3.42171665],[-76.53869597,3.42172969],[-76.53873218,3.42173676],[-76.53878196,3.42174648],[-76.53876839,3.4217896],[-76.53878606,3.42179305],[-76.53878576,3.42179401],[-76.53878292,3.42180301],[-76.53877765,3.42181977],[-76.53863347,3.42179162],[-76.53861398,3.42178782],[-76.53860962,3.42178697],[-76.53860377,3.42178582],[-76.53860362,3.42178579],[-76.53860009,3.42178511],[-76.538597,3.4217845]]]]},"geometry_name":"the_geom","properties":{}},{"type":"Feature","id":"cat_bas_construcciones.3004242","geometry":{"type":"MultiPolygon","coordinates":[[[[-76.53879973,3.42182409],[-76.53877025,3.42191074],[-76.5387695,3.4219106],[-76.53876046,3.42190883],[-76.53872797,3.42190247],[-76.53872608,3.4219021],[-76.53869599,3.42189621],[-76.5386934,3.4218957],[-76.53866918,3.42189096],[-76.5386669,3.42189051],[-76.53857417,3.42187236],[-76.53860362,3.42178579],[-76.53860377,3.42178582],[-76.53860962,3.42178697],[-76.53863347,3.42179162],[-76.53877765,3.42181977],[-76.53878305,3.42182083],[-76.53879803,3.42182376],[-76.53879973,3.42182409]]]]},"geometry_name":"the_geom","properties":{}},{"type":"Feature","id":"cat_bas_construcciones.3004244","geometry":{"type":"MultiPolygon","coordinates":[[[[-76.53855056,3.42193618],[-76.53856797,3.42187115],[-76.53857064,3.42187167],[-76.53857387,3.4218723],[-76.53857417,3.42187236],[-76.53859409,3.42187626],[-76.5386669,3.42189051],[-76.53865817,3.42191618],[-76.53868467,3.42192137],[-76.5386934,3.4218957],[-76.53869599,3.42189621],[-76.53872608,3.4219021],[-76.53870425,3.42196627],[-76.5386889,3.42196326],[-76.53856353,3.42193872],[-76.53855087,3.42193623],[-76.53855056,3.42193618]]]]},"geometry_name":"the_geom","properties":{}},{"type":"Feature","id":"cat_bas_construcciones.3004245","geometry":{"type":"MultiPolygon","coordinates":[[[[-76.53856797,3.42187115],[-76.53855056,3.42193618],[-76.53854261,3.42193462],[-76.53856002,3.42186959],[-76.53856797,3.42187115]]]]},"geometry_name":"the_geom","properties":{}},{"type":"Feature","id":"cat_bas_construcciones.3004249","geometry":{"type":"MultiPolygon","coordinates":[[[[-76.53862305,3.42208198],[-76.53859539,3.4220783],[-76.53850886,3.42206678],[-76.53850574,3.42206636],[-76.53855087,3.42193623],[-76.5386889,3.42196326],[-76.53867063,3.42202123],[-76.53868703,3.42202355],[-76.53868126,3.42204224],[-76.53869264,3.42204369],[-76.53867805,3.4220893],[-76.53862305,3.42208198]]]]},"geometry_name":"the_geom","properties":{}},{"type":"Feature","id":"cat_bas_construcciones.3004250","geometry":{"type":"MultiPolygon","coordinates":[[[[-76.53845531,3.42221125],[-76.53845671,3.42220696],[-76.53846571,3.4221795],[-76.5384801,3.42213555],[-76.53848149,3.42213573],[-76.53848523,3.42213623],[-76.53849687,3.42213779],[-76.53854789,3.42214462],[-76.53853215,3.42219025],[-76.53852911,3.42219906],[-76.53852717,3.42220468],[-76.53852119,3.42220299],[-76.53851935,3.42220248],[-76.53851818,3.42220215],[-76.53850464,3.42219833],[-76.53850455,3.42219831],[-76.53850192,3.42220581],[-76.53849708,3.42221964],[-76.53849559,3.4222239],[-76.53846213,3.4222134],[-76.53845531,3.42221125]]]]},"geometry_name":"the_geom","properties":{}},{"type":"Feature","id":"cat_bas_construcciones.3004251","geometry":{"type":"MultiPolygon","coordinates":[[[[-76.5384801,3.42213555],[-76.53846571,3.4221795],[-76.53845671,3.42220696],[-76.53845531,3.42221125],[-76.53844242,3.42220721],[-76.53844442,3.4222011],[-76.53844807,3.42218997],[-76.53846648,3.42213373],[-76.5384801,3.42213555]]]]},"geometry_name":"the_geom","properties":{}},{"type":"Feature","id":"cat_bas_construcciones.3004252","geometry":{"type":"MultiPolygon","coordinates":[[[[-76.53840441,3.42229114],[-76.53843546,3.42220502],[-76.53844242,3.42220721],[-76.53845531,3.42221125],[-76.53849559,3.4222239],[-76.53849708,3.42221964],[-76.53850192,3.42220581],[-76.53850455,3.42219831],[-76.53850464,3.42219833],[-76.53851818,3.42220215],[-76.53851935,3.42220248],[-76.53852119,3.42220299],[-76.53852717,3.42220468],[-76.53852031,3.42222457],[-76.53849115,3.42230906],[-76.53848825,3.42231746],[-76.53840441,3.42229114]]]]},"geometry_name":"the_geom","properties":{}},{"type":"Feature","id":"cat_bas_construcciones.3004253","geometry":{"type":"MultiPolygon","coordinates":[[[[-76.53852031,3.42222457],[-76.5385477,3.42223411],[-76.53856286,3.42223944],[-76.53857994,3.42218852],[-76.53862209,3.42219988],[-76.53861853,3.42221066],[-76.53857729,3.42233566],[-76.53849115,3.42230906],[-76.53851667,3.42223511],[-76.53852031,3.42222457]]]]},"geometry_name":"the_geom","properties":{}},{"type":"Feature","id":"cat_bas_construcciones.3004254","geometry":{"type":"MultiPolygon","coordinates":[[[[-76.53852031,3.42222457],[-76.53852717,3.42220468],[-76.53852911,3.42219906],[-76.53853215,3.42219025],[-76.53854789,3.42214462],[-76.53858425,3.42214948],[-76.53862261,3.42215461],[-76.53863642,3.42215646],[-76.53862209,3.42219988],[-76.53857994,3.42218852],[-76.53856497,3.42218448],[-76.5385477,3.42223411],[-76.53852031,3.42222457]]]]},"geometry_name":"the_geom","properties":{}},{"type":"Feature","id":"cat_bas_construcciones.3004307","geometry":{"type":"MultiPolygon","coordinates":[[[[-76.53865627,3.42360326],[-76.53863361,3.42359618],[-76.53864516,3.42356273],[-76.5386188,3.42355438],[-76.5386079,3.42358815],[-76.53855014,3.42357012],[-76.53853653,3.42356587],[-76.53852693,3.42356288],[-76.53851709,3.4235598],[-76.5385451,3.42347386],[-76.53855463,3.42347687],[-76.53855932,3.42347835],[-76.53856844,3.42348123],[-76.53857532,3.4234834],[-76.53858086,3.42348515],[-76.53859131,3.42348845],[-76.53861773,3.42349679],[-76.53862031,3.4234976],[-76.53863753,3.42350303],[-76.53862859,3.42353001],[-76.53865318,3.42353767],[-76.53866228,3.42351084],[-76.53869071,3.42351982],[-76.53868775,3.42352852],[-76.53866174,3.42360497],[-76.53865789,3.42360376],[-76.53865627,3.42360326]],[[-76.53858928,3.42351098],[-76.53857374,3.42350582],[-76.53856843,3.42352124],[-76.53858397,3.4235264],[-76.53858928,3.42351098]]]]},"geometry_name":"the_geom","properties":{}},{"type":"Feature","id":"cat_bas_construcciones.3004310","geometry":{"type":"MultiPolygon","coordinates":[[[[-76.53849695,3.42362917],[-76.5384918,3.42362756],[-76.53849009,3.42362703],[-76.53850249,3.42359308],[-76.53851453,3.42359683],[-76.53852693,3.42356288],[-76.53853653,3.42356587],[-76.53855014,3.42357012],[-76.53852532,3.42363803],[-76.53849695,3.42362917]]]]},"geometry_name":"the_geom","properties":{}},{"type":"Feature","id":"cat_bas_construcciones.3034249","geometry":{"type":"MultiPolygon","coordinates":[[[[-76.53856274,3.42347943],[-76.53857139,3.42345376],[-76.53855253,3.4234478],[-76.53857855,3.42337063],[-76.53865079,3.42340015],[-76.53865912,3.42340356],[-76.53872158,3.42342909],[-76.53871575,3.42344621],[-76.53871182,3.42345778],[-76.5387051,3.42347753],[-76.53869712,3.42350098],[-76.53869711,3.42350101],[-76.53865079,3.42348639],[-76.53864439,3.4235052],[-76.53864435,3.42350519],[-76.53864324,3.42350484],[-76.53863753,3.42350303],[-76.53862031,3.4234976],[-76.53861773,3.42349679],[-76.53859131,3.42348845],[-76.53858086,3.42348515],[-76.53857532,3.4234834],[-76.53856844,3.42348123],[-76.53856274,3.42347943]]]]},"geometry_name":"the_geom","properties":{}},{"type":"Feature","id":"cat_bas_construcciones.3034250","geometry":{"type":"MultiPolygon","coordinates":[[[[-76.53853701,3.4234713],[-76.53857187,3.4233679],[-76.53857418,3.42336105],[-76.53865312,3.42339331],[-76.53865079,3.42340015],[-76.53857855,3.42337063],[-76.53854387,3.42347347],[-76.53854324,3.42347327],[-76.53853808,3.42347164],[-76.53853701,3.4234713]]]]},"geometry_name":"the_geom","properties":{}},{"type":"Feature","id":"cat_bas_construcciones.3034252","geometry":{"type":"MultiPolygon","coordinates":[[[[-76.53855253,3.4234478],[-76.53857139,3.42345376],[-76.53856274,3.42347943],[-76.53855932,3.42347835],[-76.53855463,3.42347687],[-76.5385451,3.42347386],[-76.53854387,3.42347347],[-76.53855253,3.4234478]]]]},"geometry_name":"the_geom","properties":{}},{"type":"Feature","id":"cat_bas_construcciones.3034253","geometry":{"type":"MultiPolygon","coordinates":[[[[-76.53854566,3.42344563],[-76.53853701,3.4234713],[-76.53852155,3.42346643],[-76.53851496,3.42346435],[-76.53851299,3.42346373],[-76.53852165,3.42343805],[-76.53854566,3.42344563]]]]},"geometry_name":"the_geom","properties":{}},{"type":"Feature","id":"cat_bas_construcciones.3034376","geometry":{"type":"MultiPolygon","coordinates":[[[[-76.53853342,3.42254559],[-76.53853527,3.42254147],[-76.53856005,3.42255216],[-76.53855909,3.42255432],[-76.53855821,3.42255628],[-76.53853342,3.42254559]]]]},"geometry_name":"the_geom","properties":{}},{"type":"Feature","id":"cat_bas_construcciones.3034374","geometry":{"type":"MultiPolygon","coordinates":[[[[-76.53853342,3.42254559],[-76.53855821,3.42255628],[-76.53853006,3.42261929],[-76.53852923,3.42262114],[-76.53848789,3.42260331],[-76.53840283,3.42256661],[-76.5384318,3.42250178],[-76.53846733,3.4225171],[-76.53853342,3.42254559]]]]},"geometry_name":"the_geom","properties":{}},{"type":"Feature","id":"cat_bas_construcciones.3034375","geometry":{"type":"MultiPolygon","coordinates":[[[[-76.53841608,3.42252154],[-76.53842786,3.42249516],[-76.53843364,3.42249766],[-76.53846917,3.42251297],[-76.53846733,3.4225171],[-76.5384318,3.42250178],[-76.53840283,3.42256661],[-76.53839953,3.42256519],[-76.53841855,3.42252261],[-76.53841608,3.42252154]]]]},"geometry_name":"the_geom","properties":{}},{"type":"Feature","id":"cat_bas_construcciones.3034377","geometry":{"type":"MultiPolygon","coordinates":[[[[-76.53862209,3.42219988],[-76.53863642,3.42215646],[-76.53872943,3.4221689],[-76.53871723,3.42220448],[-76.53870901,3.42222845],[-76.53870241,3.4222477],[-76.53869361,3.42227334],[-76.53867589,3.42232501],[-76.5386701,3.42234189],[-76.53865978,3.42237198],[-76.53862964,3.42236289],[-76.53857386,3.42234605],[-76.53857403,3.42234555],[-76.53857566,3.4223406],[-76.53857642,3.4223383],[-76.53857729,3.42233566],[-76.53861853,3.42221066],[-76.53862209,3.42219988]]]]},"geometry_name":"the_geom","properties":{}},{"type":"Feature","id":"cat_bas_construcciones.3034378","geometry":{"type":"MultiPolygon","coordinates":[[[[-76.53848894,3.42213673],[-76.53851257,3.42206727],[-76.53859539,3.4220783],[-76.53860169,3.42207914],[-76.53857805,3.42214865],[-76.53854789,3.42214462],[-76.53848894,3.42213673]]]]},"geometry_name":"the_geom","properties":{}},{"type":"Feature","id":"cat_bas_construcciones.3034380","geometry":{"type":"MultiPolygon","coordinates":[[[[-76.53857805,3.42214865],[-76.53860169,3.42207914],[-76.53862305,3.42208198],[-76.53867805,3.4220893],[-76.53870702,3.42209316],[-76.53871761,3.42209457],[-76.5387207,3.42209498],[-76.53872201,3.42209516],[-76.53869834,3.42216474],[-76.53863642,3.42215646],[-76.53862261,3.42215461],[-76.53858425,3.42214948],[-76.53857805,3.42214865]]]]},"geometry_name":"the_geom","properties":{}},{"type":"Feature","id":"cat_bas_construcciones.3034381","geometry":{"type":"MultiPolygon","coordinates":[[[[-76.53847825,3.4221353],[-76.53850187,3.42206585],[-76.53850574,3.42206636],[-76.53850886,3.42206678],[-76.53851257,3.42206727],[-76.53848894,3.42213673],[-76.53848523,3.42213623],[-76.53848149,3.42213573],[-76.5384801,3.42213555],[-76.53847825,3.4221353]]]]},"geometry_name":"the_geom","properties":{}}],"totalFeatures":51,"numberMatched":51,"numberReturned":51,"timeStamp":"2026-09-25T21:21:00.651Z","crs":{"type":"name","properties":{"name":"urn:ogc:def:crs:EPSG::4326"}}}