{"type":"FeatureCollection","features":[{"type":"Feature","id":"eqp_uba_deporte.1","geometry":{"type":"MultiPolygon","coordinates":[[[[-76.53696455,3.42129128],[-76.53605636,3.42172766],[-76.53652432,3.42228844],[-76.53641575,3.42239037],[-76.53658453,3.42259239],[-76.53666695,3.42266088],[-76.53675463,3.42269544],[-76.53684534,3.42270435],[-76.53692981,3.42268598],[-76.53700686,3.42263962],[-76.53720208,3.42247024],[-76.53752149,3.42220946],[-76.53742202,3.42209803],[-76.53756709,3.42197571],[-76.5375655,3.42176847],[-76.53696455,3.42129128],[-76.53767572,3.42142882],[-76.53780117,3.42145414],[-76.53795903,3.42148428],[-76.53805546,3.42150366],[-76.53812546,3.42151587],[-76.53816261,3.42153022],[-76.53820404,3.42155175],[-76.5382469,3.4215819],[-76.53827332,3.42160918],[-76.53829118,3.42163861],[-76.53829618,3.4216666],[-76.53829976,3.42170249],[-76.5382969,3.42175059],[-76.53828146,3.42179574],[-76.53828013,3.42180257],[-76.53814898,3.42237014],[-76.53811905,3.42248995],[-76.53811262,3.42252225],[-76.53808945,3.42261544],[-76.53805945,3.42260586],[-76.53804374,3.42266808],[-76.53807126,3.42267818],[-76.53808755,3.42272837],[-76.53809231,3.42277383],[-76.5380685,3.42283413],[-76.53801898,3.42286763],[-76.5379566,3.42288582],[-76.53787198,3.42290975],[-76.53787188,3.42273231],[-76.53786488,3.42271936],[-76.53785374,3.42271965],[-76.53761582,3.42272075],[-76.53761547,3.42269672],[-76.53735161,3.42269392],[-76.53729149,3.42275433],[-76.53729031,3.42285602],[-76.537304,3.42285773],[-76.53730995,3.42299241],[-76.53726233,3.42299229],[-76.53720979,3.42326592],[-76.53715016,3.42327008],[-76.53715069,3.42396487],[-76.53715087,3.42396614],[-76.53719565,3.42396826],[-76.53719804,3.42403219],[-76.53726919,3.42403186],[-76.53731951,3.42399875],[-76.53734431,3.42399799],[-76.53749547,3.42408201],[-76.53763497,3.42399644],[-76.53765279,3.42399654],[-76.537693,3.42402812],[-76.53778756,3.42402642],[-76.53778791,3.42396877],[-76.53785181,3.42396546],[-76.53785347,3.42389516],[-76.53801392,3.42394972],[-76.53800678,3.42416076],[-76.53799107,3.42427992],[-76.53797476,3.42433882],[-76.53790605,3.42456369],[-76.53781665,3.42485879],[-76.53769496,3.42526643],[-76.53759617,3.42557598],[-76.5375458,3.42573278],[-76.53752283,3.4258028],[-76.53750046,3.42585782],[-76.53747816,3.42590039],[-76.53744477,3.42593136],[-76.53736587,3.4260042],[-76.53725913,3.42597128],[-76.53727715,3.42591589],[-76.53701,3.42582904],[-76.53682802,3.42576685],[-76.53684902,3.42570021],[-76.53693168,3.42544113],[-76.53708332,3.424957],[-76.53720073,3.42459143],[-76.53723601,3.42448157],[-76.53715696,3.4244519],[-76.53716648,3.42442606],[-76.53709219,3.42440213],[-76.53710076,3.42437151],[-76.53698266,3.42433705],[-76.53692076,3.42429494],[-76.5368217,3.42419636],[-76.53676646,3.42416765],[-76.53665217,3.42407864],[-76.5365855,3.42396284],[-76.53653884,3.42398198],[-76.53625693,3.42412076],[-76.53607977,3.42393796],[-76.53596644,3.42428443],[-76.5359293,3.42440598],[-76.53577252,3.42489051],[-76.53563907,3.4252817],[-76.535425,3.42593802],[-76.53520564,3.42660661],[-76.53510765,3.42659725],[-76.53497907,3.42659008],[-76.53488907,3.42658003],[-76.53478625,3.42657261],[-76.53467768,3.42655156],[-76.5346072,3.42653816],[-76.53435386,3.42645586],[-76.53422433,3.42641757],[-76.53378146,3.42627751],[-76.53389888,3.42591992],[-76.53439482,3.42439551],[-76.53445196,3.42422447],[-76.53481026,3.42311127],[-76.53533705,3.4215086],[-76.53535841,3.42142166],[-76.53538698,3.42132954],[-76.53540721,3.42129126],[-76.53543698,3.42124819],[-76.53546317,3.42121708],[-76.5354846,3.42119794],[-76.53551555,3.42116803],[-76.53555841,3.42113453],[-76.53560841,3.42110941],[-76.53565127,3.42109266],[-76.53569531,3.42107232],[-76.53574412,3.42106395],[-76.53580722,3.42106394],[-76.53585603,3.42106753],[-76.53596318,3.42108907],[-76.53696455,3.42129128]],[[-76.53674386,3.42285447],[-76.53669583,3.42290033],[-76.53666864,3.42287155],[-76.53665025,3.4228891],[-76.53621986,3.42330933],[-76.53652502,3.42360384],[-76.53663018,3.42350878],[-76.53663807,3.42351601],[-76.5369756,3.42319516],[-76.53695056,3.42316787],[-76.53699629,3.42312103],[-76.53674386,3.42285447]]]]},"geometry_name":"the_geom","properties":{"nombre":"UNIDAD DEPORTIVA PANAMERICANA","localizaci":"CL 9 39 11","servicio":"DEPORTE","tipo":"UDEPOR","propiedad":"PUB","numpisos":1,"servicio_t":"RECREACION_URB","escala":"REGIONAL","permanenci":"SI","estruc_eco":"NO"}},{"type":"Feature","id":"eqp_uba_deporte.2","geometry":{"type":"MultiPolygon","coordinates":[[[[-76.53715087,3.42396614],[-76.53715069,3.42396487],[-76.53715016,3.42327008],[-76.53720979,3.42326592],[-76.53726233,3.42299229],[-76.53730995,3.42299241],[-76.537304,3.42285773],[-76.53729031,3.42285602],[-76.53729149,3.42275433],[-76.53735161,3.42269392],[-76.53761547,3.42269672],[-76.53761582,3.42272075],[-76.53785374,3.42271965],[-76.53786488,3.42271936],[-76.53787188,3.42273231],[-76.53787211,3.42314128],[-76.53786723,3.42317624],[-76.5378531,3.42326037],[-76.53785351,3.42396537],[-76.53785177,3.42396698],[-76.53778791,3.42396877],[-76.53778784,3.42396865],[-76.53778756,3.42402642],[-76.53778484,3.42402893],[-76.537693,3.42402812],[-76.53765279,3.42399654],[-76.53763497,3.42399644],[-76.53749547,3.42408201],[-76.53734431,3.42399799],[-76.53731951,3.42399875],[-76.53726919,3.42403186],[-76.53719804,3.42403219],[-76.53719565,3.42396826],[-76.53715087,3.42396614]]]]},"geometry_name":"the_geom","properties":{"nombre":"Piscinas Liga de Natación","localizaci":"INT UNIDAD DEP. PANAMERICANA","servicio":"DEPORTE","tipo":"ESCENARIO","propiedad":"PUB","numpisos":1,"servicio_t":"RECREACION_URB","escala":"URBANA","permanenci":"SI","estruc_eco":"NO"}},{"type":"Feature","id":"eqp_uba_deporte.3","geometry":{"type":"MultiPolygon","coordinates":[[[[-76.53652502,3.42360384],[-76.53621986,3.42330933],[-76.53665025,3.4228891],[-76.53666864,3.42287155],[-76.53669583,3.42290033],[-76.53674386,3.42285447],[-76.53699629,3.42312103],[-76.53695056,3.42316787],[-76.5369756,3.42319516],[-76.53663807,3.42351601],[-76.53663018,3.42350878],[-76.53652502,3.42360384]]]]},"geometry_name":"the_geom","properties":{"nombre":"Coliseo de Voley Ball","localizaci":"INT UNIDAD DEP. PANAMERICANA","servicio":"DEPORTE","tipo":"ESCENARIO","propiedad":"PUB","numpisos":1,"servicio_t":"RECREACION_URB","escala":"URBANA","permanenci":"SI","estruc_eco":"NO"}},{"type":"Feature","id":"eqp_uba_deporte.4","geometry":{"type":"MultiPolygon","coordinates":[[[[-76.53681884,3.42579419],[-76.53645124,3.42570092],[-76.53633505,3.42568848],[-76.53626171,3.42570092],[-76.53621314,3.42570284],[-76.53615981,3.42569901],[-76.5360998,3.42568561],[-76.53605599,3.42566934],[-76.53601599,3.4256502],[-76.53597027,3.42562436],[-76.53593408,3.42559852],[-76.5358998,3.42556598],[-76.53586932,3.42553344],[-76.5358436,3.42549611],[-76.53582551,3.4254674],[-76.53581027,3.4254339],[-76.53580479,3.42542072],[-76.53579699,3.42541872],[-76.5357337,3.42538297],[-76.53575253,3.42532264],[-76.53563907,3.4252817],[-76.53577252,3.42489051],[-76.5359293,3.42440598],[-76.53596644,3.42428443],[-76.53607977,3.42393796],[-76.53625693,3.42412076],[-76.53653884,3.42398198],[-76.5365855,3.42396284],[-76.53665217,3.42407864],[-76.53676646,3.42416765],[-76.5368217,3.42419636],[-76.53692076,3.42429494],[-76.53698266,3.42433705],[-76.53710076,3.42437151],[-76.53709219,3.42440213],[-76.53716648,3.42442606],[-76.53715696,3.4244519],[-76.53723601,3.42448157],[-76.53708332,3.424957],[-76.53693168,3.42544113],[-76.53684902,3.42570021],[-76.53682099,3.42578915],[-76.53681884,3.42579419]]]]},"geometry_name":"the_geom","properties":{"nombre":"Estadio de Atletismo Panamericano","localizaci":"INT UNIDAD DEP. PANAMERICANA","servicio":"DEPORTE","tipo":"ESCENARIO","propiedad":"PUB","numpisos":1,"servicio_t":"RECREACION_URB","escala":"URBANA","permanenci":"SI","estruc_eco":"NO"}},{"type":"Feature","id":"eqp_uba_deporte.5","geometry":{"type":"MultiPolygon","coordinates":[[[[-76.53605636,3.42172766],[-76.53696455,3.42129128],[-76.5371058,3.42140371],[-76.53756323,3.42176643],[-76.5375655,3.42176847],[-76.53756709,3.42197571],[-76.53742202,3.42209803],[-76.53752149,3.42220946],[-76.53720208,3.42247024],[-76.53700686,3.42263962],[-76.53692981,3.42268598],[-76.53684534,3.42270435],[-76.53675463,3.42269544],[-76.53666695,3.42266088],[-76.53658453,3.42259239],[-76.53641575,3.42239037],[-76.53652432,3.42228844],[-76.53605636,3.42172766]]]]},"geometry_name":"the_geom","properties":{"nombre":"Coliseo de Beisbol","localizaci":"INT UNIDAD DEP. PANAMERICANA","servicio":"DEPORTE","tipo":"ESCENARIO","propiedad":"PUB","numpisos":1,"servicio_t":"RECREACION_URB","escala":"URBANA","permanenci":"SI","estruc_eco":"NO"}},{"type":"Feature","id":"eqp_uba_deporte.6","geometry":{"type":"MultiPolygon","coordinates":[[[[-76.54960935,3.41178087],[-76.55019269,3.41174736],[-76.55023555,3.41177368],[-76.55061176,3.41215172],[-76.55065224,3.41226896],[-76.55074033,3.41227374],[-76.55076417,3.41322605],[-76.5505499,3.4136376],[-76.55044039,3.4136149],[-76.55009281,3.41354285],[-76.54962004,3.41344485],[-76.54943905,3.41340733],[-76.54952831,3.4124951],[-76.54960935,3.41178087]]]]},"geometry_name":"the_geom","properties":{"nombre":"Patinódromo","localizaci":"INT UNIDAD ALBERTO GALINDO","servicio":"DEPORTE","tipo":"ESCENARIO","propiedad":"PUB","numpisos":1,"servicio_t":"RECREACION_URB","escala":"URBANA","permanenci":"SI","estruc_eco":"NO"}},{"type":"Feature","id":"eqp_uba_deporte.7","geometry":{"type":"MultiPolygon","coordinates":[[[[-76.55140005,3.41151714],[-76.55139999,3.4115171],[-76.55140004,3.41151722],[-76.55140005,3.41151714],[-76.55140078,3.41151758],[-76.55140015,3.41151749],[-76.55141662,3.41156514],[-76.55142646,3.41161461],[-76.55142948,3.41166497],[-76.55142563,3.41171526],[-76.55141498,3.41176456],[-76.55139773,3.41181194],[-76.5513742,3.4118565],[-76.55134484,3.41189742],[-76.55131019,3.41193392],[-76.5512709,3.41196532],[-76.55122772,3.41199104],[-76.55118144,3.41201059],[-76.55113294,3.41202361],[-76.55108313,3.41202985],[-76.55103293,3.41202919],[-76.5509833,3.41202165],[-76.55093515,3.41200736],[-76.5508894,3.4119866],[-76.5508469,3.41195976],[-76.55080844,3.41192734],[-76.55077475,3.41188994],[-76.55074646,3.41184826],[-76.5507241,3.4118031],[-76.55054275,3.41146257],[-76.55052985,3.41141484],[-76.55052343,3.4113658],[-76.55052361,3.41131634],[-76.55053038,3.41126735],[-76.55054363,3.41121971],[-76.55056312,3.41117429],[-76.55058849,3.4111319],[-76.55061928,3.41109332],[-76.55065494,3.41105923],[-76.55069483,3.41103025],[-76.55073823,3.41100691],[-76.55078434,3.41098963],[-76.55083235,3.41097872],[-76.55088138,3.41097437],[-76.55093055,3.41097666],[-76.55097896,3.41098556],[-76.55102575,3.4110009],[-76.55107008,3.41102241],[-76.55111113,3.4110497],[-76.55114817,3.41108227],[-76.55118054,3.41111953],[-76.55118051,3.41111941],[-76.55119456,3.41110748],[-76.55140044,3.41145647],[-76.55141798,3.41150084],[-76.55140195,3.41150928],[-76.55140005,3.41151714]]]]},"geometry_name":"the_geom","properties":{"nombre":"Velódromo Alcides Nieto Patiño","localizaci":"INT UNIDAD ALBERTO GALINDO","servicio":"DEPORTE","tipo":"ESCENARIO","propiedad":"PUB","numpisos":4,"servicio_t":"RECREACION_URB","escala":"URBANA","permanenci":"SI","estruc_eco":"NO"}},{"type":"Feature","id":"eqp_uba_deporte.8","geometry":{"type":"MultiPolygon","coordinates":[[[[-76.54966374,3.41412203],[-76.5496697,3.41408614],[-76.54963874,3.41408016],[-76.54963636,3.4140969],[-76.54955184,3.41408494],[-76.54960357,3.41378176],[-76.54962206,3.41367339],[-76.5497054,3.41369134],[-76.54971611,3.41362434],[-76.5497719,3.41363408],[-76.54999707,3.41367338],[-76.54999112,3.41372243],[-76.55007647,3.41373482],[-76.55007803,3.41372243],[-76.5503066,3.4137631],[-76.55029351,3.4138289],[-76.55033875,3.41383488],[-76.55033129,3.41387985],[-76.55030899,3.41401434],[-76.55026256,3.41400716],[-76.55024709,3.41406698],[-76.55008042,3.41403947],[-76.55006137,3.41412441],[-76.54996173,3.41410648],[-76.54989767,3.41409495],[-76.54988518,3.41416509],[-76.54966374,3.41412203]]]]},"geometry_name":"the_geom","properties":{"nombre":"Edificio Bolos","localizaci":"INT UNIDAD ALBERTO GALINDO","servicio":"DEPORTE","tipo":"ESCENARIO","propiedad":"PUB","numpisos":4,"servicio_t":"RECREACION_URB","escala":"URBANA","permanenci":"SI","estruc_eco":"NO"}},{"type":"Feature","id":"eqp_uba_deporte.9","geometry":{"type":"MultiPolygon","coordinates":[[[[-76.54966194,3.41075774],[-76.54985479,3.41062374],[-76.55026432,3.4106668],[-76.55031909,3.410863],[-76.55030373,3.41099303],[-76.5503019,3.41102268],[-76.55027149,3.41151382],[-76.55025959,3.41156886],[-76.5501953,3.41158321],[-76.55017626,3.41164303],[-76.55014292,3.41167175],[-76.54961673,3.41168373],[-76.54966194,3.41075774]]]]},"geometry_name":"the_geom","properties":{"nombre":"Pista de Minicross","localizaci":"INT UNIDAD ALBERTO GALINDO","servicio":"DEPORTE","tipo":"ESCENARIO","propiedad":"PUB","numpisos":1,"servicio_t":"RECREACION_URB","escala":"URBANA","permanenci":"SI","estruc_eco":"NO"}},{"type":"Feature","id":"eqp_uba_deporte.10","geometry":{"type":"MultiPolygon","coordinates":[[[[-76.55149298,3.41272451],[-76.55165012,3.41268861],[-76.55178227,3.4126922],[-76.55191441,3.41272449],[-76.55206085,3.41278191],[-76.55218228,3.41286805],[-76.55227871,3.41297213],[-76.55235372,3.41309416],[-76.5524073,3.41324131],[-76.55241801,3.41336692],[-76.55241088,3.41348536],[-76.55236445,3.4136397],[-76.55229303,3.41376891],[-76.55218231,3.41388376],[-76.55206803,3.41395914],[-76.5519466,3.41401657],[-76.55180731,3.41404528],[-76.55166802,3.41405247],[-76.55155374,3.4140417],[-76.55139302,3.41399505],[-76.5513573,3.41397352],[-76.55121444,3.41389456],[-76.55109658,3.413751],[-76.55100371,3.41361821],[-76.55097871,3.41348541],[-76.55096442,3.4133562],[-76.55099656,3.41319828],[-76.55103584,3.41308343],[-76.55113227,3.41295063],[-76.55122155,3.41284654],[-76.55135726,3.41277476],[-76.55149298,3.41272451]]]]},"geometry_name":"the_geom","properties":{"nombre":"Coliseo y Gimnasio del Pueblo","localizaci":"INT UNIDAD ALBERTO GALINDO","servicio":"DEPORTE","tipo":"ESCENARIO","propiedad":"PUB","numpisos":4,"servicio_t":"RECREACION_URB","escala":"URBANA","permanenci":"SI","estruc_eco":"NO"}},{"type":"Feature","id":"eqp_uba_deporte.11","geometry":{"type":"MultiPolygon","coordinates":[[[[-76.55178439,3.41456438],[-76.55158201,3.41456199],[-76.55157368,3.41459429],[-76.55156653,3.41461583],[-76.55151951,3.41464394],[-76.5514451,3.41467086],[-76.55112236,3.41473787],[-76.54984042,3.41432062],[-76.5498347,3.41424788],[-76.54942898,3.41411773],[-76.54947468,3.41363535],[-76.54959087,3.41364875],[-76.54962004,3.41344485],[-76.55009281,3.41354285],[-76.55044039,3.4136149],[-76.5505499,3.4136376],[-76.55076417,3.41322605],[-76.55074033,3.41227374],[-76.55065224,3.41226896],[-76.55061176,3.41215172],[-76.55023555,3.41177368],[-76.55019269,3.41174736],[-76.54960935,3.41178087],[-76.54961673,3.41168373],[-76.55014292,3.41167175],[-76.55017626,3.41164303],[-76.5501953,3.41158321],[-76.55025959,3.41156886],[-76.55027149,3.41151382],[-76.55030373,3.41099303],[-76.55031909,3.410863],[-76.55079529,3.41086059],[-76.55085719,3.41070506],[-76.55098338,3.41071224],[-76.55106434,3.41078641],[-76.55158101,3.41081271],[-76.55165244,3.4107505],[-76.55178578,3.41075289],[-76.55190483,3.41078638],[-76.55192626,3.41076724],[-76.55203102,3.41080552],[-76.5520334,3.41082466],[-76.55227865,3.41091079],[-76.55229055,3.41093472],[-76.55245484,3.41101607],[-76.55247627,3.41100649],[-76.553012,3.41130796],[-76.55302629,3.41133428],[-76.55314296,3.41139888],[-76.55316201,3.41139409],[-76.55329416,3.41146109],[-76.55339258,3.41158249],[-76.55349893,3.41182324],[-76.55345586,3.41239],[-76.55342871,3.41242086],[-76.55340848,3.41267689],[-76.55343468,3.4127056],[-76.5534204,3.41288984],[-76.55340408,3.41290073],[-76.55340199,3.41292745],[-76.55341921,3.41294487],[-76.55338708,3.41332532],[-76.55335017,3.41335523],[-76.5533466,3.41342342],[-76.55337637,3.41344974],[-76.55332996,3.41408142],[-76.55328593,3.41462457],[-76.55325856,3.41505287],[-76.55323714,3.41535316],[-76.55321572,3.41539952],[-76.55311571,3.41540431],[-76.55240379,3.41515788],[-76.55203949,3.41504783],[-76.55200378,3.4150239],[-76.55189425,3.41490666],[-76.55181567,3.4147631],[-76.55178709,3.41466261],[-76.55178439,3.41456438]],[[-76.54988518,3.41416509],[-76.54989767,3.41409495],[-76.54996173,3.41410648],[-76.55006137,3.41412441],[-76.55008042,3.41403947],[-76.55024709,3.41406698],[-76.55026256,3.41400716],[-76.55030899,3.41401434],[-76.55033129,3.41387985],[-76.55033875,3.41383488],[-76.55029351,3.4138289],[-76.5503066,3.4137631],[-76.55007803,3.41372243],[-76.55007647,3.41373482],[-76.54999112,3.41372243],[-76.54999707,3.41367338],[-76.5497719,3.41363408],[-76.54971611,3.41362434],[-76.5497054,3.41369134],[-76.54962206,3.41367339],[-76.54960357,3.41378176],[-76.54955184,3.41408494],[-76.54963636,3.4140969],[-76.54963874,3.41408016],[-76.5496697,3.41408614],[-76.54966374,3.41412203],[-76.54988518,3.41416509]],[[-76.55100371,3.41361821],[-76.55109658,3.413751],[-76.55121444,3.41389456],[-76.5513573,3.41397352],[-76.55139302,3.41399505],[-76.55155374,3.4140417],[-76.55166802,3.41405247],[-76.55180731,3.41404528],[-76.5519466,3.41401657],[-76.55206803,3.41395914],[-76.55218231,3.41388376],[-76.55229303,3.41376891],[-76.55236445,3.4136397],[-76.55241088,3.41348536],[-76.55241801,3.41336692],[-76.5524073,3.41324131],[-76.55235372,3.41309416],[-76.55227871,3.41297213],[-76.55218228,3.41286805],[-76.55206085,3.41278191],[-76.55191441,3.41272449],[-76.55178227,3.4126922],[-76.55165012,3.41268861],[-76.55149298,3.41272451],[-76.55135726,3.41277476],[-76.55122155,3.41284654],[-76.55113227,3.41295063],[-76.55103584,3.41308343],[-76.55099656,3.41319828],[-76.55096442,3.4133562],[-76.55097871,3.41348541],[-76.55100371,3.41361821]]],[[[-76.55140005,3.41151714],[-76.55140004,3.41151722],[-76.55139999,3.4115171],[-76.55140005,3.41151714]],[[-76.55140005,3.41151714],[-76.55140195,3.41150928],[-76.55141798,3.41150084],[-76.55140044,3.41145647],[-76.55119456,3.41110748],[-76.55118051,3.41111941],[-76.55118054,3.41111953],[-76.55114817,3.41108227],[-76.55111113,3.4110497],[-76.55107008,3.41102241],[-76.55102575,3.4110009],[-76.55097896,3.41098556],[-76.55093055,3.41097666],[-76.55088138,3.41097437],[-76.55083235,3.41097872],[-76.55078434,3.41098963],[-76.55073823,3.41100691],[-76.55069483,3.41103025],[-76.55065494,3.41105923],[-76.55061928,3.41109332],[-76.55058849,3.4111319],[-76.55056312,3.41117429],[-76.55054363,3.41121971],[-76.55053038,3.41126735],[-76.55052361,3.41131634],[-76.55052343,3.4113658],[-76.55052985,3.41141484],[-76.55054275,3.41146257],[-76.5507241,3.4118031],[-76.55074646,3.41184826],[-76.55077475,3.41188994],[-76.55080844,3.41192734],[-76.5508469,3.41195976],[-76.5508894,3.4119866],[-76.55093515,3.41200736],[-76.5509833,3.41202165],[-76.55103293,3.41202919],[-76.55108313,3.41202985],[-76.55113294,3.41202361],[-76.55118144,3.41201059],[-76.55122772,3.41199104],[-76.5512709,3.41196532],[-76.55131019,3.41193392],[-76.55134484,3.41189742],[-76.5513742,3.4118565],[-76.55139773,3.41181194],[-76.55141498,3.41176456],[-76.55142563,3.41171526],[-76.55142948,3.41166497],[-76.55142646,3.41161461],[-76.55141662,3.41156514],[-76.55140015,3.41151749],[-76.55140078,3.41151758],[-76.55140005,3.41151714]]]]},"geometry_name":"the_geom","properties":{"nombre":"UNIDAD DEPORTIVA ALBERTO GALINDO","localizaci":"CL 3 KR 52","servicio":"DEPORTE","tipo":"UDEPOR","propiedad":"PUB","numpisos":1,"servicio_t":"RECREACION_URB","escala":"REGIONAL","permanenci":"SI","estruc_eco":"NO"}},{"type":"Feature","id":"eqp_uba_deporte.12","geometry":{"type":"MultiPolygon","coordinates":[[[[-76.5201414,3.40571796],[-76.52014328,3.40566494],[-76.52030704,3.40567387],[-76.52033085,3.40514149],[-76.52158052,3.40511413],[-76.52157575,3.40516824],[-76.52155762,3.40530651],[-76.52153364,3.40544388],[-76.52150385,3.40558009],[-76.52149811,3.40560353],[-76.5214245,3.40583119],[-76.5213672,3.40596559],[-76.52130451,3.40609753],[-76.52128427,3.40613601],[-76.52123653,3.40622681],[-76.52116336,3.40635321],[-76.52115329,3.40636972],[-76.52101412,3.40655369],[-76.52075671,3.40685598],[-76.52014623,3.4062125],[-76.52014548,3.40613593],[-76.5201414,3.40571796]]]]},"geometry_name":"the_geom","properties":{"nombre":"UNIDA DEPORTIVA MARIANO RAMOS","localizaci":"CL 25 KR 50","servicio":"DEPORTE","tipo":"UDEPOR","propiedad":"PUB","numpisos":1,"servicio_t":"RECREACION","escala":"URBANA","permanenci":"SI","estruc_eco":"NO"}},{"type":"Feature","id":"eqp_uba_deporte.13","geometry":{"type":"MultiPolygon","coordinates":[[[[-76.53947859,3.42832107],[-76.54004809,3.42788942],[-76.54025304,3.42816936],[-76.54046328,3.42800839],[-76.54071156,3.42834668],[-76.53978777,3.42904559],[-76.53956657,3.42874564],[-76.53937186,3.42848204],[-76.53946086,3.42841405],[-76.53945247,3.42839589],[-76.53944972,3.42837607],[-76.53945285,3.4283563],[-76.53946158,3.4283383],[-76.53947516,3.42832365],[-76.53947859,3.42832107]]]]},"geometry_name":"the_geom","properties":{"nombre":"Coliseo Evangelista Mora","localizaci":"KR34 DG 32 ESQUINA","servicio":"DEPORTE","tipo":"ESCENARIO","propiedad":"PUB","numpisos":3,"servicio_t":"RECREACION_URB","escala":"URBANA","permanenci":"SI","estruc_eco":"NO"}},{"type":"Feature","id":"eqp_uba_deporte.14","geometry":{"type":"MultiPolygon","coordinates":[[[[-76.54183766,3.43037781],[-76.542045,3.430203],[-76.54218906,3.43040357],[-76.542379,3.43066701],[-76.54238524,3.43069126],[-76.54238695,3.43071995],[-76.54238277,3.43074837],[-76.54237287,3.43077533],[-76.54206889,3.43100804],[-76.54179749,3.43120849],[-76.54153204,3.43139854],[-76.54151706,3.4314092],[-76.54149842,3.43141554],[-76.54147876,3.43141606],[-76.54145981,3.43141072],[-76.54144329,3.4314],[-76.54107314,3.43090101],[-76.54107083,3.43089969],[-76.54106299,3.43088836],[-76.54117813,3.43080373],[-76.54124956,3.43080373],[-76.54132575,3.43078938],[-76.54139956,3.43077023],[-76.54146623,3.43074152],[-76.54152099,3.43071759],[-76.54158766,3.4306817],[-76.5416329,3.43063863],[-76.54168052,3.43059556],[-76.54172576,3.43054292],[-76.54176624,3.43049267],[-76.54180433,3.43043524],[-76.54183766,3.43037781]]]]},"geometry_name":"the_geom","properties":{"nombre":"Piscinas Alberto Galindo","localizaci":null,"servicio":"DEPORTE","tipo":"ESCENARIO","propiedad":"PUB","numpisos":1,"servicio_t":"RECREACION_URB","escala":"URBANA","permanenci":"SI","estruc_eco":"NO"}},{"type":"Feature","id":"eqp_uba_deporte.15","geometry":{"type":"MultiPolygon","coordinates":[[[[-76.53978777,3.42904559],[-76.54071156,3.42834668],[-76.54072177,3.42836059],[-76.542045,3.430203],[-76.54183766,3.43037781],[-76.54180433,3.43043524],[-76.54176624,3.43049267],[-76.54172576,3.43054292],[-76.54168052,3.43059556],[-76.5416329,3.43063863],[-76.54158766,3.4306817],[-76.54152099,3.43071759],[-76.54146623,3.43074152],[-76.54139956,3.43077023],[-76.54132575,3.43078938],[-76.54124956,3.43080373],[-76.54117813,3.43080373],[-76.54106299,3.43088836],[-76.53979469,3.42905498],[-76.53978777,3.42904559]]]]},"geometry_name":"the_geom","properties":{"nombre":"Estadio Olimpico Pascual Guerrero","localizaci":"KR 34 Y 36","servicio":"DEPORTE","tipo":"ESCENARIO","propiedad":"PUB","numpisos":1,"servicio_t":"RECREACION_URB","escala":"REGIONAL","permanenci":"SI","estruc_eco":"NO"}}],"totalFeatures":15,"numberMatched":15,"numberReturned":15,"timeStamp":"2026-09-25T18:59:46.022Z","crs":{"type":"name","properties":{"name":"urn:ogc:def:crs:EPSG::4326"}}}