{"type":"FeatureCollection","features":[{"type":"Feature","id":"pfp_ivc_organismos_accion_comunal.fid--215d4958_1a0d9e21907_3e2d","geometry":{"type":"Point","coordinates":[-76.56718513,3.4530067]},"geometry_name":"the_geom","properties":{"gid":171,"oacid":1,"oacnombre":"Terrón Colorado I","oacidcomuna":1,"oaccomuna":"Comuna 01","oacidbarrio":"0101","oacbarrio":"Terron Colorado","oacdirecc":"AV 5 OESTE # 24 OESTE - 00"}},{"type":"Feature","id":"pfp_ivc_organismos_accion_comunal.fid--215d4958_1a0d9e21907_3e2e","geometry":{"type":"Point","coordinates":[-76.55436708,3.45379582]},"geometry_name":"the_geom","properties":{"gid":1,"oacid":4,"oacnombre":"Terrón Colorado II Etapa","oacidcomuna":1,"oaccomuna":"Comuna 01","oacidbarrio":"0101","oacbarrio":"Terron Colorado","oacdirecc":"AV 4A OESTE # 13 - 4 17"}},{"type":"Feature","id":"pfp_ivc_organismos_accion_comunal.fid--215d4958_1a0d9e21907_3e2f","geometry":{"type":"Point","coordinates":[-76.58722961,3.46226593]},"geometry_name":"the_geom","properties":{"gid":3,"oacid":10,"oacnombre":"Barrio Vista Hermosa Sector Las Palmas I","oacidcomuna":1,"oaccomuna":"Comuna 01","oacidbarrio":"0102","oacbarrio":"Vista Hermosa","oacdirecc":"AV 5 OESTE # 44 - 69"}},{"type":"Feature","id":"pfp_ivc_organismos_accion_comunal.fid--215d4958_1a0d9e21907_3e30","geometry":{"type":"Point","coordinates":[-76.57619243,3.45399022]},"geometry_name":"the_geom","properties":{"gid":2,"oacid":7,"oacnombre":"Barrio Vista Hermosa Sector La Legua","oacidcomuna":1,"oaccomuna":"Comuna 01","oacidbarrio":"0102","oacbarrio":"Vista Hermosa","oacdirecc":"AV 5 OESTE 30 - 06"}},{"type":"Feature","id":"pfp_ivc_organismos_accion_comunal.fid--215d4958_1a0d9e21907_3e31","geometry":{"type":"Point","coordinates":[-76.56127449,3.45595269]},"geometry_name":"the_geom","properties":{"gid":4,"oacid":17,"oacnombre":"Terrón Colorado Sector Aguacatal Parte Alta","oacidcomuna":1,"oaccomuna":"Comuna 01","oacidbarrio":"0199","oacbarrio":"Aguacatal","oacdirecc":"AV 9 OESTE # 19C - 26"}},{"type":"Feature","id":"pfp_ivc_organismos_accion_comunal.fid--215d4958_1a0d9e21907_3e32","geometry":{"type":"Point","coordinates":[-76.52848089,3.48189162]},"geometry_name":"the_geom","properties":{"gid":8,"oacid":38,"oacnombre":"La Campiña","oacidcomuna":2,"oaccomuna":"Comuna 02","oacidbarrio":"0213","oacbarrio":"La Campiña","oacdirecc":"AV 7 # 42 NORTE - 07"}},{"type":"Feature","id":"pfp_ivc_organismos_accion_comunal.fid--215d4958_1a0d9e21907_3e33","geometry":{"type":"Point","coordinates":[-76.52923284,3.48645349]},"geometry_name":"the_geom","properties":{"gid":5,"oacid":25,"oacnombre":"Barrio El Bosque","oacidcomuna":2,"oaccomuna":"Comuna 02","oacidbarrio":"0215","oacbarrio":"El Bosque","oacdirecc":"AV 7 # 51 NORTE - 08"}},{"type":"Feature","id":"pfp_ivc_organismos_accion_comunal.fid--215d4958_1a0d9e21907_3e34","geometry":{"type":"Point","coordinates":[-76.48268759,3.47285956]},"geometry_name":"the_geom","properties":{"gid":7,"oacid":35,"oacnombre":"Brisas de Los Álamos","oacidcomuna":2,"oaccomuna":"Comuna 02","oacidbarrio":"0219","oacbarrio":"Brisas de Los Alamos","oacdirecc":"CL 73 BIS # 2B - 200 Polideportivo"}},{"type":"Feature","id":"pfp_ivc_organismos_accion_comunal.fid--215d4958_1a0d9e21907_3e35","geometry":{"type":"Point","coordinates":[-76.5193682,3.47881818]},"geometry_name":"the_geom","properties":{"gid":6,"oacid":26,"oacnombre":"Urbanización La Merced -Vipasa Sector La Merced","oacidcomuna":2,"oaccomuna":"Comuna 02","oacidbarrio":"0294","oacbarrio":"Vipasa","oacdirecc":"AV 3D # 43 - 00"}},{"type":"Feature","id":"pfp_ivc_organismos_accion_comunal.fid--215d4958_1a0d9e21907_3e36","geometry":{"type":"Point","coordinates":[-76.54613793,3.44343634]},"geometry_name":"the_geom","properties":{"gid":11,"oacid":46,"oacnombre":"Barrio Nacional","oacidcomuna":3,"oaccomuna":"Comuna 03","oacidbarrio":"0301","oacbarrio":"El Nacional","oacdirecc":"KR 18 OESTE # 7 - 50"}},{"type":"Feature","id":"pfp_ivc_organismos_accion_comunal.fid--215d4958_1a0d9e21907_3e37","geometry":{"type":"Point","coordinates":[-76.53962214,3.44492734]},"geometry_name":"the_geom","properties":{"gid":12,"oacid":47,"oacnombre":"Barrio San Cayetano","oacidcomuna":3,"oaccomuna":"Comuna 03","oacidbarrio":"0304","oacbarrio":"San Cayetano","oacdirecc":"CL 2A # 12A - 50 apto 101 Edificio Aristizabal"}},{"type":"Feature","id":"pfp_ivc_organismos_accion_comunal.fid--215d4958_1a0d9e21907_3e38","geometry":{"type":"Point","coordinates":[-76.53967483,3.44218788]},"geometry_name":"the_geom","properties":{"gid":10,"oacid":45,"oacnombre":"Barrio Libertadores","oacidcomuna":3,"oaccomuna":"Comuna 03","oacidbarrio":"0305","oacbarrio":"Los Libertadores","oacdirecc":"CL 2B # 18 - 00"}},{"type":"Feature","id":"pfp_ivc_organismos_accion_comunal.fid--215d4958_1a0d9e21907_3e39","geometry":{"type":"Point","coordinates":[-76.52438024,3.46083384]},"geometry_name":"the_geom","properties":{"gid":9,"oacid":44,"oacnombre":"El Piloto","oacidcomuna":3,"oaccomuna":"Comuna 03","oacidbarrio":"0314","oacbarrio":"El Piloto","oacdirecc":"KR 4 NORTE # 23A - 08"}},{"type":"Feature","id":"pfp_ivc_organismos_accion_comunal.fid--215d4958_1a0d9e21907_3e3a","geometry":{"type":"Point","coordinates":[-76.51852386,3.45978984]},"geometry_name":"the_geom","properties":{"gid":26,"oacid":76,"oacnombre":"Barrio Jorge Isaac","oacidcomuna":4,"oaccomuna":"Comuna 04","oacidbarrio":"0401","oacbarrio":"Jorge Isaacs","oacdirecc":"CL 28 # 2C - 00"}},{"type":"Feature","id":"pfp_ivc_organismos_accion_comunal.fid--215d4958_1a0d9e21907_3e3b","geometry":{"type":"Point","coordinates":[-76.51570182,3.46220921]},"geometry_name":"the_geom","properties":{"gid":18,"oacid":64,"oacnombre":"Barrio General Santander","oacidcomuna":4,"oaccomuna":"Comuna 04","oacidbarrio":"0402","oacbarrio":"Santander","oacdirecc":"CL 32 # 2 - 03"}},{"type":"Feature","id":"pfp_ivc_organismos_accion_comunal.fid--215d4958_1a0d9e21907_3e3c","geometry":{"type":"Point","coordinates":[-76.51591603,3.45897515]},"geometry_name":"the_geom","properties":{"gid":22,"oacid":72,"oacnombre":"Barrio El Porvenir","oacidcomuna":4,"oaccomuna":"Comuna 04","oacidbarrio":"0403","oacbarrio":"Porvenir","oacdirecc":"KR 4B # 31 - 46"}},{"type":"Feature","id":"pfp_ivc_organismos_accion_comunal.fid--215d4958_1a0d9e21907_3e3d","geometry":{"type":"Point","coordinates":[-76.51028787,3.4614656]},"geometry_name":"the_geom","properties":{"gid":20,"oacid":70,"oacnombre":"Las Delicias","oacidcomuna":4,"oaccomuna":"Comuna 04","oacidbarrio":"0404","oacbarrio":"Las Delicias","oacdirecc":"CL 39 # 4 - 56"}},{"type":"Feature","id":"pfp_ivc_organismos_accion_comunal.fid--215d4958_1a0d9e21907_3e3e","geometry":{"type":"Point","coordinates":[-76.50529409,3.46494023]},"geometry_name":"the_geom","properties":{"gid":24,"oacid":74,"oacnombre":"Barrio Salomia","oacidcomuna":4,"oaccomuna":"Comuna 04","oacidbarrio":"0406","oacbarrio":"Salomia","oacdirecc":"CL 46 # 2C - 04"}},{"type":"Feature","id":"pfp_ivc_organismos_accion_comunal.fid--215d4958_1a0d9e21907_3e3f","geometry":{"type":"Point","coordinates":[-76.52150351,3.46874946]},"geometry_name":"the_geom","properties":{"gid":13,"oacid":58,"oacnombre":"Barrio Berlín","oacidcomuna":4,"oaccomuna":"Comuna 04","oacidbarrio":"0408","oacbarrio":"Sultana - Berlín - San Francisco","oacdirecc":"CL 32 NORTE # 3A - 05"}},{"type":"Feature","id":"pfp_ivc_organismos_accion_comunal.fid--215d4958_1a0d9e21907_3e40","geometry":{"type":"Point","coordinates":[-76.51135858,3.46983248]},"geometry_name":"the_geom","properties":{"gid":25,"oacid":75,"oacnombre":"Barrio José Antonio Galán","oacidcomuna":4,"oaccomuna":"Comuna 04","oacidbarrio":"0410","oacbarrio":"Popular","oacdirecc":"KR 2 # 42A NORTE - 31"}},{"type":"Feature","id":"pfp_ivc_organismos_accion_comunal.fid--215d4958_1a0d9e21907_3e41","geometry":{"type":"Point","coordinates":[-76.50508172,3.46697948]},"geometry_name":"the_geom","properties":{"gid":21,"oacid":71,"oacnombre":"Marco Fidel Suarez","oacidcomuna":4,"oaccomuna":"Comuna 04","oacidbarrio":"0414","oacbarrio":"Marco Fidel Suárez","oacdirecc":"CL 46B # 2 - 28"}},{"type":"Feature","id":"pfp_ivc_organismos_accion_comunal.fid--215d4958_1a0d9e21907_3e42","geometry":{"type":"Point","coordinates":[-76.50710968,3.47585399]},"geometry_name":"the_geom","properties":{"gid":17,"oacid":63,"oacnombre":"Barrio Evaristo García","oacidcomuna":4,"oaccomuna":"Comuna 04","oacidbarrio":"0415","oacbarrio":"Evaristo Garcia","oacdirecc":"KR 4 NORTE # 50N - 07"}},{"type":"Feature","id":"pfp_ivc_organismos_accion_comunal.fid--215d4958_1a0d9e21907_3e43","geometry":{"type":"Point","coordinates":[-76.50828667,3.45910711]},"geometry_name":"the_geom","properties":{"gid":19,"oacid":68,"oacnombre":"Barrio La Esmeralda","oacidcomuna":4,"oaccomuna":"Comuna 04","oacidbarrio":"0416","oacbarrio":"La Esmeralda","oacdirecc":"KR 6B # 41 - 40"}},{"type":"Feature","id":"pfp_ivc_organismos_accion_comunal.fid--215d4958_1a0d9e21907_3e44","geometry":{"type":"Point","coordinates":[-76.52200307,3.47119544]},"geometry_name":"the_geom","properties":{"gid":14,"oacid":60,"oacnombre":"Barrio Bolivariano","oacidcomuna":4,"oaccomuna":"Comuna 04","oacidbarrio":"0417","oacbarrio":"Bolivariano","oacdirecc":"CL 34 NORTE # 3 - 01"}},{"type":"Feature","id":"pfp_ivc_organismos_accion_comunal.fid--215d4958_1a0d9e21907_3e45","geometry":{"type":"Point","coordinates":[-76.51060644,3.4772466]},"geometry_name":"the_geom","properties":{"gid":23,"oacid":73,"oacnombre":"Barrio Olaya Herrera","oacidcomuna":4,"oaccomuna":"Comuna 04","oacidbarrio":"0418","oacbarrio":"Olaya Herrera","oacdirecc":"KR 8N # 47 - 25"}},{"type":"Feature","id":"pfp_ivc_organismos_accion_comunal.fid--215d4958_1a0d9e21907_3e46","geometry":{"type":"Point","coordinates":[-76.52200307,3.47119544]},"geometry_name":"the_geom","properties":{"gid":15,"oacid":61,"oacnombre":"Unidad Residencial Bueno Madrid","oacidcomuna":4,"oaccomuna":"Comuna 04","oacidbarrio":"0419","oacbarrio":"Unidad Residencial Bueno Madrid","oacdirecc":"CL 34 NORTE # 3 - 01"}},{"type":"Feature","id":"pfp_ivc_organismos_accion_comunal.fid--215d4958_1a0d9e21907_3e47","geometry":{"type":"Point","coordinates":[-76.50197289,3.48511397]},"geometry_name":"the_geom","properties":{"gid":16,"oacid":62,"oacnombre":"Barrio Calima","oacidcomuna":4,"oaccomuna":"Comuna 04","oacidbarrio":"0421","oacbarrio":"Calima","oacdirecc":"KR 6 NORTE # 65 - 69"}},{"type":"Feature","id":"pfp_ivc_organismos_accion_comunal.fid--215d4958_1a0d9e21907_3e48","geometry":{"type":"Point","coordinates":[-76.4988628,3.46979424]},"geometry_name":"the_geom","properties":{"gid":29,"oacid":81,"oacnombre":"Barrio El Sena","oacidcomuna":5,"oaccomuna":"Comuna 05","oacidbarrio":"0501","oacbarrio":"El Sena","oacdirecc":"CL 56 # 1E - 128"}},{"type":"Feature","id":"pfp_ivc_organismos_accion_comunal.fid--215d4958_1a0d9e21907_3e49","geometry":{"type":"Point","coordinates":[-76.49087607,3.47440143]},"geometry_name":"the_geom","properties":{"gid":30,"oacid":82,"oacnombre":"Barrio Los Andes","oacidcomuna":5,"oaccomuna":"Comuna 05","oacidbarrio":"0502","oacbarrio":"Los Andes","oacdirecc":"CL 64A # 1E - 15"}},{"type":"Feature","id":"pfp_ivc_organismos_accion_comunal.fid--215d4958_1a0d9e21907_3e4a","geometry":{"type":"Point","coordinates":[-76.49051456,3.48017586]},"geometry_name":"the_geom","properties":{"gid":33,"oacid":94,"oacnombre":"Barrio Los Guayacanes","oacidcomuna":5,"oaccomuna":"Comuna 05","oacidbarrio":"0503","oacbarrio":"Los Guayacanes","oacdirecc":"KR 1A12 # 69 - 20"}},{"type":"Feature","id":"pfp_ivc_organismos_accion_comunal.fid--215d4958_1a0d9e21907_3e4b","geometry":{"type":"Point","coordinates":[-76.49282022,3.47942805]},"geometry_name":"the_geom","properties":{"gid":28,"oacid":79,"oacnombre":"Barrio Chiminangos II Etapa","oacidcomuna":5,"oaccomuna":"Comuna 05","oacidbarrio":"0504","oacbarrio":"Chiminangos II","oacdirecc":"CL 62B # 1A9 - 250 Sector 6 Antiguo Centro de Salud"}},{"type":"Feature","id":"pfp_ivc_organismos_accion_comunal.fid--215d4958_1a0d9e21907_3e4c","geometry":{"type":"Point","coordinates":[-76.49579795,3.46961683]},"geometry_name":"the_geom","properties":{"gid":32,"oacid":86,"oacnombre":"Urbanización Chiminangos","oacidcomuna":5,"oaccomuna":"Comuna 05","oacidbarrio":"0505","oacbarrio":"Chiminangos I","oacdirecc":"CL 59 # 2 - 145"}},{"type":"Feature","id":"pfp_ivc_organismos_accion_comunal.fid--215d4958_1a0d9e21907_3e4d","geometry":{"type":"Point","coordinates":[-76.49357751,3.4649889]},"geometry_name":"the_geom","properties":{"gid":31,"oacid":83,"oacnombre":"Barrio Metropolitano Del Norte","oacidcomuna":5,"oaccomuna":"Comuna 05","oacidbarrio":"0506","oacbarrio":"Metropolitano del Norte","oacdirecc":"KR 5 # 59 - 83"}},{"type":"Feature","id":"pfp_ivc_organismos_accion_comunal.fid--215d4958_1a0d9e21907_3e4e","geometry":{"type":"Point","coordinates":[-76.4961167,3.47586872]},"geometry_name":"the_geom","properties":{"gid":27,"oacid":78,"oacnombre":"Barrio Torres de Comfandi","oacidcomuna":5,"oaccomuna":"Comuna 05","oacidbarrio":"0598","oacbarrio":"Torres de Comfandi","oacdirecc":"KR 1B3 # 61 - 32"}},{"type":"Feature","id":"pfp_ivc_organismos_accion_comunal.fid--215d4958_1a0d9e21907_3e4f","geometry":{"type":"Point","coordinates":[-76.49069016,3.47712297]},"geometry_name":"the_geom","properties":{"gid":34,"oacid":96,"oacnombre":"Urbanización Brisas Del Guabito","oacidcomuna":5,"oaccomuna":"Comuna 05","oacidbarrio":"0599","oacbarrio":"Villa del Prado - El Guabito","oacdirecc":"KR 1C BIS # 64A - 41"}},{"type":"Feature","id":"pfp_ivc_organismos_accion_comunal.fid--215d4958_1a0d9e21907_3e50","geometry":{"type":"Point","coordinates":[-76.48645753,3.47775102]},"geometry_name":"the_geom","properties":{"gid":38,"oacid":100,"oacnombre":"Barrio San Luis I","oacidcomuna":6,"oaccomuna":"Comuna 06","oacidbarrio":"0601","oacbarrio":"San Luis","oacdirecc":"KR 1C1 # 71 - 26"}},{"type":"Feature","id":"pfp_ivc_organismos_accion_comunal.fid--215d4958_1a0d9e21907_3e51","geometry":{"type":"Point","coordinates":[-76.48245247,3.46798265]},"geometry_name":"the_geom","properties":{"gid":182,"oacid":107,"oacnombre":"Barrio Jorge Eliécer Gaitán, Sector Solares de Comfandi I Etapa","oacidcomuna":6,"oaccomuna":"Comuna 06","oacidbarrio":"0602","oacbarrio":"Jorge Eliécer Gaitán","oacdirecc":"KR 5A # 71D - 45"}},{"type":"Feature","id":"pfp_ivc_organismos_accion_comunal.fid--215d4958_1a0d9e21907_3e52","geometry":{"type":"Point","coordinates":[-76.48316847,3.4708865]},"geometry_name":"the_geom","properties":{"gid":55,"oacid":122,"oacnombre":"Urbanización Oasis de Comfandi","oacidcomuna":6,"oaccomuna":"Comuna 06","oacidbarrio":"0602","oacbarrio":"Jorge Eliécer Gaitán","oacdirecc":"CL 71E # 3C 20"}},{"type":"Feature","id":"pfp_ivc_organismos_accion_comunal.fid--215d4958_1a0d9e21907_3e53","geometry":{"type":"Point","coordinates":[-76.48267543,3.46652518]},"geometry_name":"the_geom","properties":{"gid":50,"oacid":116,"oacnombre":"Urbanización Tejares de Salomia","oacidcomuna":6,"oaccomuna":"Comuna 06","oacidbarrio":"0602","oacbarrio":"Jorge Eliécer Gaitán","oacdirecc":"KR 6B # 71 - 104"}},{"type":"Feature","id":"pfp_ivc_organismos_accion_comunal.fid--215d4958_1a0d9e21907_3e54","geometry":{"type":"Point","coordinates":[-76.48411302,3.47367877]},"geometry_name":"the_geom","properties":{"gid":49,"oacid":115,"oacnombre":"Barrio Jorge Eliecer Gaitán","oacidcomuna":6,"oaccomuna":"Comuna 06","oacidbarrio":"0602","oacbarrio":"Jorge Eliécer Gaitán","oacdirecc":"KR 2 # 72 - 02"}},{"type":"Feature","id":"pfp_ivc_organismos_accion_comunal.fid--215d4958_1a0d9e21907_3e55","geometry":{"type":"Point","coordinates":[-76.49295031,3.50302973]},"geometry_name":"the_geom","properties":{"gid":54,"oacid":120,"oacnombre":"Urbanización Paso Del Comercio Sector Comfenalco","oacidcomuna":6,"oaccomuna":"Comuna 06","oacidbarrio":"0603","oacbarrio":"Paso del Comercio","oacdirecc":"KR 15 NORTE # 81 - 26"}},{"type":"Feature","id":"pfp_ivc_organismos_accion_comunal.fid--215d4958_1a0d9e21907_3e56","geometry":{"type":"Point","coordinates":[-76.48897222,3.49524242]},"geometry_name":"the_geom","properties":{"gid":53,"oacid":119,"oacnombre":"Barrio Paso Del Comercio","oacidcomuna":6,"oaccomuna":"Comuna 06","oacidbarrio":"0603","oacbarrio":"Paso del Comercio","oacdirecc":"KR 2 BIS NORTE # 78 - 102"}},{"type":"Feature","id":"pfp_ivc_organismos_accion_comunal.fid--215d4958_1a0d9e21907_3e57","geometry":{"type":"Point","coordinates":[-76.49287829,3.48965394]},"geometry_name":"the_geom","properties":{"gid":46,"oacid":112,"oacnombre":"Barrio Los Alcázares III","oacidcomuna":6,"oaccomuna":"Comuna 06","oacidbarrio":"0604","oacbarrio":"Los Alcazares Primera Etapa","oacdirecc":"KR 1A # 70 - 89 BLOQUE 306 APTO 201"}},{"type":"Feature","id":"pfp_ivc_organismos_accion_comunal.fid--215d4958_1a0d9e21907_3e58","geometry":{"type":"Point","coordinates":[-76.49144862,3.48879331]},"geometry_name":"the_geom","properties":{"gid":45,"oacid":110,"oacnombre":"Barrio Los Alcázares","oacidcomuna":6,"oaccomuna":"Comuna 06","oacidbarrio":"0604","oacbarrio":"Los Alcazares Primera Etapa","oacdirecc":"KR 1A 1A # 70D - 26 BLOQUE 190 APTO 102"}},{"type":"Feature","id":"pfp_ivc_organismos_accion_comunal.fid--215d4958_1a0d9e21907_3e59","geometry":{"type":"Point","coordinates":[-76.48104279,3.47955139]},"geometry_name":"the_geom","properties":{"gid":36,"oacid":98,"oacnombre":"Petecuy II","oacidcomuna":6,"oaccomuna":"Comuna 06","oacidbarrio":"0605","oacbarrio":"Petecuy Primera Etapa","oacdirecc":"KR 1C2 # 78 - 16"}},{"type":"Feature","id":"pfp_ivc_organismos_accion_comunal.fid--215d4958_1a0d9e21907_3e5a","geometry":{"type":"Point","coordinates":[-76.48160781,3.47431238]},"geometry_name":"the_geom","properties":{"gid":35,"oacid":97,"oacnombre":"Barrio Petecuy 1a Etapa","oacidcomuna":6,"oaccomuna":"Comuna 06","oacidbarrio":"0605","oacbarrio":"Petecuy Primera Etapa","oacdirecc":"KR 2 BIS # 73 A - 25"}},{"type":"Feature","id":"pfp_ivc_organismos_accion_comunal.fid--215d4958_1a0d9e21907_3e5b","geometry":{"type":"Point","coordinates":[-76.48581781,3.47630173]},"geometry_name":"the_geom","properties":{"gid":48,"oacid":114,"oacnombre":"Urbanización Rivera I Etapa","oacidcomuna":6,"oaccomuna":"Comuna 06","oacidbarrio":"0607","oacbarrio":"La Rivera I","oacdirecc":"CL 71 A # 1E - 27"}},{"type":"Feature","id":"pfp_ivc_organismos_accion_comunal.fid--215d4958_1a0d9e21907_3e5c","geometry":{"type":"Point","coordinates":[-76.49960267,3.49106109]},"geometry_name":"the_geom","properties":{"gid":52,"oacid":118,"oacnombre":"Urbanización Los Guaduales","oacidcomuna":6,"oaccomuna":"Comuna 06","oacidbarrio":"0608","oacbarrio":"Los Guaduales","oacdirecc":"CL 71G # 8 NORTE - 14"}},{"type":"Feature","id":"pfp_ivc_organismos_accion_comunal.fid--215d4958_1a0d9e21907_3e5d","geometry":{"type":"Point","coordinates":[-76.55386788,3.38713913]},"geometry_name":"the_geom","properties":{"gid":37,"oacid":99,"oacnombre":"Barrio Petecuy III","oacidcomuna":6,"oaccomuna":"Comuna 06","oacidbarrio":"0609","oacbarrio":"Petecuy Tercera Etapa","oacdirecc":"CL 1F # 77 - 16"}},{"type":"Feature","id":"pfp_ivc_organismos_accion_comunal.fid--215d4958_1a0d9e21907_3e5e","geometry":{"type":"Point","coordinates":[-76.49376977,3.49015448]},"geometry_name":"the_geom","properties":{"gid":42,"oacid":105,"oacnombre":"Urbanización Floralia III Etapa","oacidcomuna":6,"oaccomuna":"Comuna 06","oacidbarrio":"0610","oacbarrio":"Ciudadela Floralia","oacdirecc":"CL 72 - 1 # 3 NORTE - 78"}},{"type":"Feature","id":"pfp_ivc_organismos_accion_comunal.fid--215d4958_1a0d9e21907_3e5f","geometry":{"type":"Point","coordinates":[-76.49636773,3.49418256]},"geometry_name":"the_geom","properties":{"gid":41,"oacid":104,"oacnombre":"Ciudadela Floralia II Etapa","oacidcomuna":6,"oaccomuna":"Comuna 06","oacidbarrio":"0610","oacbarrio":"Ciudadela Floralia","oacdirecc":"CL 72D # 5 NORTE - 30"}},{"type":"Feature","id":"pfp_ivc_organismos_accion_comunal.fid--215d4958_1a0d9e21907_3e60","geometry":{"type":"Point","coordinates":[-76.4960487,3.49447783]},"geometry_name":"the_geom","properties":{"gid":40,"oacid":103,"oacnombre":"Urbanización Floralia I Etapa Sector II","oacidcomuna":6,"oaccomuna":"Comuna 06","oacidbarrio":"0610","oacbarrio":"Ciudadela Floralia","oacdirecc":"CL 72G # 5A NORTE - 01"}},{"type":"Feature","id":"pfp_ivc_organismos_accion_comunal.fid--215d4958_1a0d9e21907_3e61","geometry":{"type":"Point","coordinates":[-76.48808814,3.4842324]},"geometry_name":"the_geom","properties":{"gid":47,"oacid":113,"oacnombre":"Urbanización Fonaviemcali","oacidcomuna":6,"oaccomuna":"Comuna 06","oacidbarrio":"0695","oacbarrio":"Fonaviemcali","oacdirecc":"CL 71 # 1A 5B - 23"}},{"type":"Feature","id":"pfp_ivc_organismos_accion_comunal.fid--215d4958_1a0d9e21907_3e62","geometry":{"type":"Point","coordinates":[-76.48848963,3.48675582]},"geometry_name":"the_geom","properties":{"gid":39,"oacid":101,"oacnombre":"Barrio Etapa San Luis II","oacidcomuna":6,"oaccomuna":"Comuna 06","oacidbarrio":"0696","oacbarrio":"San Luis II","oacdirecc":"CL 72 # 1A 4B - 32"}},{"type":"Feature","id":"pfp_ivc_organismos_accion_comunal.fid--215d4958_1a0d9e21907_3e63","geometry":{"type":"Point","coordinates":[-76.4852027,3.48752707]},"geometry_name":"the_geom","properties":{"gid":51,"oacid":117,"oacnombre":"Urbanización Calimio","oacidcomuna":6,"oaccomuna":"Comuna 06","oacidbarrio":"0697","oacbarrio":"Urbanización Calimio","oacdirecc":"KR 1A5 # 73A - 47"}},{"type":"Feature","id":"pfp_ivc_organismos_accion_comunal.fid--215d4958_1a0d9e21907_3e64","geometry":{"type":"Point","coordinates":[-76.49600262,3.48648371]},"geometry_name":"the_geom","properties":{"gid":44,"oacid":109,"oacnombre":"Unidad Residencial Puente Del Comercio","oacidcomuna":6,"oaccomuna":"Comuna 06","oacidbarrio":"0698","oacbarrio":"Sector Puente del Comercio","oacdirecc":"CL 70 # 3 NORTE - 80 BLOQUE 32 - 402"}},{"type":"Feature","id":"pfp_ivc_organismos_accion_comunal.fid--215d4958_1a0d9e21907_3e65","geometry":{"type":"Point","coordinates":[-76.49744545,3.48904822]},"geometry_name":"the_geom","properties":{"gid":43,"oacid":108,"oacnombre":"Urbanización Lares de Comfenalco","oacidcomuna":6,"oaccomuna":"Comuna 06","oacidbarrio":"0698","oacbarrio":"Sector Puente del Comercio","oacdirecc":"CL 71D # 3E NORTE - 34"}},{"type":"Feature","id":"pfp_ivc_organismos_accion_comunal.fid--215d4958_1a0d9e21907_3e66","geometry":{"type":"Point","coordinates":[-76.48230674,3.4611403]},"geometry_name":"the_geom","properties":{"gid":56,"oacid":123,"oacnombre":"Alfonso López Pumarejo","oacidcomuna":7,"oaccomuna":"Comuna 07","oacidbarrio":"0701","oacbarrio":"Alfonso Lopez P. 1a Etapa","oacdirecc":"KR 7E BIS # 70 - 141"}},{"type":"Feature","id":"pfp_ivc_organismos_accion_comunal.fid--215d4958_1a0d9e21907_3e67","geometry":{"type":"Point","coordinates":[-76.48110173,3.45596369]},"geometry_name":"the_geom","properties":{"gid":57,"oacid":124,"oacnombre":"Alfonso López Pumarejo II Etapa","oacidcomuna":7,"oaccomuna":"Comuna 07","oacidbarrio":"0702","oacbarrio":"Alfonso Lopez P. 2a Etapa","oacdirecc":"Cl 74 # 7M BIS - 20"}},{"type":"Feature","id":"pfp_ivc_organismos_accion_comunal.fid--215d4958_1a0d9e21907_3e68","geometry":{"type":"Point","coordinates":[-76.48495097,3.44794196]},"geometry_name":"the_geom","properties":{"gid":58,"oacid":125,"oacnombre":"Alfonso López Pumarejo III Etapa","oacidcomuna":7,"oaccomuna":"Comuna 07","oacidbarrio":"0703","oacbarrio":"Alfonso Lopez P. 3a Etapa","oacdirecc":"Cl 72B # 11 - 06"}},{"type":"Feature","id":"pfp_ivc_organismos_accion_comunal.fid--215d4958_1a0d9e21907_3e69","geometry":{"type":"Point","coordinates":[-76.48340034,3.44735278]},"geometry_name":"the_geom","properties":{"gid":63,"oacid":132,"oacnombre":"Urbanización Calibella","oacidcomuna":7,"oaccomuna":"Comuna 07","oacidbarrio":"0706","oacbarrio":"Urbanización El Angel del Hogar","oacdirecc":"KR 13 # 73 - 06"}},{"type":"Feature","id":"pfp_ivc_organismos_accion_comunal.fid--215d4958_1a0d9e21907_3e6a","geometry":{"type":"Point","coordinates":[-76.48576669,3.45627097]},"geometry_name":"the_geom","properties":{"gid":59,"oacid":126,"oacnombre":"Barrio Siete de Agosto","oacidcomuna":7,"oaccomuna":"Comuna 07","oacidbarrio":"0707","oacbarrio":"Siete de Agosto","oacdirecc":"KR 7M BIS # 69 - 07"}},{"type":"Feature","id":"pfp_ivc_organismos_accion_comunal.fid--215d4958_1a0d9e21907_3e6b","geometry":{"type":"Point","coordinates":[-76.48554086,3.45849883]},"geometry_name":"the_geom","properties":{"gid":60,"oacid":127,"oacnombre":"Barrio Los Pinos","oacidcomuna":7,"oaccomuna":"Comuna 07","oacidbarrio":"0708","oacbarrio":"Los Pinos","oacdirecc":"KR 7J # 68 - 09"}},{"type":"Feature","id":"pfp_ivc_organismos_accion_comunal.fid--215d4958_1a0d9e21907_3e6c","geometry":{"type":"Point","coordinates":[-76.48736201,3.45972081]},"geometry_name":"the_geom","properties":{"gid":62,"oacid":129,"oacnombre":"Urbanización Las Ceibas","oacidcomuna":7,"oaccomuna":"Comuna 07","oacidbarrio":"0710","oacbarrio":"Las Ceibas","oacdirecc":"KR 7E BIS # 65 - 49"}},{"type":"Feature","id":"pfp_ivc_organismos_accion_comunal.fid--215d4958_1a0d9e21907_3e6d","geometry":{"type":"Point","coordinates":[-76.48743661,3.45774091]},"geometry_name":"the_geom","properties":{"gid":61,"oacid":128,"oacnombre":"Urbanización Las Veraneras","oacidcomuna":7,"oaccomuna":"Comuna 07","oacidbarrio":"0710","oacbarrio":"Las Ceibas","oacdirecc":"KR 7L BIS # 64 - 37"}},{"type":"Feature","id":"pfp_ivc_organismos_accion_comunal.fid--215d4958_1a0d9e21907_3e6e","geometry":{"type":"Point","coordinates":[-76.51726806,3.44402109]},"geometry_name":"the_geom","properties":{"gid":72,"oacid":144,"oacnombre":"Primitivo Crespo","oacidcomuna":8,"oaccomuna":"Comuna 08","oacidbarrio":"0801","oacbarrio":"Primitivo Crespo","oacdirecc":"KR 16 # 27 - 34"}},{"type":"Feature","id":"pfp_ivc_organismos_accion_comunal.fid--215d4958_1a0d9e21907_3e6f","geometry":{"type":"Point","coordinates":[-76.50603513,3.44982148]},"geometry_name":"the_geom","properties":{"gid":76,"oacid":149,"oacnombre":"Simón Bolívar","oacidcomuna":8,"oaccomuna":"Comuna 08","oacidbarrio":"0802","oacbarrio":"Simón Bolívar","oacdirecc":"CL 41 # 11B - 45 ESQUINA"}},{"type":"Feature","id":"pfp_ivc_organismos_accion_comunal.fid--215d4958_1a0d9e21907_3e70","geometry":{"type":"Point","coordinates":[-76.50754686,3.43988373]},"geometry_name":"the_geom","properties":{"gid":73,"oacid":145,"oacnombre":"Saavedra Galindo","oacidcomuna":8,"oaccomuna":"Comuna 08","oacidbarrio":"0803","oacbarrio":"Saavedra Galindo","oacdirecc":"CL 34 # 19 - 24"}},{"type":"Feature","id":"pfp_ivc_organismos_accion_comunal.fid--215d4958_1a0d9e21907_3e71","geometry":{"type":"Point","coordinates":[-76.50117254,3.44774614]},"geometry_name":"the_geom","properties":{"gid":78,"oacid":151,"oacnombre":"Uribe Uribe","oacidcomuna":8,"oaccomuna":"Comuna 08","oacidbarrio":"0804","oacbarrio":"Rafael Uribe Uribe","oacdirecc":"KR 12B # 49 - 50"}},{"type":"Feature","id":"pfp_ivc_organismos_accion_comunal.fid--215d4958_1a0d9e21907_3e72","geometry":{"type":"Point","coordinates":[-76.51075197,3.44038533]},"geometry_name":"the_geom","properties":{"gid":77,"oacid":150,"oacnombre":"Urbanización Golondrinas","oacidcomuna":8,"oaccomuna":"Comuna 08","oacidbarrio":"0804","oacbarrio":"Rafael Uribe Uribe","oacdirecc":"DG 22 # 17C - 85"}},{"type":"Feature","id":"pfp_ivc_organismos_accion_comunal.fid--215d4958_1a0d9e21907_3e73","geometry":{"type":"Point","coordinates":[-76.51782572,3.44152469]},"geometry_name":"the_geom","properties":{"gid":75,"oacid":148,"oacnombre":"Santa Mónica Popular","oacidcomuna":8,"oaccomuna":"Comuna 08","oacidbarrio":"0805","oacbarrio":"Santa Mónica Popular","oacdirecc":"KR 17B # 26 - 60"}},{"type":"Feature","id":"pfp_ivc_organismos_accion_comunal.fid--215d4958_1a0d9e21907_3e74","geometry":{"type":"Point","coordinates":[-76.50190583,3.44504876]},"geometry_name":"the_geom","properties":{"gid":65,"oacid":135,"oacnombre":"Benjamín Herrera","oacidcomuna":8,"oaccomuna":"Comuna 08","oacidbarrio":"0807","oacbarrio":"Benjamín Herrera","oacdirecc":"CL 48A # 14 - 36"}},{"type":"Feature","id":"pfp_ivc_organismos_accion_comunal.fid--215d4958_1a0d9e21907_3e75","geometry":{"type":"Point","coordinates":[-76.5175587,3.43880738]},"geometry_name":"the_geom","properties":{"gid":71,"oacid":143,"oacnombre":"Municipal","oacidcomuna":8,"oaccomuna":"Comuna 08","oacidbarrio":"0808","oacbarrio":"Municipal","oacdirecc":"KR 17G # 27 - 08 2DO PISO C. SALUD"}},{"type":"Feature","id":"pfp_ivc_organismos_accion_comunal.fid--215d4958_1a0d9e21907_3e76","geometry":{"type":"Point","coordinates":[-76.49582069,3.44813116]},"geometry_name":"the_geom","properties":{"gid":68,"oacid":139,"oacnombre":"Industrial Sector II","oacidcomuna":8,"oaccomuna":"Comuna 08","oacidbarrio":"0809","oacbarrio":"Industrial","oacdirecc":"KR 12 # 56 - 35"}},{"type":"Feature","id":"pfp_ivc_organismos_accion_comunal.fid--215d4958_1a0d9e21907_3e77","geometry":{"type":"Point","coordinates":[-76.51139765,3.45041475]},"geometry_name":"the_geom","properties":{"gid":67,"oacid":138,"oacnombre":"Industrial","oacidcomuna":8,"oaccomuna":"Comuna 08","oacidbarrio":"0809","oacbarrio":"Industrial","oacdirecc":"CL 33B # 10 - 126"}},{"type":"Feature","id":"pfp_ivc_organismos_accion_comunal.fid--215d4958_1a0d9e21907_3e78","geometry":{"type":"Point","coordinates":[-76.51181463,3.44701827]},"geometry_name":"the_geom","properties":{"gid":70,"oacid":142,"oacnombre":"Las Américas","oacidcomuna":8,"oaccomuna":"Comuna 08","oacidbarrio":"0811","oacbarrio":"Las Américas","oacdirecc":"CL 33A # 11G - 38"}},{"type":"Feature","id":"pfp_ivc_organismos_accion_comunal.fid--215d4958_1a0d9e21907_3e79","geometry":{"type":"Point","coordinates":[-76.51486202,3.44829665]},"geometry_name":"the_geom","properties":{"gid":64,"oacid":134,"oacnombre":"Atanasio Girardot","oacidcomuna":8,"oaccomuna":"Comuna 08","oacidbarrio":"0812","oacbarrio":"Atanasio Girardot","oacdirecc":"CL 30 # 11D - 06"}},{"type":"Feature","id":"pfp_ivc_organismos_accion_comunal.fid--215d4958_1a0d9e21907_3e7a","geometry":{"type":"Point","coordinates":[-76.51081651,3.43684805]},"geometry_name":"the_geom","properties":{"gid":74,"oacid":147,"oacnombre":"Santa Fe","oacidcomuna":8,"oaccomuna":"Comuna 08","oacidbarrio":"0813","oacbarrio":"Santa Fé","oacdirecc":"KR 23 # 33B - 94"}},{"type":"Feature","id":"pfp_ivc_organismos_accion_comunal.fid--215d4958_1a0d9e21907_3e7b","geometry":{"type":"Point","coordinates":[-76.49526785,3.44441251]},"geometry_name":"the_geom","properties":{"gid":66,"oacid":136,"oacnombre":"Chapinero","oacidcomuna":8,"oaccomuna":"Comuna 08","oacidbarrio":"0814","oacbarrio":"Chapinero","oacdirecc":"KR 14 # 58 - 01"}},{"type":"Feature","id":"pfp_ivc_organismos_accion_comunal.fid--215d4958_1a0d9e21907_3e7c","geometry":{"type":"Point","coordinates":[-76.50048352,3.44843202]},"geometry_name":"the_geom","properties":{"gid":79,"oacid":152,"oacnombre":"Villacolombia","oacidcomuna":8,"oaccomuna":"Comuna 08","oacidbarrio":"0815","oacbarrio":"Villa Colombia","oacdirecc":"CL 50 # 12 - 11"}},{"type":"Feature","id":"pfp_ivc_organismos_accion_comunal.fid--215d4958_1a0d9e21907_3e7d","geometry":{"type":"Point","coordinates":[-76.51215847,3.44394602]},"geometry_name":"the_geom","properties":{"gid":69,"oacid":140,"oacnombre":"La Base","oacidcomuna":8,"oaccomuna":"Comuna 08","oacidbarrio":"0817","oacbarrio":"La Base","oacdirecc":"KR 16 # 32B - 04"}},{"type":"Feature","id":"pfp_ivc_organismos_accion_comunal.fid--215d4958_1a0d9e21907_3e7e","geometry":{"type":"Point","coordinates":[-76.49052406,3.44717305]},"geometry_name":"the_geom","properties":{"gid":80,"oacid":153,"oacnombre":"Urbanización La Nueva Base","oacidcomuna":8,"oaccomuna":"Comuna 08","oacidbarrio":"0818","oacbarrio":"Urbanización La Nueva Base","oacdirecc":"KR 11E # 64 - 64"}},{"type":"Feature","id":"pfp_ivc_organismos_accion_comunal.fid--215d4958_1a0d9e21907_3e7f","geometry":{"type":"Point","coordinates":[-76.5234472,3.4388245]},"geometry_name":"the_geom","properties":{"gid":83,"oacid":161,"oacnombre":"Barrio Alameda","oacidcomuna":9,"oaccomuna":"Comuna 09","oacidbarrio":"0901","oacbarrio":"Alameda","oacdirecc":"CL 17 # 20 - 00"}},{"type":"Feature","id":"pfp_ivc_organismos_accion_comunal.fid--215d4958_1a0d9e21907_3e80","geometry":{"type":"Point","coordinates":[-76.53758449,3.43773897]},"geometry_name":"the_geom","properties":{"gid":82,"oacid":160,"oacnombre":"Barrio Sucre","oacidcomuna":9,"oaccomuna":"Comuna 09","oacidbarrio":"0909","oacbarrio":"Sucre","oacdirecc":"KR 23B # 5A - 09"}},{"type":"Feature","id":"pfp_ivc_organismos_accion_comunal.fid--215d4958_1a0d9e21907_3e81","geometry":{"type":"Point","coordinates":[-76.52761434,3.44042255]},"geometry_name":"the_geom","properties":{"gid":81,"oacid":154,"oacnombre":"Barrio Obrero","oacidcomuna":9,"oaccomuna":"Comuna 09","oacidbarrio":"0910","oacbarrio":"Barrio Obrero","oacdirecc":"CL 13A # 18 - 63"}},{"type":"Feature","id":"pfp_ivc_organismos_accion_comunal.fid--215d4958_1a0d9e21907_3e82","geometry":{"type":"Point","coordinates":[-76.53113105,3.41783197]},"geometry_name":"the_geom","properties":{"gid":86,"oacid":166,"oacnombre":"Dorado","oacidcomuna":10,"oaccomuna":"Comuna 10","oacidbarrio":"1001","oacbarrio":"El Dorado","oacdirecc":"KR 40B # 13 - 47"}},{"type":"Feature","id":"pfp_ivc_organismos_accion_comunal.fid--215d4958_1a0d9e21907_3e83","geometry":{"type":"Point","coordinates":[-76.52781659,3.41010016]},"geometry_name":"the_geom","properties":{"gid":87,"oacid":169,"oacnombre":"Santa Elena","oacidcomuna":10,"oaccomuna":"Comuna 10","oacidbarrio":"1004","oacbarrio":"Santa Elena","oacdirecc":"CL 14 # 47A - 10"}},{"type":"Feature","id":"pfp_ivc_organismos_accion_comunal.fid--215d4958_1a0d9e21907_3e84","geometry":{"type":"Point","coordinates":[-76.52153302,3.433872]},"geometry_name":"the_geom","properties":{"gid":88,"oacid":172,"oacnombre":"Acacias","oacidcomuna":10,"oaccomuna":"Comuna 10","oacidbarrio":"1005","oacbarrio":"Las Acacias","oacdirecc":"KR 24 # 19A - 10"}},{"type":"Feature","id":"pfp_ivc_organismos_accion_comunal.fid--215d4958_1a0d9e21907_3e85","geometry":{"type":"Point","coordinates":[-76.5363362,3.41363797]},"geometry_name":"the_geom","properties":{"gid":84,"oacid":164,"oacnombre":"Jorge Zawadsky","oacidcomuna":10,"oaccomuna":"Comuna 10","oacidbarrio":"1007","oacbarrio":"Jorge Zawadsky","oacdirecc":"CL 11 # 46 - 86"}},{"type":"Feature","id":"pfp_ivc_organismos_accion_comunal.fid--215d4958_1a0d9e21907_3e86","geometry":{"type":"Point","coordinates":[-76.52867207,3.42084961]},"geometry_name":"the_geom","properties":{"gid":85,"oacid":165,"oacnombre":"Departamental","oacidcomuna":10,"oaccomuna":"Comuna 10","oacidbarrio":"1011","oacbarrio":"Departamental","oacdirecc":"CL 13C # 36A - 31"}},{"type":"Feature","id":"pfp_ivc_organismos_accion_comunal.fid--215d4958_1a0d9e21907_3e87","geometry":{"type":"Point","coordinates":[-76.53275342,3.41767542]},"geometry_name":"the_geom","properties":{"gid":89,"oacid":173,"oacnombre":"Pasoancho","oacidcomuna":10,"oaccomuna":"Comuna 10","oacidbarrio":"1012","oacbarrio":"Pasoancho","oacdirecc":"CL 12B # 41 - 00 ESQUINA"}},{"type":"Feature","id":"pfp_ivc_organismos_accion_comunal.fid--215d4958_1a0d9e21907_3e88","geometry":{"type":"Point","coordinates":[-76.53325152,3.41193883]},"geometry_name":"the_geom","properties":{"gid":91,"oacid":181,"oacnombre":"Urbanización Colseguros Andes","oacidcomuna":10,"oaccomuna":"Comuna 10","oacidbarrio":"1014","oacbarrio":"Colseguros Andes","oacdirecc":"CL 13 # 47 - 37"}},{"type":"Feature","id":"pfp_ivc_organismos_accion_comunal.fid--215d4958_1a0d9e21907_3e89","geometry":{"type":"Point","coordinates":[-76.52256115,3.41438224]},"geometry_name":"the_geom","properties":{"gid":90,"oacid":177,"oacnombre":"San Cristóbal","oacidcomuna":10,"oaccomuna":"Comuna 10","oacidbarrio":"1015","oacbarrio":"San Cristóbal","oacdirecc":"CL 23 # 42 - 08"}},{"type":"Feature","id":"pfp_ivc_organismos_accion_comunal.fid--215d4958_1a0d9e21907_3e8a","geometry":{"type":"Point","coordinates":[-76.50437825,3.42476299]},"geometry_name":"the_geom","properties":{"gid":110,"oacid":202,"oacnombre":"San Carlos","oacidcomuna":11,"oaccomuna":"Comuna 11","oacidbarrio":"1101","oacbarrio":"San Carlos","oacdirecc":"DG 32 con KR 30 esquina"}},{"type":"Feature","id":"pfp_ivc_organismos_accion_comunal.fid--215d4958_1a0d9e21907_3e8b","geometry":{"type":"Point","coordinates":[-76.52042337,3.42833009]},"geometry_name":"the_geom","properties":{"gid":106,"oacid":198,"oacnombre":"Maracaibo","oacidcomuna":11,"oaccomuna":"Comuna 11","oacidbarrio":"1102","oacbarrio":"Maracaibo","oacdirecc":"CL 24 # 30 - 00"}},{"type":"Feature","id":"pfp_ivc_organismos_accion_comunal.fid--215d4958_1a0d9e21907_3e8c","geometry":{"type":"Point","coordinates":[-76.5095585,3.42384231]},"geometry_name":"the_geom","properties":{"gid":104,"oacid":196,"oacnombre":"La Independencia","oacidcomuna":11,"oaccomuna":"Comuna 11","oacidbarrio":"1103","oacbarrio":"La Independencia","oacdirecc":"CL 34B # 32 - 32"}},{"type":"Feature","id":"pfp_ivc_organismos_accion_comunal.fid--215d4958_1a0d9e21907_3e8d","geometry":{"type":"Point","coordinates":[-76.50511452,3.42535755]},"geometry_name":"the_geom","properties":{"gid":102,"oacid":194,"oacnombre":"La Esperanza","oacidcomuna":11,"oaccomuna":"Comuna 11","oacidbarrio":"1104","oacbarrio":"La Esperanza","oacdirecc":"KR 30A # 30 - 05"}},{"type":"Feature","id":"pfp_ivc_organismos_accion_comunal.fid--215d4958_1a0d9e21907_3e8e","geometry":{"type":"Point","coordinates":[-76.51299369,3.41730162]},"geometry_name":"the_geom","properties":{"gid":94,"oacid":185,"oacnombre":"Bocayá","oacidcomuna":11,"oaccomuna":"Comuna 11","oacidbarrio":"1105","oacbarrio":"Urbanización Boyaca","oacdirecc":"CL 31B # 41 - 02"}},{"type":"Feature","id":"pfp_ivc_organismos_accion_comunal.fid--215d4958_1a0d9e21907_3e8f","geometry":{"type":"Point","coordinates":[-76.51660898,3.43535443]},"geometry_name":"the_geom","properties":{"gid":96,"oacid":188,"oacnombre":"El Jardín","oacidcomuna":11,"oaccomuna":"Comuna 11","oacidbarrio":"1106","oacbarrio":"El Jardín","oacdirecc":"CL 26B # 23 - 101"}},{"type":"Feature","id":"pfp_ivc_organismos_accion_comunal.fid--215d4958_1a0d9e21907_3e90","geometry":{"type":"Point","coordinates":[-76.51618079,3.41626576]},"geometry_name":"the_geom","properties":{"gid":103,"oacid":195,"oacnombre":"La Fortaleza","oacidcomuna":11,"oaccomuna":"Comuna 11","oacidbarrio":"1107","oacbarrio":"La Fortaleza","oacdirecc":"KR 41B # 29 - 45"}},{"type":"Feature","id":"pfp_ivc_organismos_accion_comunal.fid--215d4958_1a0d9e21907_3e91","geometry":{"type":"Point","coordinates":[-76.50609527,3.42243423]},"geometry_name":"the_geom","properties":{"gid":98,"oacid":190,"oacnombre":"El Recuerdo","oacidcomuna":11,"oaccomuna":"Comuna 11","oacidbarrio":"1108","oacbarrio":"El Recuerdo","oacdirecc":"DG 33 # 33B - 40"}},{"type":"Feature","id":"pfp_ivc_organismos_accion_comunal.fid--215d4958_1a0d9e21907_3e92","geometry":{"type":"Point","coordinates":[-76.52032139,3.42406431]},"geometry_name":"the_geom","properties":{"gid":93,"oacid":184,"oacnombre":"Agua Blanca","oacidcomuna":11,"oaccomuna":"Comuna 11","oacidbarrio":"1109","oacbarrio":"Aguablanca","oacdirecc":"KR 33 # 25 - 37"}},{"type":"Feature","id":"pfp_ivc_organismos_accion_comunal.fid--215d4958_1a0d9e21907_3e93","geometry":{"type":"Point","coordinates":[-76.51435037,3.42908191]},"geometry_name":"the_geom","properties":{"gid":97,"oacid":189,"oacnombre":"El Prado","oacidcomuna":11,"oaccomuna":"Comuna 11","oacidbarrio":"1110","oacbarrio":"El Prado","oacdirecc":"KR 28 # 30 - 03"}},{"type":"Feature","id":"pfp_ivc_organismos_accion_comunal.fid--215d4958_1a0d9e21907_3e94","geometry":{"type":"Point","coordinates":[-76.51727241,3.43155322]},"geometry_name":"the_geom","properties":{"gid":92,"oacid":183,"oacnombre":"Veinte de Julio","oacidcomuna":11,"oaccomuna":"Comuna 11","oacidbarrio":"1111","oacbarrio":"20 de Julio","oacdirecc":"KR 25A # 26B - 66"}},{"type":"Feature","id":"pfp_ivc_organismos_accion_comunal.fid--215d4958_1a0d9e21907_3e95","geometry":{"type":"Point","coordinates":[-76.50872381,3.42341011]},"geometry_name":"the_geom","properties":{"gid":107,"oacid":199,"oacnombre":"Prados de Oriente","oacidcomuna":11,"oaccomuna":"Comuna 11","oacidbarrio":"1112","oacbarrio":"Prados de Oriente","oacdirecc":"KR 32B # 34C - 44"}},{"type":"Feature","id":"pfp_ivc_organismos_accion_comunal.fid--215d4958_1a0d9e21907_3e96","geometry":{"type":"Point","coordinates":[-76.51033674,3.42156497]},"geometry_name":"the_geom","properties":{"gid":100,"oacid":192,"oacnombre":"José Holguín Garcés","oacidcomuna":11,"oaccomuna":"Comuna 11","oacidbarrio":"1115","oacbarrio":"José Holguín Garcés","oacdirecc":"KR 34 # 33A - 73 esquina"}},{"type":"Feature","id":"pfp_ivc_organismos_accion_comunal.fid--215d4958_1a0d9e21907_3e97","geometry":{"type":"Point","coordinates":[-76.51753728,3.41835535]},"geometry_name":"the_geom","properties":{"gid":105,"oacid":197,"oacnombre":"León XIII","oacidcomuna":11,"oaccomuna":"Comuna 11","oacidbarrio":"1116","oacbarrio":"León XIII","oacdirecc":"CL 27 # 40 - 26"}},{"type":"Feature","id":"pfp_ivc_organismos_accion_comunal.fid--215d4958_1a0d9e21907_3e98","geometry":{"type":"Point","coordinates":[-76.51997756,3.42117254]},"geometry_name":"the_geom","properties":{"gid":101,"oacid":193,"oacnombre":"José María Córdoba","oacidcomuna":11,"oaccomuna":"Comuna 11","oacidbarrio":"1117","oacbarrio":"José María Córdoba","oacdirecc":"KR 36 # 26 - 029"}},{"type":"Feature","id":"pfp_ivc_organismos_accion_comunal.fid--215d4958_1a0d9e21907_3e99","geometry":{"type":"Point","coordinates":[-76.51867322,3.40978393]},"geometry_name":"the_geom","properties":{"gid":111,"oacid":203,"oacnombre":"San Pedro Claver","oacidcomuna":11,"oaccomuna":"Comuna 11","oacidbarrio":"1118","oacbarrio":"San Pedro Claver","oacdirecc":"KR 46 # 26E - 73"}},{"type":"Feature","id":"pfp_ivc_organismos_accion_comunal.fid--215d4958_1a0d9e21907_3e9a","geometry":{"type":"Point","coordinates":[-76.5064323,3.42671361]},"geometry_name":"the_geom","properties":{"gid":172,"oacid":186,"oacnombre":"Ciudad Modelo","oacidcomuna":11,"oaccomuna":"Comuna 11","oacidbarrio":"1119","oacbarrio":"Los Conquistadores","oacdirecc":"KR 29 entre CL 35A y CL 35D"}},{"type":"Feature","id":"pfp_ivc_organismos_accion_comunal.fid--215d4958_1a0d9e21907_3e9b","geometry":{"type":"Point","coordinates":[-76.51709124,3.4251432]},"geometry_name":"the_geom","properties":{"gid":95,"oacid":187,"oacnombre":"Conquistadores","oacidcomuna":11,"oaccomuna":"Comuna 11","oacidbarrio":"1119","oacbarrio":"Los Conquistadores","oacdirecc":"CL 27 # 32 - 32"}},{"type":"Feature","id":"pfp_ivc_organismos_accion_comunal.fid--215d4958_1a0d9e21907_3e9c","geometry":{"type":"Point","coordinates":[-76.52179231,3.40808926]},"geometry_name":"the_geom","properties":{"gid":99,"oacid":191,"oacnombre":"Gran Colombia","oacidcomuna":11,"oaccomuna":"Comuna 11","oacidbarrio":"1120","oacbarrio":"La Gran Colombia","oacdirecc":"KR 47C # 25 - 57"}},{"type":"Feature","id":"pfp_ivc_organismos_accion_comunal.fid--215d4958_1a0d9e21907_3e9d","geometry":{"type":"Point","coordinates":[-76.51391236,3.42236343]},"geometry_name":"the_geom","properties":{"gid":109,"oacid":201,"oacnombre":"San Benito","oacidcomuna":11,"oaccomuna":"Comuna 11","oacidbarrio":"1121","oacbarrio":"San Benito","oacdirecc":"KR 33C con CL 31"}},{"type":"Feature","id":"pfp_ivc_organismos_accion_comunal.fid--215d4958_1a0d9e21907_3e9e","geometry":{"type":"Point","coordinates":[-76.51085475,3.42920445]},"geometry_name":"the_geom","properties":{"gid":108,"oacid":200,"oacnombre":"Primavera","oacidcomuna":11,"oaccomuna":"Comuna 11","oacidbarrio":"1122","oacbarrio":"Primavera","oacdirecc":"KR 27B # 32 - 21"}},{"type":"Feature","id":"pfp_ivc_organismos_accion_comunal.fid--215d4958_1a0d9e21907_3e9f","geometry":{"type":"Point","coordinates":[-76.51039324,3.43409541]},"geometry_name":"the_geom","properties":{"gid":113,"oacid":206,"oacnombre":"Villanueva","oacidcomuna":12,"oaccomuna":"Comuna 12","oacidbarrio":"1201","oacbarrio":"Villanueva","oacdirecc":"KR 25 # 33B - 95"}},{"type":"Feature","id":"pfp_ivc_organismos_accion_comunal.fid--215d4958_1a0d9e21907_3ea0","geometry":{"type":"Point","coordinates":[-76.50312735,3.43306638]},"geometry_name":"the_geom","properties":{"gid":117,"oacid":210,"oacnombre":"Asturias","oacidcomuna":12,"oaccomuna":"Comuna 12","oacidbarrio":"1202","oacbarrio":"Asturias","oacdirecc":"DG 28B # 27A - 53"}},{"type":"Feature","id":"pfp_ivc_organismos_accion_comunal.fid--215d4958_1a0d9e21907_3ea1","geometry":{"type":"Point","coordinates":[-76.5073254,3.43122909]},"geometry_name":"the_geom","properties":{"gid":120,"oacid":213,"oacnombre":"Eduardo Santos","oacidcomuna":12,"oaccomuna":"Comuna 12","oacidbarrio":"1203","oacbarrio":"Eduardo Santos","oacdirecc":"TV 30 # 28 - 123"}},{"type":"Feature","id":"pfp_ivc_organismos_accion_comunal.fid--215d4958_1a0d9e21907_3ea2","geometry":{"type":"Point","coordinates":[-76.49965214,3.43753058]},"geometry_name":"the_geom","properties":{"gid":114,"oacid":207,"oacnombre":"Alfonso Barberena","oacidcomuna":12,"oaccomuna":"Comuna 12","oacidbarrio":"1204","oacbarrio":"Alfonso Barberena A.","oacdirecc":"CL 49 # 25 - 48"}},{"type":"Feature","id":"pfp_ivc_organismos_accion_comunal.fid--215d4958_1a0d9e21907_3ea3","geometry":{"type":"Point","coordinates":[-76.50531788,3.43513362]},"geometry_name":"the_geom","properties":{"gid":121,"oacid":214,"oacnombre":"El Paraíso","oacidcomuna":12,"oaccomuna":"Comuna 12","oacidbarrio":"1205","oacbarrio":"El Paraíso","oacdirecc":"KR 25A # 36 - 05"}},{"type":"Feature","id":"pfp_ivc_organismos_accion_comunal.fid--215d4958_1a0d9e21907_3ea4","geometry":{"type":"Point","coordinates":[-76.49894687,3.43540065]},"geometry_name":"the_geom","properties":{"gid":115,"oacid":208,"oacnombre":"Fenalco Kennedy","oacidcomuna":12,"oaccomuna":"Comuna 12","oacidbarrio":"1206","oacbarrio":"Fenalco Kennedy","oacdirecc":"CL 50 # 26J - 22"}},{"type":"Feature","id":"pfp_ivc_organismos_accion_comunal.fid--215d4958_1a0d9e21907_3ea5","geometry":{"type":"Point","coordinates":[-76.50399329,3.43716491]},"geometry_name":"the_geom","properties":{"gid":116,"oacid":209,"oacnombre":"Nueva Floresta","oacidcomuna":12,"oaccomuna":"Comuna 12","oacidbarrio":"1207","oacbarrio":"Nueva Floresta","oacdirecc":"KR 24C # 39 - 72"}},{"type":"Feature","id":"pfp_ivc_organismos_accion_comunal.fid--215d4958_1a0d9e21907_3ea6","geometry":{"type":"Point","coordinates":[-76.54062591,3.43232531]},"geometry_name":"the_geom","properties":{"gid":119,"oacid":212,"oacnombre":"Doce de Octubre","oacidcomuna":12,"oaccomuna":"Comuna 12","oacidbarrio":"1209","oacbarrio":"Doce de Octubre","oacdirecc":"DG 28 # 29 - 02"}},{"type":"Feature","id":"pfp_ivc_organismos_accion_comunal.fid--215d4958_1a0d9e21907_3ea7","geometry":{"type":"Point","coordinates":[-76.50223496,3.426356]},"geometry_name":"the_geom","properties":{"gid":122,"oacid":215,"oacnombre":"El Rodeo","oacidcomuna":12,"oaccomuna":"Comuna 12","oacidbarrio":"1210","oacbarrio":"El Rodeo","oacdirecc":"CL 54 # 28F - 43"}},{"type":"Feature","id":"pfp_ivc_organismos_accion_comunal.fid--215d4958_1a0d9e21907_3ea8","geometry":{"type":"Point","coordinates":[-76.50873275,3.4304066]},"geometry_name":"the_geom","properties":{"gid":112,"oacid":205,"oacnombre":"Sindical","oacidcomuna":12,"oaccomuna":"Comuna 12","oacidbarrio":"1211","oacbarrio":"Sindical","oacdirecc":"DG 28 # TV 28 - 04"}},{"type":"Feature","id":"pfp_ivc_organismos_accion_comunal.fid--215d4958_1a0d9e21907_3ea9","geometry":{"type":"Point","coordinates":[-76.5032503,3.42697964]},"geometry_name":"the_geom","properties":{"gid":118,"oacid":211,"oacnombre":"Bello Horizonte","oacidcomuna":12,"oaccomuna":"Comuna 12","oacidbarrio":"1212","oacbarrio":"Bello Horizonte","oacdirecc":"CL 50 # 28F - 36"}},{"type":"Feature","id":"pfp_ivc_organismos_accion_comunal.fid--215d4958_1a0d9e21907_3eaa","geometry":{"type":"Point","coordinates":[-76.49888543,3.41491346]},"geometry_name":"the_geom","properties":{"gid":137,"oacid":242,"oacnombre":"Sector II Ulpiano Lloreda","oacidcomuna":13,"oaccomuna":"Comuna 13","oacidbarrio":"1301","oacbarrio":"Ulpiano Lloreda","oacdirecc":"KR 33 # 46A - 36"}},{"type":"Feature","id":"pfp_ivc_organismos_accion_comunal.fid--215d4958_1a0d9e21907_3eab","geometry":{"type":"Point","coordinates":[-76.49436479,3.43314927]},"geometry_name":"the_geom","properties":{"gid":133,"oacid":236,"oacnombre":"Poblado I","oacidcomuna":13,"oaccomuna":"Comuna 13","oacidbarrio":"1303","oacbarrio":"El Poblado I","oacdirecc":"KR 26L # DG 71A 1 - 69"}},{"type":"Feature","id":"pfp_ivc_organismos_accion_comunal.fid--215d4958_1a0d9e21907_3eac","geometry":{"type":"Point","coordinates":[-76.49635092,3.41963785]},"geometry_name":"the_geom","properties":{"gid":131,"oacid":232,"oacnombre":"Sector Nuevo Horizonte","oacidcomuna":13,"oaccomuna":"Comuna 13","oacidbarrio":"1303","oacbarrio":"El Poblado I","oacdirecc":"KR 28H # 72P - 29"}},{"type":"Feature","id":"pfp_ivc_organismos_accion_comunal.fid--215d4958_1a0d9e21907_3ead","geometry":{"type":"Point","coordinates":[-76.49750244,3.42788853]},"geometry_name":"the_geom","properties":{"gid":132,"oacid":233,"oacnombre":"Omar Torrijos","oacidcomuna":13,"oaccomuna":"Comuna 13","oacidbarrio":"1307","oacbarrio":"Omar Torrijos","oacdirecc":"CL 71B con KR 28C"}},{"type":"Feature","id":"pfp_ivc_organismos_accion_comunal.fid--215d4958_1a0d9e21907_3eae","geometry":{"type":"Point","coordinates":[-76.49069955,3.43180158]},"geometry_name":"the_geom","properties":{"gid":130,"oacid":229,"oacnombre":"Carlos Lleras Restrepo","oacidcomuna":13,"oaccomuna":"Comuna 13","oacidbarrio":"1309","oacbarrio":"Lleras Restrepo","oacdirecc":"CL 72P entre DG 26 69 y KR 26 H"}},{"type":"Feature","id":"pfp_ivc_organismos_accion_comunal.fid--215d4958_1a0d9e21907_3eaf","geometry":{"type":"Point","coordinates":[-76.49409454,3.43543603]},"geometry_name":"the_geom","properties":{"gid":129,"oacid":228,"oacnombre":"Sector Lleras Cinta Larga","oacidcomuna":13,"oaccomuna":"Comuna 13","oacidbarrio":"1309","oacbarrio":"Lleras Restrepo","oacdirecc":"CL 71 # 26E 107"}},{"type":"Feature","id":"pfp_ivc_organismos_accion_comunal.fid--215d4958_1a0d9e21907_3eb0","geometry":{"type":"Point","coordinates":[-76.4916689,3.43827308]},"geometry_name":"the_geom","properties":{"gid":135,"oacid":239,"oacnombre":"Los Robles","oacidcomuna":13,"oaccomuna":"Comuna 13","oacidbarrio":"1311","oacbarrio":"Los Robles","oacdirecc":"KR 26 # 72S - 04"}},{"type":"Feature","id":"pfp_ivc_organismos_accion_comunal.fid--215d4958_1a0d9e21907_3eb1","geometry":{"type":"Point","coordinates":[-76.49298602,3.43760685]},"geometry_name":"the_geom","properties":{"gid":136,"oacid":240,"oacnombre":"Rodrigo Lara Bonilla Sector La Paz","oacidcomuna":13,"oaccomuna":"Comuna 13","oacidbarrio":"1312","oacbarrio":"Rodrigo Lara Bonilla","oacdirecc":"KR 26B # 71 - 05"}},{"type":"Feature","id":"pfp_ivc_organismos_accion_comunal.fid--215d4958_1a0d9e21907_3eb2","geometry":{"type":"Point","coordinates":[-76.49475829,3.42359335]},"geometry_name":"the_geom","properties":{"gid":134,"oacid":238,"oacnombre":"Rodrigo Lara Bonilla","oacidcomuna":13,"oaccomuna":"Comuna 13","oacidbarrio":"1312","oacbarrio":"Rodrigo Lara Bonilla","oacdirecc":"KR 28D3 # 72L2 - 19"}},{"type":"Feature","id":"pfp_ivc_organismos_accion_comunal.fid--215d4958_1a0d9e21907_3eb3","geometry":{"type":"Point","coordinates":[-76.50341914,3.42206459]},"geometry_name":"the_geom","properties":{"gid":127,"oacid":223,"oacnombre":"Charco Azul","oacidcomuna":13,"oaccomuna":"Comuna 13","oacidbarrio":"1313","oacbarrio":"Charco Azul","oacdirecc":"KR 31 # 38 - 26"}},{"type":"Feature","id":"pfp_ivc_organismos_accion_comunal.fid--215d4958_1a0d9e21907_3eb4","geometry":{"type":"Point","coordinates":[-76.49475829,3.42359335]},"geometry_name":"the_geom","properties":{"gid":126,"oacid":220,"oacnombre":"Urbanización Calipso Sector III","oacidcomuna":13,"oaccomuna":"Comuna 13","oacidbarrio":"1315","oacbarrio":"Calipso","oacdirecc":"KR 28D3 # 72L2 - 19"}},{"type":"Feature","id":"pfp_ivc_organismos_accion_comunal.fid--215d4958_1a0d9e21907_3eb5","geometry":{"type":"Point","coordinates":[-76.49940176,3.42406751]},"geometry_name":"the_geom","properties":{"gid":125,"oacid":219,"oacnombre":"Urbanización Calipso Sector 3 y Sector 5.","oacidcomuna":13,"oaccomuna":"Comuna 13","oacidbarrio":"1315","oacbarrio":"Calipso","oacdirecc":"CL 72F # TV 28E - 107"}},{"type":"Feature","id":"pfp_ivc_organismos_accion_comunal.fid--215d4958_1a0d9e21907_3eb6","geometry":{"type":"Point","coordinates":[-76.49940176,3.42406751]},"geometry_name":"the_geom","properties":{"gid":124,"oacid":218,"oacnombre":"Urbanización Calipso Sector I","oacidcomuna":13,"oaccomuna":"Comuna 13","oacidbarrio":"1315","oacbarrio":"Calipso","oacdirecc":"CL 72F # TV 28E - 107"}},{"type":"Feature","id":"pfp_ivc_organismos_accion_comunal.fid--215d4958_1a0d9e21907_3eb7","geometry":{"type":"Point","coordinates":[-76.49940176,3.42406751]},"geometry_name":"the_geom","properties":{"gid":123,"oacid":217,"oacnombre":"Asentamiento Subnormal Belisario Betancourt","oacidcomuna":13,"oaccomuna":"Comuna 13","oacidbarrio":"1315","oacbarrio":"Calipso","oacdirecc":"CL 72F # TV 28E - 107"}},{"type":"Feature","id":"pfp_ivc_organismos_accion_comunal.fid--215d4958_1a0d9e21907_3eb8","geometry":{"type":"Point","coordinates":[-76.48840189,3.43114838]},"geometry_name":"the_geom","properties":{"gid":128,"oacid":225,"oacnombre":"Sector Los Lagos I Etapa","oacidcomuna":13,"oaccomuna":"Comuna 13","oacidbarrio":"1395","oacbarrio":"Los Lagos","oacdirecc":"KR 26I1 con CL 72P"}},{"type":"Feature","id":"pfp_ivc_organismos_accion_comunal.fid--215d4958_1a0d9e21907_3eb9","geometry":{"type":"Point","coordinates":[-76.48788195,3.43138681]},"geometry_name":"the_geom","properties":{"gid":180,"oacid":234,"oacnombre":"Urbanización El Pondaje","oacidcomuna":13,"oaccomuna":"Comuna 13","oacidbarrio":"1397","oacbarrio":"Sector Laguna del Pondaje","oacdirecc":"CL 72P1 con KR 26I"}},{"type":"Feature","id":"pfp_ivc_organismos_accion_comunal.fid--215d4958_1a0d9e21907_3eba","geometry":{"type":"Point","coordinates":[-76.48009398,3.41727682]},"geometry_name":"the_geom","properties":{"gid":138,"oacid":248,"oacnombre":"Alfonso Bonilla Aragón - Gabriela Mistral","oacidcomuna":14,"oaccomuna":"Comuna 14","oacidbarrio":"1401","oacbarrio":"Alfonso Bonilla Aragón","oacdirecc":"CL 97 # 27D - 27"}},{"type":"Feature","id":"pfp_ivc_organismos_accion_comunal.fid--215d4958_1a0d9e21907_3ebb","geometry":{"type":"Point","coordinates":[-76.47738106,3.43840943]},"geometry_name":"the_geom","properties":{"gid":142,"oacid":271,"oacnombre":"Alirio Mora Beltrán","oacidcomuna":14,"oaccomuna":"Comuna 14","oacidbarrio":"1402","oacbarrio":"Alirio Mora Beltrán","oacdirecc":"CL 77 # 26 - 26"}},{"type":"Feature","id":"pfp_ivc_organismos_accion_comunal.fid--215d4958_1a0d9e21907_3ebc","geometry":{"type":"Point","coordinates":[-76.47197558,3.42365506]},"geometry_name":"the_geom","properties":{"gid":141,"oacid":268,"oacnombre":"Manuela Beltrán - Sector I","oacidcomuna":14,"oaccomuna":"Comuna 14","oacidbarrio":"1403","oacbarrio":"Manuela Beltrán","oacdirecc":"CL 108 # 26H1 - 59 Sector I"}},{"type":"Feature","id":"pfp_ivc_organismos_accion_comunal.fid--215d4958_1a0d9e21907_3ebd","geometry":{"type":"Point","coordinates":[-76.47676387,3.41449492]},"geometry_name":"the_geom","properties":{"gid":174,"oacid":262,"oacnombre":"Las Orquídeas","oacidcomuna":14,"oaccomuna":"Comuna 14","oacidbarrio":"1404","oacbarrio":"Las Orquídeas","oacdirecc":"KR 27D con CL 108 y CL 110"}},{"type":"Feature","id":"pfp_ivc_organismos_accion_comunal.fid--215d4958_1a0d9e21907_3ebe","geometry":{"type":"Point","coordinates":[-76.48365515,3.43711083]},"geometry_name":"the_geom","properties":{"gid":173,"oacid":258,"oacnombre":"José Manuel Marroquín II","oacidcomuna":14,"oaccomuna":"Comuna 14","oacidbarrio":"1405","oacbarrio":"José Manuel Marroquín II","oacdirecc":"CL 73 con 26D"}},{"type":"Feature","id":"pfp_ivc_organismos_accion_comunal.fid--215d4958_1a0d9e21907_3ebf","geometry":{"type":"Point","coordinates":[-76.47286332,3.43298308]},"geometry_name":"the_geom","properties":{"gid":139,"oacid":251,"oacnombre":"Urbanización Puertas del Sol","oacidcomuna":14,"oaccomuna":"Comuna 14","oacidbarrio":"1495","oacbarrio":"Puerta del Sol","oacdirecc":"CL 84 # 26 - 04"}},{"type":"Feature","id":"pfp_ivc_organismos_accion_comunal.fid--215d4958_1a0d9e21907_3ec0","geometry":{"type":"Point","coordinates":[-76.48020707,3.43291031]},"geometry_name":"the_geom","properties":{"gid":140,"oacid":260,"oacnombre":"La Urbanización los Naranjos I Etapa","oacidcomuna":14,"oaccomuna":"Comuna 14","oacidbarrio":"1496","oacbarrio":"Los Naranjos","oacdirecc":"KR 26G3 # 77A - 78"}},{"type":"Feature","id":"pfp_ivc_organismos_accion_comunal.fid--215d4958_1a0d9e21907_3ec1","geometry":{"type":"Point","coordinates":[-76.49272054,3.41650145]},"geometry_name":"the_geom","properties":{"gid":144,"oacid":276,"oacnombre":"Los Comuneros 1 Etapa","oacidcomuna":15,"oaccomuna":"Comuna 15","oacidbarrio":"1502","oacbarrio":"Los Comuneros I","oacdirecc":"KR 28F con CL 72Z EL FARO"}},{"type":"Feature","id":"pfp_ivc_organismos_accion_comunal.fid--215d4958_1a0d9e21907_3ec2","geometry":{"type":"Point","coordinates":[-76.49610269,3.41369366]},"geometry_name":"the_geom","properties":{"gid":143,"oacid":272,"oacnombre":"Laureano Gómez","oacidcomuna":15,"oaccomuna":"Comuna 15","oacidbarrio":"1503","oacbarrio":"Laureano Gómez","oacdirecc":"CL 49 con KR 32A"}},{"type":"Feature","id":"pfp_ivc_organismos_accion_comunal.fid--215d4958_1a0d9e21907_3ec3","geometry":{"type":"Point","coordinates":[-76.49933158,3.40412399]},"geometry_name":"the_geom","properties":{"gid":181,"oacid":289,"oacnombre":"Bajos de Ciudad Córdoba","oacidcomuna":15,"oaccomuna":"Comuna 15","oacidbarrio":"1504","oacbarrio":"El Vallado","oacdirecc":"KR 41 entre CL 55 y CL 56 KIOSKO"}},{"type":"Feature","id":"pfp_ivc_organismos_accion_comunal.fid--215d4958_1a0d9e21907_3ec4","geometry":{"type":"Point","coordinates":[-76.50941424,3.39583156]},"geometry_name":"the_geom","properties":{"gid":147,"oacid":291,"oacnombre":"Urbanización Vallado I","oacidcomuna":15,"oaccomuna":"Comuna 15","oacidbarrio":"1504","oacbarrio":"El Vallado","oacdirecc":"CL 54C # 48 - 17"}},{"type":"Feature","id":"pfp_ivc_organismos_accion_comunal.fid--215d4958_1a0d9e21907_3ec5","geometry":{"type":"Point","coordinates":[-76.50941424,3.39583156]},"geometry_name":"the_geom","properties":{"gid":146,"oacid":290,"oacnombre":"Urbanización Ciudad Córdoba Reservado","oacidcomuna":15,"oaccomuna":"Comuna 15","oacidbarrio":"1596","oacbarrio":"Ciudad Córdoba","oacdirecc":"CL 54C # 48 - 17"}},{"type":"Feature","id":"pfp_ivc_organismos_accion_comunal.fid--215d4958_1a0d9e21907_3ec6","geometry":{"type":"Point","coordinates":[-76.50633621,3.40357903]},"geometry_name":"the_geom","properties":{"gid":145,"oacid":287,"oacnombre":"Urbanización Ciudad Córdoba Etapa III","oacidcomuna":15,"oaccomuna":"Comuna 15","oacidbarrio":"1596","oacbarrio":"Ciudad Córdoba","oacdirecc":"CL 50 con KR 42B"}},{"type":"Feature","id":"pfp_ivc_organismos_accion_comunal.fid--215d4958_1a0d9e21907_3ec7","geometry":{"type":"Point","coordinates":[-76.51748309,3.4060955]},"geometry_name":"the_geom","properties":{"gid":149,"oacid":296,"oacnombre":"Mariano Ramos","oacidcomuna":16,"oaccomuna":"Comuna 16","oacidbarrio":"1601","oacbarrio":"Mariano Ramos","oacdirecc":"KR 47 con CL 40 esquina"}},{"type":"Feature","id":"pfp_ivc_organismos_accion_comunal.fid--215d4958_1a0d9e21907_3ec8","geometry":{"type":"Point","coordinates":[-76.51535781,3.40911539]},"geometry_name":"the_geom","properties":{"gid":175,"oacid":295,"oacnombre":"República de Israel","oacidcomuna":16,"oaccomuna":"Comuna 16","oacidbarrio":"1602","oacbarrio":"República de Israel","oacdirecc":"CL 38A entre KR 44A y KR 43B"}},{"type":"Feature","id":"pfp_ivc_organismos_accion_comunal.fid--215d4958_1a0d9e21907_3ec9","geometry":{"type":"Point","coordinates":[-76.50570068,3.41281777]},"geometry_name":"the_geom","properties":{"gid":148,"oacid":293,"oacnombre":"Antonio Nariño","oacidcomuna":16,"oaccomuna":"Comuna 16","oacidbarrio":"1604","oacbarrio":"Antonio Nariño","oacdirecc":"KR 40 # 43 - 53"}},{"type":"Feature","id":"pfp_ivc_organismos_accion_comunal.fid--215d4958_1a0d9e21907_3eca","geometry":{"type":"Point","coordinates":[-76.52213717,3.40073054]},"geometry_name":"the_geom","properties":{"gid":176,"oacid":297,"oacnombre":"Brisas del Limonar","oacidcomuna":16,"oaccomuna":"Comuna 16","oacidbarrio":"1605","oacbarrio":"Brisas del Limonar","oacdirecc":"KR 60 con CL 26 esquina"}},{"type":"Feature","id":"pfp_ivc_organismos_accion_comunal.fid--215d4958_1a0d9e21907_3ecb","geometry":{"type":"Point","coordinates":[-76.52005057,3.39541565]},"geometry_name":"the_geom","properties":{"gid":150,"oacid":299,"oacnombre":"Urbanización Ciudad 2000","oacidcomuna":16,"oaccomuna":"Comuna 16","oacidbarrio":"1697","oacbarrio":"Ciudad 2000","oacdirecc":"CL 34 con KR 68B"}},{"type":"Feature","id":"pfp_ivc_organismos_accion_comunal.fid--215d4958_1a0d9e21907_3ecc","geometry":{"type":"Point","coordinates":[-76.53214135,3.40530123]},"geometry_name":"the_geom","properties":{"gid":151,"oacid":301,"oacnombre":"Primero de Mayo","oacidcomuna":17,"oaccomuna":"Comuna 17","oacidbarrio":"1702","oacbarrio":"Primero de Mayo","oacdirecc":"CL 13F # 54 - 25"}},{"type":"Feature","id":"pfp_ivc_organismos_accion_comunal.fid--215d4958_1a0d9e21907_3ecd","geometry":{"type":"Point","coordinates":[-76.5502693,3.39306319]},"geometry_name":"the_geom","properties":{"gid":155,"oacid":339,"oacnombre":"Buenos Aires","oacidcomuna":18,"oaccomuna":"Comuna 18","oacidbarrio":"1801","oacbarrio":"Buenos Aires","oacdirecc":"KR 71 # 2C - 85"}},{"type":"Feature","id":"pfp_ivc_organismos_accion_comunal.fid--215d4958_1a0d9e21907_3ece","geometry":{"type":"Point","coordinates":[-76.54610891,3.37443263]},"geometry_name":"the_geom","properties":{"gid":154,"oacid":337,"oacnombre":"Meléndez","oacidcomuna":18,"oaccomuna":"Comuna 18","oacidbarrio":"1804","oacbarrio":"Meléndez","oacdirecc":"CL 4B # 95 - 01"}},{"type":"Feature","id":"pfp_ivc_organismos_accion_comunal.fid--215d4958_1a0d9e21907_3ecf","geometry":{"type":"Point","coordinates":[-76.54868703,3.38835388]},"geometry_name":"the_geom","properties":{"gid":156,"oacid":344,"oacnombre":"Francisco Eladio Ramírez","oacidcomuna":18,"oaccomuna":"Comuna 18","oacidbarrio":"1807","oacbarrio":"Francisco Eladio Ramírez","oacdirecc":"KR 76C con CL 3"}},{"type":"Feature","id":"pfp_ivc_organismos_accion_comunal.fid--215d4958_1a0d9e21907_3ed0","geometry":{"type":"Point","coordinates":[-76.55437015,3.39168418]},"geometry_name":"the_geom","properties":{"gid":153,"oacid":333,"oacnombre":"Lourdes","oacidcomuna":18,"oaccomuna":"Comuna 18","oacidbarrio":"1811","oacbarrio":"Lourdes","oacdirecc":"KR 73 # 1A - 17"}},{"type":"Feature","id":"pfp_ivc_organismos_accion_comunal.fid--215d4958_1a0d9e21907_3ed1","geometry":{"type":"Point","coordinates":[-76.55084749,3.37740035]},"geometry_name":"the_geom","properties":{"gid":160,"oacid":355,"oacnombre":"El Jordán","oacidcomuna":18,"oaccomuna":"Comuna 18","oacidbarrio":"1815","oacbarrio":"El Jordán","oacdirecc":"KR 93 # 2A - 65"}},{"type":"Feature","id":"pfp_ivc_organismos_accion_comunal.fid--215d4958_1a0d9e21907_3ed2","geometry":{"type":"Point","coordinates":[-76.55807801,3.38845323]},"geometry_name":"the_geom","properties":{"gid":152,"oacid":328,"oacnombre":"Chorros Parte Alta","oacidcomuna":18,"oaccomuna":"Comuna 18","oacidbarrio":"1890","oacbarrio":"Sector Alto de los Chorros","oacdirecc":"KR 75 con CL 2 OESTE"}},{"type":"Feature","id":"pfp_ivc_organismos_accion_comunal.fid--215d4958_1a0d9e21907_3ed3","geometry":{"type":"Point","coordinates":[-76.55206703,3.37383746]},"geometry_name":"the_geom","properties":{"gid":159,"oacid":352,"oacnombre":"Sector Alto Meléndez","oacidcomuna":18,"oaccomuna":"Comuna 18","oacidbarrio":"1896","oacbarrio":"Sector Meléndez","oacdirecc":"KR 94D # 2 - 23"}},{"type":"Feature","id":"pfp_ivc_organismos_accion_comunal.fid--215d4958_1a0d9e21907_3ed4","geometry":{"type":"Point","coordinates":[-76.5611734,3.37981132]},"geometry_name":"the_geom","properties":{"gid":177,"oacid":349,"oacnombre":"Palmas Uno Sector Urbano","oacidcomuna":18,"oaccomuna":"Comuna 18","oacidbarrio":"1897","oacbarrio":"Sector Alto Jordán","oacdirecc":"KR 90 OESTE con CL 4 OESTE ESQUINA"}},{"type":"Feature","id":"pfp_ivc_organismos_accion_comunal.fid--215d4958_1a0d9e21907_3ed5","geometry":{"type":"Point","coordinates":[-76.55964742,3.37789161]},"geometry_name":"the_geom","properties":{"gid":157,"oacid":348,"oacnombre":"Brisas de Las Palmas","oacidcomuna":18,"oaccomuna":"Comuna 18","oacidbarrio":"1897","oacbarrio":"Sector Alto Jordán","oacdirecc":"KR 93 OESTE # 3A - 12"}},{"type":"Feature","id":"pfp_ivc_organismos_accion_comunal.fid--215d4958_1a0d9e21907_3ed6","geometry":{"type":"Point","coordinates":[-76.5588257,3.38409425]},"geometry_name":"the_geom","properties":{"gid":158,"oacid":350,"oacnombre":"Vereda Alto Nápoles","oacidcomuna":18,"oaccomuna":"Comuna 18","oacidbarrio":"1898","oacbarrio":"Alto Nápoles","oacdirecc":"KR 82D OESTE # 1B - 95"}},{"type":"Feature","id":"pfp_ivc_organismos_accion_comunal.fid--215d4958_1a0d9e21907_3ed7","geometry":{"type":"Point","coordinates":[-76.55436159,3.44579545]},"geometry_name":"the_geom","properties":{"gid":161,"oacid":373,"oacnombre":"Bellavista","oacidcomuna":19,"oaccomuna":"Comuna 19","oacidbarrio":"1909","oacbarrio":"Bellavista","oacdirecc":"KR 3 OESTE # 14 - 39"}},{"type":"Feature","id":"pfp_ivc_organismos_accion_comunal.fid--215d4958_1a0d9e21907_3ed8","geometry":{"type":"Point","coordinates":[-76.55963108,3.41656961]},"geometry_name":"the_geom","properties":{"gid":163,"oacid":384,"oacnombre":"El Cortijo","oacidcomuna":20,"oaccomuna":"Comuna 20","oacidbarrio":"2001","oacbarrio":"El Cortijo","oacdirecc":"CL 8 OESTE # 52 - 42"}},{"type":"Feature","id":"pfp_ivc_organismos_accion_comunal.fid--215d4958_1a0d9e21907_3ed9","geometry":{"type":"Point","coordinates":[-76.55651535,3.41393481]},"geometry_name":"the_geom","properties":{"gid":167,"oacid":391,"oacnombre":"Belisario Caicedo","oacidcomuna":20,"oaccomuna":"Comuna 20","oacidbarrio":"2002","oacbarrio":"Belisario Caicedo","oacdirecc":"CL 3 OESTE # 53A - 12"}},{"type":"Feature","id":"pfp_ivc_organismos_accion_comunal.fid--215d4958_1a0d9e21907_3eda","geometry":{"type":"Point","coordinates":[-76.56715312,3.41823509]},"geometry_name":"the_geom","properties":{"gid":166,"oacid":389,"oacnombre":"Siloé","oacidcomuna":20,"oaccomuna":"Comuna 20","oacidbarrio":"2003","oacbarrio":"Siloé","oacdirecc":"CL 13 OESTE # 42 - 26"}},{"type":"Feature","id":"pfp_ivc_organismos_accion_comunal.fid--215d4958_1a0d9e21907_3edb","geometry":{"type":"Point","coordinates":[-76.56201932,3.4185763]},"geometry_name":"the_geom","properties":{"gid":162,"oacid":383,"oacnombre":"Lleras Camargo","oacidcomuna":20,"oaccomuna":"Comuna 20","oacidbarrio":"2004","oacbarrio":"Lleras Camargo","oacdirecc":"KR 51 OESTE # 13 - 15"}},{"type":"Feature","id":"pfp_ivc_organismos_accion_comunal.fid--215d4958_1a0d9e21907_3edc","geometry":{"type":"Point","coordinates":[-76.55353746,3.42636739]},"geometry_name":"the_geom","properties":{"gid":178,"oacid":385,"oacnombre":"Barrio Belén","oacidcomuna":20,"oaccomuna":"Comuna 20","oacidbarrio":"2005","oacbarrio":"Belén","oacdirecc":"CL 2 entre KR 39 y KR 39A"}},{"type":"Feature","id":"pfp_ivc_organismos_accion_comunal.fid--215d4958_1a0d9e21907_3edd","geometry":{"type":"Point","coordinates":[-76.54871817,3.43444839]},"geometry_name":"the_geom","properties":{"gid":164,"oacid":387,"oacnombre":"Tierra Blanca","oacidcomuna":20,"oaccomuna":"Comuna 20","oacidbarrio":"2007","oacbarrio":"Tierra Blanca","oacdirecc":"CL 7 OESTE # 29 - 48"}},{"type":"Feature","id":"pfp_ivc_organismos_accion_comunal.fid--215d4958_1a0d9e21907_3ede","geometry":{"type":"Point","coordinates":[-76.56668587,3.41699723]},"geometry_name":"the_geom","properties":{"gid":165,"oacid":388,"oacnombre":"Pueblo Joven","oacidcomuna":20,"oaccomuna":"Comuna 20","oacidbarrio":"2008","oacbarrio":"Pueblo Joven","oacdirecc":"KR 54D OESTE # 41 - 10"}},{"type":"Feature","id":"pfp_ivc_organismos_accion_comunal.fid--215d4958_1a0d9e21907_3edf","geometry":{"type":"Point","coordinates":[-76.56270853,3.41270123]},"geometry_name":"the_geom","properties":{"gid":179,"oacid":386,"oacnombre":"Cañaveralejo","oacidcomuna":20,"oaccomuna":"Comuna 20","oacidbarrio":"2098","oacbarrio":"Venezuela - Urbanización Cañaveralejo","oacdirecc":"DG 52 # 12 - 21"}},{"type":"Feature","id":"pfp_ivc_organismos_accion_comunal.fid--215d4958_1a0d9e21907_3ee0","geometry":{"type":"Point","coordinates":[-76.56412298,3.42252968]},"geometry_name":"the_geom","properties":{"gid":168,"oacid":392,"oacnombre":"La Sultana","oacidcomuna":20,"oaccomuna":"Comuna 20","oacidbarrio":"2099","oacbarrio":"La Sultana","oacdirecc":"CL 22 OESTE # 47 - 07"}},{"type":"Feature","id":"pfp_ivc_organismos_accion_comunal.fid--215d4958_1a0d9e21907_3ee1","geometry":{"type":"Point","coordinates":[-76.46790251,3.41492541]},"geometry_name":"the_geom","properties":{"gid":169,"oacid":395,"oacnombre":"Urbanización Calimio ciudadela Desepaz","oacidcomuna":21,"oaccomuna":"Comuna 21","oacidbarrio":"2103","oacbarrio":"Calimio Desepaz","oacdirecc":"KR 26M3 con CL 123"}},{"type":"Feature","id":"pfp_ivc_organismos_accion_comunal.fid--215d4958_1a0d9e21907_3ee2","geometry":{"type":"Point","coordinates":[-76.46349908,3.42826994]},"geometry_name":"the_geom","properties":{"gid":170,"oacid":402,"oacnombre":"Desepaz Invicali","oacidcomuna":21,"oaccomuna":"Comuna 21","oacidbarrio":"2106","oacbarrio":"Desepaz Invicali","oacdirecc":"KR 23 # 120 - 66"}}],"totalFeatures":182,"numberMatched":182,"numberReturned":182,"timeStamp":"2026-09-25T19:00:36.006Z","crs":{"type":"name","properties":{"name":"urn:ogc:def:crs:EPSG::4326"}}}